{"type":"FeatureCollection","features":[{"type":"Feature","geometry":{"type":"LineString","coordinates":[[16.126174,41.322009],[16.126652,41.322098]]},"properties":{"id":"roman_cav_right","side":"rome","tFrom":0,"tTo":30}},{"type":"Feature","geometry":{"type":"LineString","coordinates":[[16.126652,41.322098],[16.127543,41.321949],[16.127609,41.322098]]},"properties":{"id":"roman_cav_right","side":"rome","tFrom":30,"tTo":70}},{"type":"Feature","geometry":{"type":"LineString","coordinates":[[16.127609,41.322098],[16.127543,41.322336],[16.127028,41.322723],[16.127028,41.323111],[16.124451,41.325047],[16.123423,41.325602]]},"properties":{"id":"roman_cav_right","side":"rome","tFrom":70,"tTo":120}},{"type":"Feature","geometry":{"type":"LineString","coordinates":[[16.123423,41.325602],[16.123421,41.325434],[16.122905,41.325821],[16.122228,41.326051]]},"properties":{"id":"roman_cav_right","side":"rome","tFrom":120,"tTo":170}},{"type":"Feature","geometry":{"type":"LineString","coordinates":[[16.122228,41.326051],[16.12163,41.3265]]},"properties":{"id":"roman_cav_right","side":"rome","tFrom":170,"tTo":220}},{"type":"Feature","geometry":{"type":"LineString","coordinates":[[16.12163,41.3265],[16.12163,41.3265]]},"properties":{"id":"roman_cav_right","side":"rome","tFrom":220,"tTo":300}},{"type":"Feature","geometry":{"type":"LineString","coordinates":[[16.126174,41.320212],[16.126413,41.320212]]},"properties":{"id":"roman_inf_1","side":"rome","tFrom":0,"tTo":30}},{"type":"Feature","geometry":{"type":"LineString","coordinates":[[16.126413,41.320212],[16.127028,41.320013],[16.128059,41.320013],[16.128206,41.319943]]},"properties":{"id":"roman_inf_1","side":"rome","tFrom":30,"tTo":70}},{"type":"Feature","geometry":{"type":"LineString","coordinates":[[16.128206,41.319943],[16.129089,41.319239],[16.13012,41.319239],[16.130478,41.319583]]},"properties":{"id":"roman_inf_1","side":"rome","tFrom":70,"tTo":120}},{"type":"Feature","geometry":{"type":"LineString","coordinates":[[16.130478,41.319583],[16.130635,41.318852],[16.130837,41.318685]]},"properties":{"id":"roman_inf_1","side":"rome","tFrom":120,"tTo":170}},{"type":"Feature","geometry":{"type":"LineString","coordinates":[[16.130837,41.318685],[16.13115,41.318077],[16.131076,41.317966]]},"properties":{"id":"roman_inf_1","side":"rome","tFrom":170,"tTo":220}},{"type":"Feature","geometry":{"type":"LineString","coordinates":[[16.131076,41.317966],[16.131196,41.317427]]},"properties":{"id":"roman_inf_1","side":"rome","tFrom":220,"tTo":300}},{"type":"Feature","geometry":{"type":"LineString","coordinates":[[16.126174,41.318415],[16.126413,41.318415]]},"properties":{"id":"roman_inf_2","side":"rome","tFrom":0,"tTo":30}},{"type":"Feature","geometry":{"type":"LineString","coordinates":[[16.126413,41.318415],[16.127028,41.318077],[16.128059,41.318077],[16.128206,41.318326]]},"properties":{"id":"roman_inf_2","side":"rome","tFrom":30,"tTo":70}},{"type":"Feature","geometry":{"type":"LineString","coordinates":[[16.128206,41.318326],[16.129089,41.318077],[16.13012,41.318077],[16.130478,41.318146]]},"properties":{"id":"roman_inf_2","side":"rome","tFrom":70,"tTo":120}},{"type":"Feature","geometry":{"type":"LineString","coordinates":[[16.130478,41.318146],[16.130635,41.31769],[16.130837,41.317607]]},"properties":{"id":"roman_inf_2","side":"rome","tFrom":120,"tTo":170}},{"type":"Feature","geometry":{"type":"LineString","coordinates":[[16.130837,41.317607],[16.131076,41.317248]]},"properties":{"id":"roman_inf_2","side":"rome","tFrom":170,"tTo":220}},{"type":"Feature","geometry":{"type":"LineString","coordinates":[[16.131076,41.317248],[16.131196,41.317068]]},"properties":{"id":"roman_inf_2","side":"rome","tFrom":220,"tTo":300}},{"type":"Feature","geometry":{"type":"LineString","coordinates":[[16.126174,41.316619],[16.126413,41.316619]]},"properties":{"id":"roman_inf_3","side":"rome","tFrom":0,"tTo":30}},{"type":"Feature","geometry":{"type":"LineString","coordinates":[[16.126413,41.316619],[16.127028,41.316529],[16.128059,41.316529],[16.128206,41.316619]]},"properties":{"id":"roman_inf_3","side":"rome","tFrom":30,"tTo":70}},{"type":"Feature","geometry":{"type":"LineString","coordinates":[[16.128206,41.316619],[16.129089,41.316529],[16.13012,41.316529],[16.130598,41.316619]]},"properties":{"id":"roman_inf_3","side":"rome","tFrom":70,"tTo":120}},{"type":"Feature","geometry":{"type":"LineString","coordinates":[[16.130598,41.316619],[16.130957,41.316619]]},"properties":{"id":"roman_inf_3","side":"rome","tFrom":120,"tTo":170}},{"type":"Feature","geometry":{"type":"LineString","coordinates":[[16.130957,41.316619],[16.131196,41.316619]]},"properties":{"id":"roman_inf_3","side":"rome","tFrom":170,"tTo":220}},{"type":"Feature","geometry":{"type":"LineString","coordinates":[[16.131196,41.316619],[16.131315,41.316619]]},"properties":{"id":"roman_inf_3","side":"rome","tFrom":220,"tTo":300}},{"type":"Feature","geometry":{"type":"LineString","coordinates":[[16.126174,41.314822],[16.126413,41.314822]]},"properties":{"id":"roman_inf_4","side":"rome","tFrom":0,"tTo":30}},{"type":"Feature","geometry":{"type":"LineString","coordinates":[[16.126413,41.314822],[16.127028,41.314593],[16.127543,41.314593],[16.128059,41.31498],[16.128206,41.315002]]},"properties":{"id":"roman_inf_4","side":"rome","tFrom":30,"tTo":70}},{"type":"Feature","geometry":{"type":"LineString","coordinates":[[16.128206,41.315002],[16.129089,41.31498],[16.129604,41.315367],[16.13012,41.315367],[16.130478,41.315451]]},"properties":{"id":"roman_inf_4","side":"rome","tFrom":70,"tTo":120}},{"type":"Feature","geometry":{"type":"LineString","coordinates":[[16.130478,41.315451],[16.130837,41.3159]]},"properties":{"id":"roman_inf_4","side":"rome","tFrom":120,"tTo":170}},{"type":"Feature","geometry":{"type":"LineString","coordinates":[[16.130837,41.3159],[16.131076,41.31617]]},"properties":{"id":"roman_inf_4","side":"rome","tFrom":170,"tTo":220}},{"type":"Feature","geometry":{"type":"LineString","coordinates":[[16.131076,41.31617],[16.131196,41.316259]]},"properties":{"id":"roman_inf_4","side":"rome","tFrom":220,"tTo":300}},{"type":"Feature","geometry":{"type":"LineString","coordinates":[[16.126174,41.313026],[16.126413,41.313026]]},"properties":{"id":"roman_inf_5","side":"rome","tFrom":0,"tTo":30}},{"type":"Feature","geometry":{"type":"LineString","coordinates":[[16.126413,41.313026],[16.127028,41.313044],[16.127543,41.313431],[16.128059,41.313431],[16.128206,41.313475]]},"properties":{"id":"roman_inf_5","side":"rome","tFrom":30,"tTo":70}},{"type":"Feature","geometry":{"type":"LineString","coordinates":[[16.128206,41.313475],[16.129089,41.313818],[16.13012,41.313818],[16.130478,41.314373]]},"properties":{"id":"roman_inf_5","side":"rome","tFrom":70,"tTo":120}},{"type":"Feature","geometry":{"type":"LineString","coordinates":[[16.130478,41.314373],[16.130635,41.314593],[16.130837,41.315271]]},"properties":{"id":"roman_inf_5","side":"rome","tFrom":120,"tTo":170}},{"type":"Feature","geometry":{"type":"LineString","coordinates":[[16.130837,41.315271],[16.131076,41.31572]]},"properties":{"id":"roman_inf_5","side":"rome","tFrom":170,"tTo":220}},{"type":"Feature","geometry":{"type":"LineString","coordinates":[[16.131076,41.31572],[16.131196,41.31599]]},"properties":{"id":"roman_inf_5","side":"rome","tFrom":220,"tTo":300}},{"type":"Feature","geometry":{"type":"LineString","coordinates":[[16.127848,41.317427],[16.128574,41.317303],[16.129604,41.317303],[16.129641,41.317427]]},"properties":{"id":"roman_velites","side":"rome","tFrom":0,"tTo":30}},{"type":"Feature","geometry":{"type":"LineString","coordinates":[[16.129641,41.317427],[16.129604,41.317303],[16.128574,41.317303],[16.127609,41.317427]]},"properties":{"id":"roman_velites","side":"rome","tFrom":30,"tTo":70}},{"type":"Feature","geometry":{"type":"LineString","coordinates":[[16.127609,41.317427],[16.128574,41.317303],[16.128804,41.317427]]},"properties":{"id":"roman_velites","side":"rome","tFrom":70,"tTo":120}},{"type":"Feature","geometry":{"type":"LineString","coordinates":[[16.128804,41.317427],[16.129402,41.317337]]},"properties":{"id":"roman_velites","side":"rome","tFrom":120,"tTo":170}},{"type":"Feature","geometry":{"type":"LineString","coordinates":[[16.129402,41.317337],[16.13,41.317248]]},"properties":{"id":"roman_velites","side":"rome","tFrom":170,"tTo":220}},{"type":"Feature","geometry":{"type":"LineString","coordinates":[[16.13,41.317248],[16.130359,41.317158]]},"properties":{"id":"roman_velites","side":"rome","tFrom":220,"tTo":300}},{"type":"Feature","geometry":{"type":"LineString","coordinates":[[16.126413,41.31078],[16.126413,41.3106]]},"properties":{"id":"roman_cav_left","side":"rome","tFrom":0,"tTo":30}},{"type":"Feature","geometry":{"type":"LineString","coordinates":[[16.126413,41.3106],[16.126652,41.310331]]},"properties":{"id":"roman_cav_left","side":"rome","tFrom":30,"tTo":70}},{"type":"Feature","geometry":{"type":"LineString","coordinates":[[16.126652,41.310331],[16.127028,41.310334],[16.126891,41.31078]]},"properties":{"id":"roman_cav_left","side":"rome","tFrom":70,"tTo":120}},{"type":"Feature","geometry":{"type":"LineString","coordinates":[[16.126891,41.31078],[16.127028,41.310334],[16.126413,41.310241]]},"properties":{"id":"roman_cav_left","side":"rome","tFrom":120,"tTo":170}},{"type":"Feature","geometry":{"type":"LineString","coordinates":[[16.126413,41.310241],[16.125997,41.309559],[16.124619,41.308534]]},"properties":{"id":"roman_cav_left","side":"rome","tFrom":170,"tTo":220}},{"type":"Feature","geometry":{"type":"LineString","coordinates":[[16.124619,41.308534],[16.124967,41.308011],[16.123421,41.306849],[16.122826,41.306737]]},"properties":{"id":"roman_cav_left","side":"rome","tFrom":220,"tTo":300}},{"type":"Feature","geometry":{"type":"LineString","coordinates":[[16.133826,41.322009],[16.133727,41.321949],[16.133109,41.322098]]},"properties":{"id":"carth_cav_hasdrubal","side":"carthage","tFrom":0,"tTo":30}},{"type":"Feature","geometry":{"type":"LineString","coordinates":[[16.133109,41.322098],[16.132696,41.321949],[16.129089,41.321949],[16.128565,41.322188]]},"properties":{"id":"carth_cav_hasdrubal","side":"carthage","tFrom":30,"tTo":70}},{"type":"Feature","geometry":{"type":"LineString","coordinates":[[16.128565,41.322188],[16.128059,41.322336],[16.126513,41.323498],[16.126513,41.323885],[16.125997,41.324272],[16.124978,41.324704]]},"properties":{"id":"carth_cav_hasdrubal","side":"carthage","tFrom":70,"tTo":120}},{"type":"Feature","geometry":{"type":"LineString","coordinates":[[16.124978,41.324704],[16.125482,41.324272],[16.125482,41.322723],[16.124967,41.322336],[16.124967,41.321949],[16.124451,41.321562],[16.123423,41.321559]]},"properties":{"id":"carth_cav_hasdrubal","side":"carthage","tFrom":120,"tTo":170}},{"type":"Feature","geometry":{"type":"LineString","coordinates":[[16.123423,41.321559],[16.123936,41.320788],[16.123936,41.311495],[16.124451,41.311108],[16.124451,41.310334],[16.124967,41.309947],[16.124967,41.309559],[16.124619,41.309432]]},"properties":{"id":"carth_cav_hasdrubal","side":"carthage","tFrom":170,"tTo":220}},{"type":"Feature","geometry":{"type":"LineString","coordinates":[[16.124619,41.309432],[16.125482,41.308785],[16.127543,41.308785],[16.127609,41.308983]]},"properties":{"id":"carth_cav_hasdrubal","side":"carthage","tFrom":220,"tTo":300}},{"type":"Feature","geometry":{"type":"LineString","coordinates":[[16.133587,41.31078],[16.133348,41.310959]]},"properties":{"id":"carth_cav_numidian","side":"carthage","tFrom":0,"tTo":30}},{"type":"Feature","geometry":{"type":"LineString","coordinates":[[16.133348,41.310959],[16.133212,41.310721],[16.132391,41.31078]]},"properties":{"id":"carth_cav_numidian","side":"carthage","tFrom":30,"tTo":70}},{"type":"Feature","geometry":{"type":"LineString","coordinates":[[16.132391,41.31078],[16.131794,41.311229]]},"properties":{"id":"carth_cav_numidian","side":"carthage","tFrom":70,"tTo":120}},{"type":"Feature","geometry":{"type":"LineString","coordinates":[[16.131794,41.311229],[16.131196,41.310959]]},"properties":{"id":"carth_cav_numidian","side":"carthage","tFrom":120,"tTo":170}},{"type":"Feature","geometry":{"type":"LineString","coordinates":[[16.131196,41.310959],[16.13115,41.310334],[16.130598,41.310331]]},"properties":{"id":"carth_cav_numidian","side":"carthage","tFrom":170,"tTo":220}},{"type":"Feature","geometry":{"type":"LineString","coordinates":[[16.130598,41.310331],[16.13012,41.309559],[16.129402,41.309432]]},"properties":{"id":"carth_cav_numidian","side":"carthage","tFrom":220,"tTo":300}},{"type":"Feature","geometry":{"type":"LineString","coordinates":[[16.135381,41.320032],[16.135022,41.320032]]},"properties":{"id":"carth_inf_african_left","side":"carthage","tFrom":0,"tTo":30}},{"type":"Feature","geometry":{"type":"LineString","coordinates":[[16.135022,41.320032],[16.134758,41.319626],[16.134185,41.319763]]},"properties":{"id":"carth_inf_african_left","side":"carthage","tFrom":30,"tTo":70}},{"type":"Feature","geometry":{"type":"LineString","coordinates":[[16.134185,41.319763],[16.133348,41.319314]]},"properties":{"id":"carth_inf_african_left","side":"carthage","tFrom":70,"tTo":120}},{"type":"Feature","geometry":{"type":"LineString","coordinates":[[16.133348,41.319314],[16.133212,41.318852],[16.132181,41.318077],[16.131435,41.318415]]},"properties":{"id":"carth_inf_african_left","side":"carthage","tFrom":120,"tTo":170}},{"type":"Feature","geometry":{"type":"LineString","coordinates":[[16.131435,41.318415],[16.13115,41.318077],[16.130239,41.317787]]},"properties":{"id":"carth_inf_african_left","side":"carthage","tFrom":170,"tTo":220}},{"type":"Feature","geometry":{"type":"LineString","coordinates":[[16.130239,41.317787],[16.13012,41.317337]]},"properties":{"id":"carth_inf_african_left","side":"carthage","tFrom":220,"tTo":300}},{"type":"Feature","geometry":{"type":"LineString","coordinates":[[16.132631,41.318415],[16.131913,41.318415]]},"properties":{"id":"carth_inf_gallic_1","side":"carthage","tFrom":0,"tTo":30}},{"type":"Feature","geometry":{"type":"LineString","coordinates":[[16.131913,41.318415],[16.131666,41.318077],[16.13115,41.318077],[16.130239,41.318326]]},"properties":{"id":"carth_inf_gallic_1","side":"carthage","tFrom":30,"tTo":70}},{"type":"Feature","geometry":{"type":"LineString","coordinates":[[16.130239,41.318326],[16.13115,41.318077],[16.131196,41.318146]]},"properties":{"id":"carth_inf_gallic_1","side":"carthage","tFrom":70,"tTo":120}},{"type":"Feature","geometry":{"type":"LineString","coordinates":[[16.131196,41.318146],[16.131674,41.317697]]},"properties":{"id":"carth_inf_gallic_1","side":"carthage","tFrom":120,"tTo":170}},{"type":"Feature","geometry":{"type":"LineString","coordinates":[[16.131674,41.317697],[16.131794,41.317337]]},"properties":{"id":"carth_inf_gallic_1","side":"carthage","tFrom":170,"tTo":220}},{"type":"Feature","geometry":{"type":"LineString","coordinates":[[16.131794,41.317337],[16.131674,41.317158]]},"properties":{"id":"carth_inf_gallic_1","side":"carthage","tFrom":220,"tTo":300}},{"type":"Feature","geometry":{"type":"LineString","coordinates":[[16.132631,41.316619],[16.131913,41.316619]]},"properties":{"id":"carth_inf_spanish_1","side":"carthage","tFrom":0,"tTo":30}},{"type":"Feature","geometry":{"type":"LineString","coordinates":[[16.131913,41.316619],[16.131666,41.316529],[16.13115,41.316529],[16.13012,41.316619]]},"properties":{"id":"carth_inf_spanish_1","side":"carthage","tFrom":30,"tTo":70}},{"type":"Feature","geometry":{"type":"LineString","coordinates":[[16.13012,41.316619],[16.13115,41.316529],[16.131315,41.316619]]},"properties":{"id":"carth_inf_spanish_1","side":"carthage","tFrom":70,"tTo":120}},{"type":"Feature","geometry":{"type":"LineString","coordinates":[[16.131315,41.316619],[16.131794,41.316619]]},"properties":{"id":"carth_inf_spanish_1","side":"carthage","tFrom":120,"tTo":170}},{"type":"Feature","geometry":{"type":"LineString","coordinates":[[16.131794,41.316619],[16.131913,41.316619]]},"properties":{"id":"carth_inf_spanish_1","side":"carthage","tFrom":170,"tTo":220}},{"type":"Feature","geometry":{"type":"LineString","coordinates":[[16.131913,41.316619],[16.131794,41.316619]]},"properties":{"id":"carth_inf_spanish_1","side":"carthage","tFrom":220,"tTo":300}},{"type":"Feature","geometry":{"type":"LineString","coordinates":[[16.132631,41.315002],[16.131913,41.315002]]},"properties":{"id":"carth_inf_gallic_2","side":"carthage","tFrom":0,"tTo":30}},{"type":"Feature","geometry":{"type":"LineString","coordinates":[[16.131913,41.315002],[16.131666,41.31498],[16.13115,41.31498],[16.130239,41.315181]]},"properties":{"id":"carth_inf_gallic_2","side":"carthage","tFrom":30,"tTo":70}},{"type":"Feature","geometry":{"type":"LineString","coordinates":[[16.130239,41.315181],[16.13115,41.31498],[16.131196,41.315451]]},"properties":{"id":"carth_inf_gallic_2","side":"carthage","tFrom":70,"tTo":120}},{"type":"Feature","geometry":{"type":"LineString","coordinates":[[16.131196,41.315451],[16.131674,41.31599]]},"properties":{"id":"carth_inf_gallic_2","side":"carthage","tFrom":120,"tTo":170}},{"type":"Feature","geometry":{"type":"LineString","coordinates":[[16.131674,41.31599],[16.131794,41.316259]]},"properties":{"id":"carth_inf_gallic_2","side":"carthage","tFrom":170,"tTo":220}},{"type":"Feature","geometry":{"type":"LineString","coordinates":[[16.131794,41.316259],[16.131674,41.316439]]},"properties":{"id":"carth_inf_gallic_2","side":"carthage","tFrom":220,"tTo":300}},{"type":"Feature","geometry":{"type":"LineString","coordinates":[[16.135381,41.313205],[16.135022,41.313205]]},"properties":{"id":"carth_inf_african_right","side":"carthage","tFrom":0,"tTo":30}},{"type":"Feature","geometry":{"type":"LineString","coordinates":[[16.135022,41.313205],[16.134758,41.313044],[16.134185,41.313475]]},"properties":{"id":"carth_inf_african_right","side":"carthage","tFrom":30,"tTo":70}},{"type":"Feature","geometry":{"type":"LineString","coordinates":[[16.134185,41.313475],[16.133348,41.314103]]},"properties":{"id":"carth_inf_african_right","side":"carthage","tFrom":70,"tTo":120}},{"type":"Feature","geometry":{"type":"LineString","coordinates":[[16.133348,41.314103],[16.132181,41.31498],[16.131435,41.315002]]},"properties":{"id":"carth_inf_african_right","side":"carthage","tFrom":120,"tTo":170}},{"type":"Feature","geometry":{"type":"LineString","coordinates":[[16.131435,41.315002],[16.13115,41.315367],[16.130239,41.315631]]},"properties":{"id":"carth_inf_african_right","side":"carthage","tFrom":170,"tTo":220}},{"type":"Feature","geometry":{"type":"LineString","coordinates":[[16.130239,41.315631],[16.13012,41.31608]]},"properties":{"id":"carth_inf_african_right","side":"carthage","tFrom":220,"tTo":300}},{"type":"Feature","geometry":{"type":"LineString","coordinates":[[16.131794,41.31572],[16.131666,41.315367],[16.13115,41.315754],[16.130239,41.31581]]},"properties":{"id":"carth_skirmishers","side":"carthage","tFrom":0,"tTo":30}},{"type":"Feature","geometry":{"type":"LineString","coordinates":[[16.130239,41.31581],[16.13115,41.315754],[16.131666,41.315367],[16.132152,41.31572]]},"properties":{"id":"carth_skirmishers","side":"carthage","tFrom":30,"tTo":70}},{"type":"Feature","geometry":{"type":"LineString","coordinates":[[16.132152,41.31572],[16.131196,41.31581]]},"properties":{"id":"carth_skirmishers","side":"carthage","tFrom":70,"tTo":120}},{"type":"Feature","geometry":{"type":"LineString","coordinates":[[16.131196,41.31581],[16.130717,41.31617]]},"properties":{"id":"carth_skirmishers","side":"carthage","tFrom":120,"tTo":170}},{"type":"Feature","geometry":{"type":"LineString","coordinates":[[16.130717,41.31617],[16.130478,41.316439]]},"properties":{"id":"carth_skirmishers","side":"carthage","tFrom":170,"tTo":220}},{"type":"Feature","geometry":{"type":"LineString","coordinates":[[16.130478,41.316439],[16.130359,41.316529]]},"properties":{"id":"carth_skirmishers","side":"carthage","tFrom":220,"tTo":300}}]}