{"type":"FeatureCollection","features":[{"type":"Feature","geometry":{"type":"LineString","coordinates":[[16.082195,41.335887],[16.092501,41.335887],[16.093017,41.335242],[16.093532,41.335242],[16.094047,41.335371],[16.094563,41.335436],[16.095078,41.335307],[16.095593,41.334726],[16.096109,41.334726],[16.096624,41.33492],[16.097139,41.335242],[16.097655,41.335307],[16.09817,41.335694],[16.098685,41.335823],[16.099201,41.335823],[16.099716,41.335887],[16.103838,41.335887],[16.104354,41.335371],[16.104869,41.335113],[16.105384,41.335049],[16.10693,41.335049],[16.107446,41.335113],[16.107961,41.3355],[16.108476,41.335565],[16.108992,41.335694],[16.109507,41.335694],[16.110022,41.335823],[16.110538,41.335887],[16.114145,41.335887],[16.115176,41.335758],[16.115691,41.32737],[16.116206,41.327305],[16.117237,41.327305],[16.117752,41.32737],[16.118267,41.32737],[16.118783,41.330273],[16.119298,41.332403],[16.121359,41.332403],[16.121875,41.335242],[16.12239,41.335694],[16.124967,41.335694],[16.125482,41.335565],[16.125997,41.335565],[16.127543,41.335371],[16.128574,41.3355],[16.129604,41.335371],[16.13115,41.335371],[16.131666,41.335565],[16.132696,41.335694],[16.134242,41.335694],[16.135273,41.335823],[16.135788,41.335823],[16.136304,41.335887],[16.137334,41.335887],[16.13888,41.335758],[16.139396,41.334597],[16.141457,41.334597],[16.141972,41.334726],[16.142487,41.335049],[16.143003,41.335565],[16.143518,41.335887],[16.165677,41.335887],[16.166192,41.335823],[16.167223,41.335823],[16.167738,41.335694],[16.168253,41.335629],[16.168769,41.333371],[16.169284,41.333242],[16.172376,41.333242],[16.172891,41.334016],[16.173922,41.334274],[16.174953,41.334274],[16.175468,41.334597],[16.176499,41.333242],[16.177529,41.333242]]},"properties":{"name":"Ofanto (ancient Aufidus) -- modern course, approximate","provenance":"Hand-authored trace of the DEM's lowest-elevation band across the clip; the 216 BC channel is disputed by historians and may have differed from today's course."}}]}