{"type":"FeatureCollection","features":[{"type":"Feature","geometry":{"type":"Polygon","coordinates":[[[16.082195,41.335887],[16.177787,41.335887],[16.177787,41.301335],[16.177581,41.301687],[16.177461,41.302074],[16.177272,41.302193],[16.176928,41.302233],[16.176157,41.301945],[16.175726,41.30197],[16.174953,41.302369],[16.174609,41.302366],[16.174523,41.302411],[16.17443,41.302526],[16.174306,41.302913],[16.174101,41.303042],[16.173578,41.303196],[16.17229,41.303744],[16.171689,41.303793],[16.171517,41.303869],[16.17141,41.304204],[16.171428,41.304913],[16.171493,41.305171],[16.171696,41.305623],[16.171733,41.30601],[16.171658,41.306268],[16.171364,41.306591],[16.171407,41.307172],[16.171383,41.307624],[16.171345,41.307702],[16.171174,41.307744],[16.170401,41.307715],[16.170057,41.307207],[16.169628,41.307242],[16.16937,41.307148],[16.168831,41.306591],[16.168727,41.306268],[16.168747,41.305752],[16.169066,41.305042],[16.169604,41.304397],[16.170057,41.303697],[16.17074,41.303429],[16.170903,41.303236],[16.170731,41.302074],[16.170572,41.301837],[16.170315,41.301693],[16.169971,41.30167],[16.169628,41.301738],[16.169239,41.30188],[16.168605,41.302203],[16.168402,41.302397],[16.168224,41.302719],[16.167996,41.30293],[16.16748,41.303651],[16.167223,41.303884],[16.166879,41.303962],[16.166272,41.303945],[16.16594,41.303816],[16.165795,41.303687],[16.165592,41.3033],[16.165491,41.30259],[16.165407,41.302332],[16.165182,41.30201],[16.16499,41.30183],[16.164788,41.301751],[16.164303,41.301669],[16.163444,41.301727],[16.162928,41.30167],[16.162877,41.301751],[16.162776,41.302784],[16.16296,41.303687],[16.163009,41.304397],[16.162899,41.30472],[16.162757,41.304957],[16.162585,41.305065],[16.162327,41.305124],[16.16164,41.305102],[16.161275,41.304978],[16.160352,41.304457],[16.160094,41.304247],[16.159837,41.304152],[16.159493,41.304105],[16.158978,41.304234],[16.158462,41.304157],[16.158119,41.304049],[16.157324,41.303623],[16.155456,41.303229],[16.154855,41.303049],[16.15434,41.30284],[16.153996,41.302613],[16.153671,41.302332],[16.153348,41.301945],[16.153108,41.3013],[16.153111,41.301106],[16.153301,41.300461],[16.153271,41.300267],[16.15312,41.300009],[16.15288,41.299765],[16.152279,41.299448],[16.151763,41.299004],[16.151563,41.298783],[16.151334,41.29837],[16.150904,41.297822],[16.150561,41.297585],[16.14996,41.297276],[16.149502,41.296783],[16.149279,41.296266],[16.149236,41.296008],[16.149407,41.295363],[16.149549,41.29504],[16.149456,41.294911],[16.148585,41.294544],[16.148328,41.294517],[16.147641,41.294574],[16.147273,41.294524],[16.146524,41.294085],[16.146069,41.293879],[16.145665,41.293599],[16.145236,41.293513],[16.144119,41.293103],[16.143658,41.292717],[16.14352,41.292266],[16.143383,41.292007],[16.142745,41.291539],[16.141371,41.291414],[16.140942,41.291327],[16.139466,41.290652],[16.139052,41.290554],[16.138709,41.290394],[16.138061,41.290201],[16.137475,41.289878],[16.137077,41.289485],[16.13596,41.288906],[16.135525,41.288458],[16.134924,41.288071],[16.134598,41.287749],[16.134328,41.287455],[16.133555,41.287195],[16.13304,41.286717],[16.132095,41.286048],[16.131838,41.285977],[16.131236,41.28594],[16.130206,41.285963],[16.129898,41.285877],[16.129379,41.285425],[16.128917,41.284821],[16.128307,41.284458],[16.127887,41.284123],[16.127371,41.284013],[16.126255,41.284232],[16.125911,41.28425],[16.125654,41.28419],[16.125138,41.283954],[16.124451,41.283877],[16.124187,41.283748],[16.123678,41.283102],[16.123335,41.282919],[16.122905,41.282788],[16.122476,41.282774],[16.121961,41.282977],[16.121703,41.282995],[16.121188,41.282879],[16.120329,41.282781],[16.119813,41.28262],[16.118869,41.282592],[16.117666,41.282739],[16.116807,41.283013],[16.115605,41.283078],[16.115274,41.283038],[16.114574,41.282808],[16.113458,41.282956],[16.112599,41.282689],[16.111826,41.282974],[16.111397,41.282985],[16.111053,41.28289],[16.109627,41.282328],[16.109249,41.282231],[16.107618,41.281966],[16.106587,41.281988],[16.106077,41.281876],[16.105156,41.281554],[16.104182,41.281061],[16.103782,41.280779],[16.103409,41.280614],[16.101434,41.280105],[16.099802,41.279193],[16.098857,41.278871],[16.097875,41.278392],[16.097483,41.278255],[16.096968,41.278166],[16.095765,41.278125],[16.095164,41.278198],[16.094649,41.2782],[16.094047,41.278039],[16.093103,41.277954],[16.092813,41.277746],[16.092587,41.277358],[16.09216,41.277101],[16.091814,41.276704],[16.091643,41.276702],[16.091299,41.276827],[16.090956,41.276841],[16.090612,41.276755],[16.089925,41.276407],[16.089324,41.2764],[16.088551,41.276557],[16.08831,41.276714],[16.088121,41.277051],[16.087815,41.277166],[16.08752,41.277186],[16.087262,41.277139],[16.087091,41.277051],[16.086919,41.276879],[16.086833,41.276883],[16.086488,41.277166],[16.086146,41.277277],[16.085802,41.277224],[16.085287,41.276969],[16.085029,41.276921],[16.084772,41.276956],[16.084256,41.277165],[16.083999,41.277177],[16.083759,41.277037],[16.08355,41.276649],[16.083226,41.27626],[16.083045,41.275617],[16.082937,41.275423],[16.08271,41.275256],[16.082195,41.2752],[16.082195,41.29138],[16.082815,41.292137],[16.084129,41.292975],[16.084943,41.293315],[16.085287,41.293517],[16.08606,41.294328],[16.086682,41.294847],[16.087692,41.295247],[16.088465,41.295213],[16.088914,41.295298],[16.089753,41.295686],[16.090784,41.296494],[16.091041,41.296573],[16.091471,41.296583],[16.0917,41.296654],[16.092179,41.297105],[16.092392,41.297234],[16.092759,41.297328],[16.093446,41.297285],[16.093704,41.297321],[16.094047,41.297463],[16.094437,41.297751],[16.094463,41.297944],[16.094103,41.298331],[16.094046,41.29846],[16.094108,41.29917],[16.094252,41.29988],[16.094477,41.300333],[16.094688,41.301106],[16.095023,41.301687],[16.094926,41.302203],[16.09525,41.302702],[16.095443,41.303107],[16.095585,41.304268],[16.095701,41.304526],[16.096087,41.305107],[16.09615,41.305688],[16.096228,41.305946],[16.096452,41.306285],[16.097602,41.307301],[16.097798,41.307817],[16.097885,41.308462],[16.098112,41.309366],[16.09917,41.310592],[16.099538,41.311302],[16.100101,41.311947],[16.100174,41.312205],[16.100183,41.312721],[16.100297,41.313238],[16.100719,41.314141],[16.101605,41.315361],[16.101673,41.315625],[16.101657,41.316077],[16.1017,41.316271],[16.101777,41.316358],[16.101949,41.316407],[16.102464,41.316242],[16.102722,41.316323],[16.102958,41.316464],[16.103312,41.316851],[16.103692,41.317109],[16.104689,41.317497],[16.105041,41.317706],[16.105213,41.317865],[16.105489,41.318335],[16.105512,41.318981],[16.105438,41.319368],[16.105644,41.319691],[16.105986,41.319935],[16.106673,41.320262],[16.10736,41.320403],[16.107618,41.320506],[16.107789,41.320646],[16.107846,41.320788],[16.107814,41.320917],[16.107703,41.321024],[16.10693,41.321398],[16.106023,41.322014],[16.105848,41.322336],[16.105672,41.323046],[16.105517,41.32324],[16.105213,41.323444],[16.104182,41.323743],[16.103323,41.323886],[16.102722,41.324076],[16.102464,41.324056],[16.101949,41.323902],[16.10109,41.324],[16.100918,41.323943],[16.100544,41.323627],[16.100317,41.3235],[16.099524,41.32324],[16.099428,41.323046],[16.09963,41.322612],[16.099663,41.322401],[16.099559,41.321949],[16.099436,41.321756],[16.099193,41.321562],[16.098428,41.321238],[16.096882,41.321102],[16.095765,41.321173],[16.095166,41.321433],[16.094736,41.321756],[16.094391,41.322125],[16.094047,41.32226],[16.09379,41.322212],[16.092908,41.321756],[16.09279,41.321562],[16.092803,41.321368],[16.093299,41.320788],[16.093362,41.320465],[16.093286,41.320336],[16.093189,41.3203],[16.092759,41.320281],[16.092416,41.320182],[16.092048,41.319949],[16.091944,41.31982],[16.091932,41.319691],[16.092169,41.31911],[16.092222,41.3184],[16.09211,41.318077],[16.091736,41.317626],[16.091677,41.317368],[16.091766,41.317045],[16.092072,41.31659],[16.092127,41.316335],[16.092072,41.316122],[16.091926,41.315883],[16.091774,41.31569],[16.091557,41.315532],[16.091127,41.315407],[16.089495,41.315289],[16.089152,41.315367],[16.088808,41.315601],[16.088551,41.315704],[16.087606,41.315718],[16.086737,41.315561],[16.085888,41.315208],[16.085287,41.315188],[16.084943,41.31525],[16.084809,41.315367],[16.084697,41.315625],[16.08477,41.316012],[16.084717,41.316271],[16.084466,41.316593],[16.084256,41.316749],[16.083913,41.316912],[16.082796,41.317296],[16.082195,41.317693],[16.082195,41.335887]],[[16.083569,41.32404],[16.083212,41.32382],[16.08283,41.323433],[16.082745,41.32324],[16.08283,41.322982],[16.083312,41.322515],[16.083569,41.322381],[16.084686,41.322325],[16.085029,41.322248],[16.085126,41.322143],[16.085121,41.322014],[16.085201,41.321836],[16.085373,41.321725],[16.085716,41.321741],[16.085802,41.32186],[16.085817,41.322014],[16.085716,41.322202],[16.085287,41.322393],[16.08518,41.32253],[16.085062,41.323562],[16.084943,41.323919],[16.084858,41.324001],[16.084686,41.324036],[16.083913,41.324078],[16.083569,41.32404]],[[16.171775,41.308474],[16.171603,41.30839],[16.17148,41.308075],[16.171517,41.307851],[16.171689,41.307835],[16.171885,41.307946],[16.171999,41.308204],[16.171947,41.308386],[16.171861,41.308464],[16.171775,41.308474]]]},"properties":{"band":0,"elev_min":4.28515625,"elev_max":32.6845703125}},{"type":"Feature","geometry":{"type":"Polygon","coordinates":[[[16.102615,41.324079],[16.102808,41.324061],[16.103495,41.323846],[16.104182,41.323743],[16.105086,41.323498],[16.105338,41.323369],[16.105517,41.32324],[16.105672,41.323046],[16.105848,41.322336],[16.105986,41.322051],[16.10693,41.321398],[16.107703,41.321024],[16.107842,41.320852],[16.107829,41.320723],[16.107618,41.320506],[16.10736,41.320403],[16.106673,41.320262],[16.105986,41.319935],[16.105644,41.319691],[16.105438,41.319368],[16.105512,41.318981],[16.105489,41.318335],[16.105213,41.317865],[16.105041,41.317706],[16.104689,41.317497],[16.103692,41.317109],[16.103312,41.316851],[16.102958,41.316464],[16.102722,41.316323],[16.102464,41.316242],[16.101949,41.316407],[16.101777,41.316358],[16.1017,41.316271],[16.101657,41.316077],[16.101673,41.315625],[16.101605,41.315361],[16.100719,41.314141],[16.100297,41.313238],[16.100183,41.312721],[16.100174,41.312205],[16.100101,41.311947],[16.099538,41.311302],[16.09917,41.310592],[16.098112,41.309366],[16.097885,41.308462],[16.097798,41.307817],[16.097602,41.307301],[16.096452,41.306285],[16.096228,41.305946],[16.09615,41.305688],[16.096087,41.305107],[16.095701,41.304526],[16.095585,41.304268],[16.095443,41.303107],[16.09525,41.302702],[16.094926,41.302203],[16.095023,41.301687],[16.094688,41.301106],[16.094477,41.300333],[16.094252,41.29988],[16.094108,41.29917],[16.094046,41.29846],[16.094103,41.298331],[16.094463,41.297944],[16.094437,41.297751],[16.094047,41.297463],[16.093704,41.297321],[16.093446,41.297285],[16.092759,41.297328],[16.092392,41.297234],[16.092179,41.297105],[16.0917,41.296654],[16.091471,41.296583],[16.091041,41.296573],[16.090784,41.296494],[16.089753,41.295686],[16.088914,41.295298],[16.088465,41.295213],[16.087692,41.295247],[16.086682,41.294847],[16.08606,41.294328],[16.085287,41.293517],[16.084943,41.293315],[16.084129,41.292975],[16.082815,41.292137],[16.082195,41.29138],[16.082195,41.293363],[16.082195,41.295448],[16.083627,41.295879],[16.083851,41.296137],[16.083935,41.296525],[16.083814,41.297041],[16.083868,41.298009],[16.08374,41.298525],[16.083535,41.298783],[16.082453,41.299423],[16.082195,41.299662],[16.082195,41.317693],[16.082796,41.317296],[16.083913,41.316912],[16.084428,41.316626],[16.084645,41.3164],[16.084757,41.316141],[16.084698,41.31569],[16.084739,41.315496],[16.084862,41.315303],[16.085029,41.315217],[16.085888,41.315208],[16.086737,41.315561],[16.087692,41.315721],[16.088551,41.315704],[16.088808,41.315601],[16.089152,41.315367],[16.089495,41.315289],[16.090784,41.315371],[16.091385,41.315458],[16.091643,41.315584],[16.091814,41.315737],[16.092072,41.316122],[16.092127,41.316335],[16.092072,41.31659],[16.091766,41.317045],[16.091677,41.317368],[16.091736,41.317626],[16.09211,41.318077],[16.092222,41.3184],[16.092169,41.31911],[16.091932,41.319691],[16.091944,41.31982],[16.092048,41.319949],[16.092416,41.320182],[16.092759,41.320281],[16.093189,41.3203],[16.093286,41.320336],[16.09336,41.32046],[16.093366,41.320594],[16.093299,41.320788],[16.092803,41.321368],[16.09279,41.321562],[16.092931,41.321774],[16.09379,41.322212],[16.094047,41.32226],[16.094391,41.322125],[16.094736,41.321756],[16.095166,41.321433],[16.095765,41.321173],[16.096882,41.321102],[16.098428,41.321238],[16.099193,41.321562],[16.099436,41.321756],[16.099559,41.321949],[16.099663,41.322401],[16.09963,41.322612],[16.099428,41.323046],[16.099524,41.32324],[16.100403,41.323543],[16.101004,41.323979],[16.101262,41.324003],[16.101949,41.323902],[16.102615,41.324079]]]},"properties":{"band":1,"elev_min":32.6845703125,"elev_max":61.083984375}},{"type":"Feature","geometry":{"type":"Polygon","coordinates":[[[16.083503,41.324014],[16.083741,41.324078],[16.084514,41.324049],[16.084819,41.324014],[16.084943,41.323919],[16.085062,41.323562],[16.08518,41.32253],[16.085287,41.322393],[16.085716,41.322202],[16.085817,41.322014],[16.085802,41.32186],[16.085716,41.321741],[16.085373,41.321725],[16.085206,41.32182],[16.085121,41.322014],[16.085126,41.322143],[16.085029,41.322248],[16.084686,41.322325],[16.083569,41.322381],[16.083312,41.322515],[16.08283,41.322982],[16.082745,41.32324],[16.08283,41.323433],[16.083212,41.32382],[16.083503,41.324014]]]},"properties":{"band":1,"elev_min":32.6845703125,"elev_max":61.083984375}},{"type":"Feature","geometry":{"type":"Polygon","coordinates":[[[16.171724,41.308462],[16.171863,41.308462],[16.171995,41.308269],[16.171947,41.308031],[16.171775,41.307866],[16.171603,41.307822],[16.171517,41.307851],[16.171473,41.307946],[16.17153,41.308269],[16.171603,41.30839],[16.171724,41.308462]]]},"properties":{"band":1,"elev_min":32.6845703125,"elev_max":61.083984375}},{"type":"Feature","geometry":{"type":"Polygon","coordinates":[[[16.170365,41.307688],[16.170572,41.307748],[16.171174,41.307744],[16.171345,41.307702],[16.171383,41.307624],[16.171407,41.307172],[16.171364,41.306591],[16.171658,41.306268],[16.171737,41.305946],[16.171696,41.305623],[16.171493,41.305171],[16.171428,41.304913],[16.17141,41.304204],[16.171517,41.303869],[16.171689,41.303793],[16.17229,41.303744],[16.173578,41.303196],[16.174101,41.303042],[16.174306,41.302913],[16.17443,41.302526],[16.174523,41.302411],[16.174609,41.302366],[16.174953,41.302369],[16.175726,41.30197],[16.176157,41.301945],[16.176928,41.302233],[16.177272,41.302193],[16.177461,41.302074],[16.177581,41.301687],[16.177787,41.301335],[16.177787,41.286861],[16.177186,41.287211],[16.176928,41.287296],[16.17667,41.287312],[16.175983,41.287205],[16.175726,41.287254],[16.175404,41.28749],[16.174609,41.288291],[16.174351,41.288423],[16.174094,41.288331],[16.173578,41.287847],[16.173339,41.287749],[16.172204,41.287796],[16.171345,41.287648],[16.17083,41.287475],[16.169456,41.287496],[16.169354,41.287555],[16.169265,41.287749],[16.169153,41.288329],[16.169131,41.288781],[16.169048,41.289039],[16.16881,41.289297],[16.168511,41.289525],[16.16791,41.289778],[16.167364,41.290136],[16.166965,41.290278],[16.166192,41.29099],[16.164818,41.291382],[16.163787,41.291822],[16.162843,41.292504],[16.162499,41.292548],[16.161984,41.292401],[16.161726,41.292466],[16.16158,41.292588],[16.161344,41.292975],[16.160704,41.293814],[16.16018,41.294178],[16.159758,41.294653],[16.158978,41.295243],[16.158634,41.295317],[16.158119,41.295169],[16.157604,41.295132],[16.156659,41.294414],[16.156487,41.294394],[16.156143,41.294448],[16.155456,41.294247],[16.154941,41.294205],[16.154769,41.294109],[16.154604,41.293814],[16.154528,41.293492],[16.154597,41.293399],[16.154769,41.293315],[16.155199,41.293245],[16.155298,41.293104],[16.155307,41.292975],[16.155269,41.292846],[16.155044,41.292524],[16.154597,41.292249],[16.15434,41.292192],[16.154082,41.292242],[16.153329,41.292524],[16.152794,41.292875],[16.152622,41.292935],[16.152107,41.292802],[16.15142,41.292835],[16.151193,41.292782],[16.151132,41.292717],[16.151071,41.292459],[16.151091,41.292072],[16.151029,41.291427],[16.150651,41.29033],[16.150475,41.290026],[16.150084,41.289684],[16.149616,41.289466],[16.149015,41.289094],[16.148273,41.288394],[16.147797,41.2882],[16.147125,41.287841],[16.146954,41.287824],[16.1468,41.287878],[16.146592,41.288136],[16.146516,41.288394],[16.146641,41.288975],[16.146532,41.289684],[16.146436,41.289813],[16.146095,41.290005],[16.145322,41.290065],[16.144549,41.290223],[16.144033,41.290196],[16.143346,41.290248],[16.142316,41.290082],[16.141808,41.289878],[16.1415,41.289491],[16.140699,41.288781],[16.140317,41.288265],[16.140326,41.288007],[16.140805,41.287103],[16.140809,41.286716],[16.140713,41.286458],[16.140512,41.28632],[16.139911,41.286289],[16.138845,41.285942],[16.138623,41.285781],[16.138512,41.28549],[16.138486,41.285038],[16.138611,41.28478],[16.138966,41.284477],[16.139396,41.284336],[16.139567,41.284149],[16.139825,41.284006],[16.140169,41.283667],[16.140399,41.283361],[16.140374,41.283102],[16.139947,41.282457],[16.139825,41.282049],[16.139752,41.281941],[16.13931,41.281686],[16.139138,41.281682],[16.13893,41.281747],[16.138577,41.282199],[16.138705,41.282651],[16.138538,41.282973],[16.138279,41.283136],[16.137678,41.283272],[16.137077,41.283276],[16.136733,41.283179],[16.13639,41.282936],[16.13596,41.28235],[16.135531,41.282149],[16.135273,41.282105],[16.134798,41.282199],[16.134071,41.282749],[16.133126,41.283089],[16.132353,41.283209],[16.131752,41.283166],[16.131408,41.282981],[16.131298,41.28278],[16.131333,41.282328],[16.131495,41.281747],[16.131471,41.281231],[16.131408,41.281043],[16.131255,41.280908],[16.130721,41.28068],[16.129956,41.280134],[16.129746,41.279876],[16.12971,41.279553],[16.13009,41.278714],[16.130098,41.278521],[16.129862,41.278297],[16.128764,41.278005],[16.128653,41.27794],[16.128582,41.277811],[16.128402,41.277723],[16.12823,41.277699],[16.128043,41.277746],[16.128041,41.277811],[16.128361,41.278005],[16.128487,41.278198],[16.128438,41.278392],[16.128333,41.278521],[16.128059,41.278588],[16.127543,41.278509],[16.127028,41.278315],[16.126481,41.27794],[16.126279,41.277682],[16.126218,41.277295],[16.126145,41.277166],[16.125992,41.277037],[16.125504,41.276779],[16.12428,41.276556],[16.123249,41.276515],[16.122648,41.276581],[16.121703,41.27693],[16.121445,41.27698],[16.119899,41.276862],[16.119126,41.276975],[16.117494,41.277549],[16.116206,41.277928],[16.115833,41.278069],[16.115492,41.278263],[16.114918,41.278434],[16.113715,41.278539],[16.112685,41.278341],[16.111912,41.278466],[16.111139,41.278696],[16.110881,41.278706],[16.110108,41.278592],[16.108992,41.278749],[16.108734,41.278711],[16.107789,41.278412],[16.107303,41.278198],[16.106632,41.277811],[16.106329,41.277713],[16.105642,41.277562],[16.104955,41.277619],[16.10401,41.277425],[16.103563,41.277101],[16.103217,41.27652],[16.103088,41.276198],[16.102728,41.275552],[16.102576,41.275101],[16.102551,41.274714],[16.102102,41.273939],[16.101562,41.273423],[16.101259,41.273229],[16.101171,41.2731],[16.101168,41.272649],[16.101365,41.272261],[16.101431,41.272003],[16.10131,41.271358],[16.101321,41.270713],[16.101451,41.269809],[16.101261,41.268519],[16.101359,41.268196],[16.101348,41.268022],[16.101262,41.267909],[16.101176,41.267911],[16.100932,41.268132],[16.100852,41.268777],[16.100711,41.269035],[16.100145,41.269347],[16.099841,41.26968],[16.099372,41.270014],[16.098771,41.270251],[16.098428,41.270319],[16.098165,41.270261],[16.097826,41.27002],[16.097571,41.26968],[16.097354,41.269229],[16.097139,41.269134],[16.096538,41.269098],[16.095937,41.268933],[16.095507,41.26891],[16.094305,41.269286],[16.093704,41.269445],[16.093446,41.269466],[16.092244,41.269135],[16.091213,41.268665],[16.090612,41.268628],[16.089839,41.268452],[16.08927,41.268196],[16.088808,41.267866],[16.088293,41.267681],[16.088035,41.267663],[16.087778,41.267724],[16.087262,41.268084],[16.086787,41.268325],[16.086575,41.268372],[16.086232,41.268307],[16.085888,41.268313],[16.085723,41.268261],[16.085553,41.268132],[16.085201,41.267736],[16.084943,41.267581],[16.084772,41.267588],[16.084449,41.267809],[16.08417,41.26816],[16.083741,41.268443],[16.083312,41.268557],[16.082802,41.268841],[16.082195,41.269026],[16.082195,41.2752],[16.08271,41.275256],[16.082937,41.275423],[16.083045,41.275617],[16.083226,41.27626],[16.083483,41.276555],[16.083712,41.276972],[16.083839,41.277101],[16.083999,41.277177],[16.08417,41.277178],[16.084858,41.276933],[16.085115,41.276927],[16.085295,41.276972],[16.085802,41.277224],[16.086146,41.277277],[16.086488,41.277166],[16.086833,41.276883],[16.086919,41.276879],[16.087091,41.277051],[16.087262,41.277139],[16.08752,41.277186],[16.087778,41.277171],[16.088121,41.277051],[16.08831,41.276714],[16.088551,41.276557],[16.089324,41.2764],[16.089925,41.276407],[16.090612,41.276755],[16.090956,41.276841],[16.091299,41.276827],[16.091643,41.276702],[16.091814,41.276704],[16.09216,41.277101],[16.092587,41.277358],[16.092813,41.277746],[16.093062,41.27794],[16.093367,41.278005],[16.094047,41.278039],[16.094649,41.2782],[16.095164,41.278198],[16.095765,41.278125],[16.096968,41.278166],[16.097569,41.278279],[16.098857,41.278871],[16.099802,41.279193],[16.101434,41.280105],[16.103409,41.280614],[16.103782,41.280779],[16.104182,41.281061],[16.105156,41.281554],[16.106415,41.28197],[16.107532,41.281957],[16.109249,41.282231],[16.109679,41.282346],[16.111139,41.282922],[16.111568,41.283003],[16.111828,41.282973],[16.112599,41.282689],[16.113458,41.282956],[16.114574,41.282808],[16.115274,41.283038],[16.115605,41.283078],[16.116807,41.283013],[16.117666,41.282739],[16.118869,41.282592],[16.119813,41.28262],[16.120329,41.282781],[16.121789,41.282998],[16.121974,41.282973],[16.122476,41.282774],[16.122734,41.282758],[16.123163,41.282859],[16.123592,41.283042],[16.123745,41.283167],[16.124018,41.283554],[16.12428,41.283816],[16.124537,41.283895],[16.125138,41.283954],[16.12574,41.284221],[16.126169,41.284244],[16.127371,41.284013],[16.127887,41.284123],[16.128307,41.284458],[16.128917,41.284821],[16.129379,41.285425],[16.129948,41.285903],[16.130292,41.285966],[16.131752,41.285967],[16.132181,41.286092],[16.13304,41.286717],[16.133555,41.287195],[16.134383,41.28749],[16.134758,41.287942],[16.135525,41.288458],[16.13596,41.288906],[16.137077,41.289485],[16.137475,41.289878],[16.138061,41.290201],[16.138709,41.290394],[16.139052,41.290554],[16.139466,41.290652],[16.140942,41.291327],[16.141371,41.291414],[16.142745,41.291539],[16.143383,41.292007],[16.14352,41.292266],[16.143658,41.292717],[16.144119,41.293103],[16.145236,41.293513],[16.145665,41.293599],[16.146069,41.293879],[16.146524,41.294085],[16.147273,41.294524],[16.147641,41.294574],[16.148328,41.294517],[16.148585,41.294544],[16.149456,41.294911],[16.149549,41.29504],[16.149407,41.295363],[16.149236,41.296008],[16.149279,41.296266],[16.149502,41.296783],[16.14996,41.297276],[16.150561,41.297585],[16.150904,41.297822],[16.151334,41.29837],[16.151563,41.298783],[16.151763,41.299004],[16.152279,41.299448],[16.15288,41.299765],[16.15312,41.300009],[16.153271,41.300267],[16.153301,41.300461],[16.153101,41.301235],[16.153311,41.30188],[16.153481,41.302132],[16.153806,41.302461],[16.154426,41.30288],[16.15537,41.303208],[16.157324,41.303623],[16.158119,41.304049],[16.158462,41.304157],[16.158978,41.304234],[16.159579,41.304097],[16.159922,41.304176],[16.161275,41.304978],[16.16164,41.305102],[16.162241,41.305131],[16.162585,41.305065],[16.162757,41.304957],[16.162899,41.30472],[16.163009,41.304397],[16.16296,41.303687],[16.162776,41.302784],[16.162877,41.301751],[16.162928,41.30167],[16.163444,41.301727],[16.164303,41.301669],[16.164788,41.301751],[16.16499,41.30183],[16.165333,41.302194],[16.165419,41.302361],[16.165591,41.303295],[16.165701,41.303558],[16.16594,41.303816],[16.166192,41.303925],[16.16645,41.303961],[16.167051,41.303947],[16.167309,41.303821],[16.167569,41.303558],[16.167996,41.30293],[16.168224,41.302719],[16.168454,41.302332],[16.168683,41.302155],[16.169284,41.30186],[16.169799,41.301695],[16.170143,41.301669],[16.170458,41.301751],[16.170667,41.301945],[16.17077,41.302203],[16.170805,41.302655],[16.170912,41.303107],[16.170878,41.3033],[16.170658,41.303471],[16.170143,41.303632],[16.169908,41.303881],[16.169604,41.304397],[16.169024,41.305107],[16.168786,41.305623],[16.168709,41.30601],[16.168792,41.306527],[16.169284,41.307074],[16.169542,41.307227],[16.170057,41.307207],[16.170365,41.307688]],[[16.146524,41.291647],[16.146417,41.291556],[16.146421,41.291233],[16.14661,41.290877],[16.146696,41.290783],[16.146782,41.290812],[16.146896,41.29104],[16.146896,41.291362],[16.146782,41.291558],[16.146524,41.291647]]]},"properties":{"band":1,"elev_min":32.6845703125,"elev_max":61.083984375}},{"type":"Feature","geometry":{"type":"Polygon","coordinates":[[[16.175256,41.282134],[16.175554,41.282172],[16.175726,41.282138],[16.17624,41.281747],[16.177014,41.281401],[16.177357,41.28139],[16.177787,41.281531],[16.177787,41.264723],[16.177529,41.264773],[16.177014,41.264596],[16.176756,41.264556],[16.175882,41.264647],[16.175382,41.264872],[16.174785,41.265486],[16.174094,41.265823],[16.173836,41.265871],[16.17272,41.26588],[16.172376,41.266032],[16.171861,41.266412],[16.171431,41.26658],[16.171088,41.26656],[16.170744,41.266472],[16.170209,41.26626],[16.169714,41.265951],[16.169542,41.265916],[16.16937,41.265944],[16.168886,41.266196],[16.168511,41.266719],[16.168339,41.266881],[16.167824,41.267003],[16.167276,41.267293],[16.167083,41.267551],[16.166985,41.268067],[16.166879,41.268331],[16.166707,41.268542],[16.16602,41.26881],[16.165505,41.26933],[16.164843,41.269809],[16.164681,41.270067],[16.164669,41.270519],[16.164575,41.270777],[16.164459,41.270906],[16.164071,41.271164],[16.163616,41.271726],[16.163444,41.271744],[16.162928,41.271658],[16.162447,41.27181],[16.16207,41.271848],[16.161211,41.271774],[16.161119,41.27181],[16.161015,41.271939],[16.160979,41.272197],[16.161039,41.272417],[16.161211,41.272558],[16.161775,41.272842],[16.161984,41.273011],[16.162499,41.27425],[16.162855,41.274778],[16.162828,41.274972],[16.162671,41.275124],[16.162413,41.275199],[16.16207,41.275201],[16.161835,41.275359],[16.161716,41.275617],[16.161574,41.276327],[16.161594,41.276779],[16.162168,41.27794],[16.162329,41.279295],[16.162457,41.279682],[16.162671,41.279869],[16.162928,41.279963],[16.163444,41.280011],[16.164389,41.280249],[16.165247,41.280349],[16.165935,41.280359],[16.166192,41.280446],[16.166563,41.280715],[16.166879,41.280857],[16.167652,41.280909],[16.168168,41.281238],[16.168511,41.281724],[16.168683,41.281847],[16.169112,41.281634],[16.169456,41.28157],[16.170315,41.281626],[16.171259,41.281606],[16.171947,41.281734],[16.17272,41.281748],[16.173149,41.281666],[16.173578,41.281494],[16.174266,41.281391],[16.174541,41.281489],[16.174757,41.281683],[16.174953,41.28197],[16.175256,41.282134]]]},"properties":{"band":1,"elev_min":32.6845703125,"elev_max":61.083984375}},{"type":"Feature","geometry":{"type":"Polygon","coordinates":[[[16.082195,41.299622],[16.082195,41.299662],[16.082453,41.299423],[16.083535,41.298783],[16.083768,41.29846],[16.083872,41.297944],[16.083814,41.297041],[16.083934,41.29646],[16.083817,41.296073],[16.083569,41.29585],[16.082195,41.295448],[16.082195,41.299622]]]},"properties":{"band":2,"elev_min":61.083984375,"elev_max":89.4833984375}},{"type":"Feature","geometry":{"type":"Polygon","coordinates":[[[16.158541,41.295298],[16.158806,41.295311],[16.158978,41.295243],[16.159758,41.294653],[16.16018,41.294178],[16.160704,41.293814],[16.161344,41.292975],[16.16158,41.292588],[16.161726,41.292466],[16.161984,41.292401],[16.162499,41.292548],[16.162843,41.292504],[16.163787,41.291822],[16.164818,41.291382],[16.166192,41.29099],[16.166965,41.290278],[16.167364,41.290136],[16.16791,41.289778],[16.168597,41.289469],[16.169048,41.289039],[16.169131,41.288781],[16.169153,41.288329],[16.169265,41.287749],[16.169354,41.287555],[16.169456,41.287496],[16.17083,41.287475],[16.171345,41.287648],[16.172204,41.287796],[16.173339,41.287749],[16.173578,41.287847],[16.174094,41.288331],[16.174351,41.288423],[16.174609,41.288291],[16.175404,41.28749],[16.175726,41.287254],[16.175983,41.287205],[16.17667,41.287312],[16.176928,41.287296],[16.177186,41.287211],[16.177787,41.286861],[16.177787,41.281531],[16.177357,41.28139],[16.177014,41.281401],[16.17624,41.281747],[16.175811,41.282095],[16.175554,41.282172],[16.175084,41.28207],[16.174923,41.281941],[16.174609,41.281541],[16.174437,41.281431],[16.174266,41.281391],[16.173578,41.281494],[16.173149,41.281666],[16.17272,41.281748],[16.171947,41.281734],[16.171259,41.281606],[16.170315,41.281626],[16.169456,41.28157],[16.169112,41.281634],[16.168683,41.281847],[16.168511,41.281724],[16.168168,41.281238],[16.167652,41.280909],[16.166879,41.280857],[16.166563,41.280715],[16.166192,41.280446],[16.165935,41.280359],[16.165247,41.280349],[16.164217,41.280223],[16.163444,41.280011],[16.162843,41.279942],[16.162578,41.279811],[16.16242,41.279618],[16.16234,41.27936],[16.162155,41.277894],[16.161884,41.277424],[16.161717,41.276972],[16.161594,41.276779],[16.161574,41.276327],[16.161716,41.275617],[16.161835,41.275359],[16.16207,41.275201],[16.162413,41.275199],[16.162671,41.275124],[16.162828,41.274972],[16.162855,41.274778],[16.162473,41.274197],[16.162046,41.273229],[16.162002,41.273036],[16.161775,41.272842],[16.161067,41.272455],[16.160978,41.272132],[16.161039,41.271892],[16.161211,41.271774],[16.162155,41.271846],[16.162447,41.27181],[16.162843,41.271667],[16.16353,41.271751],[16.16368,41.271681],[16.164071,41.271164],[16.164459,41.270906],[16.164575,41.270777],[16.164669,41.270519],[16.164681,41.270067],[16.164902,41.269745],[16.165472,41.269358],[16.16602,41.26881],[16.166707,41.268542],[16.166915,41.268261],[16.167083,41.267551],[16.167276,41.267293],[16.167824,41.267003],[16.168339,41.266881],[16.168511,41.266719],[16.168855,41.266228],[16.169112,41.266055],[16.16937,41.265944],[16.169628,41.265925],[16.170209,41.26626],[16.170658,41.266445],[16.171174,41.266573],[16.171517,41.266567],[16.171861,41.266412],[16.172376,41.266032],[16.17272,41.26588],[16.173836,41.265871],[16.174094,41.265823],[16.174785,41.265486],[16.175382,41.264872],[16.175882,41.264647],[16.176842,41.264561],[16.177443,41.264754],[16.177701,41.264758],[16.177787,41.264723],[16.177787,41.264131],[16.146312,41.264131],[16.146095,41.264256],[16.145923,41.264274],[16.145425,41.264131],[16.137056,41.264131],[16.137136,41.264389],[16.13714,41.264582],[16.137072,41.26497],[16.136833,41.265744],[16.136834,41.267035],[16.136561,41.267823],[16.136475,41.267944],[16.136132,41.268222],[16.135336,41.268519],[16.134595,41.26897],[16.134403,41.269229],[16.134392,41.269422],[16.134503,41.26968],[16.134586,41.269736],[16.134844,41.269762],[16.135101,41.269977],[16.135225,41.270197],[16.135385,41.270713],[16.135563,41.271035],[16.13596,41.271292],[16.136647,41.271521],[16.136905,41.271774],[16.137012,41.272003],[16.13718,41.272778],[16.137175,41.273681],[16.137221,41.273875],[16.137618,41.274262],[16.13784,41.274649],[16.138078,41.274907],[16.138623,41.275303],[16.139255,41.275682],[16.139534,41.27594],[16.139665,41.276198],[16.139685,41.27652],[16.139598,41.276779],[16.139481,41.276864],[16.13931,41.276885],[16.139138,41.276811],[16.138761,41.276262],[16.138623,41.276157],[16.138537,41.276174],[16.138257,41.27652],[16.138021,41.276725],[16.137501,41.276972],[16.137077,41.277272],[16.136475,41.277552],[16.136304,41.277756],[16.136132,41.277835],[16.134414,41.277928],[16.13354,41.277682],[16.133134,41.277488],[16.132799,41.277101],[16.133236,41.276327],[16.133248,41.276133],[16.133198,41.276004],[16.132792,41.275682],[16.132005,41.274778],[16.131263,41.274133],[16.130893,41.273744],[16.130463,41.273556],[16.129776,41.273403],[16.129604,41.273461],[16.129347,41.27365],[16.12866,41.274027],[16.128402,41.274105],[16.127887,41.274168],[16.127457,41.274165],[16.126856,41.274028],[16.126427,41.27399],[16.126083,41.273888],[16.125565,41.273488],[16.12531,41.272842],[16.124633,41.272132],[16.12441,41.271552],[16.124338,41.2711],[16.123936,41.270363],[16.123764,41.270206],[16.123678,41.270193],[16.122535,41.270777],[16.122016,41.270971],[16.121703,41.271044],[16.121102,41.27106],[16.120071,41.271169],[16.118695,41.271552],[16.11808,41.27181],[16.118007,41.271874],[16.117782,41.272326],[16.117857,41.273165],[16.117858,41.27381],[16.117685,41.274843],[16.117549,41.275101],[16.117409,41.275235],[16.117237,41.275242],[16.116807,41.275111],[16.116378,41.275084],[16.115605,41.27488],[16.114832,41.274782],[16.114488,41.274791],[16.113659,41.275036],[16.1132,41.275245],[16.112857,41.275315],[16.112217,41.275617],[16.111941,41.275811],[16.111482,41.276127],[16.111225,41.27623],[16.110881,41.276247],[16.109851,41.276172],[16.109335,41.275984],[16.108478,41.275488],[16.107819,41.275036],[16.10736,41.274838],[16.107158,41.274585],[16.107099,41.274197],[16.107162,41.27381],[16.107477,41.273358],[16.10756,41.273165],[16.107452,41.272584],[16.10693,41.272005],[16.106275,41.271487],[16.105876,41.270971],[16.10578,41.270777],[16.105667,41.270132],[16.105959,41.268906],[16.105982,41.268648],[16.105886,41.268196],[16.105596,41.267809],[16.105512,41.267551],[16.105559,41.266518],[16.105529,41.266131],[16.105571,41.265809],[16.105696,41.26555],[16.106232,41.265034],[16.107349,41.264389],[16.108075,41.264131],[16.09784,41.264131],[16.097483,41.264355],[16.096957,41.264582],[16.096195,41.26479],[16.094654,41.265357],[16.093704,41.265905],[16.093189,41.266004],[16.09233,41.266034],[16.091814,41.266154],[16.091127,41.266215],[16.090526,41.266158],[16.090268,41.266089],[16.090011,41.265906],[16.089747,41.265615],[16.089681,41.265357],[16.089728,41.26497],[16.089849,41.264582],[16.090094,41.264131],[16.082195,41.264131],[16.082195,41.269026],[16.082802,41.268841],[16.083312,41.268557],[16.083741,41.268443],[16.084204,41.268132],[16.084514,41.267748],[16.084858,41.267563],[16.085212,41.267744],[16.085553,41.268132],[16.085723,41.268261],[16.085888,41.268313],[16.086232,41.268307],[16.086575,41.268372],[16.086787,41.268325],[16.087262,41.268084],[16.087778,41.267724],[16.088207,41.267666],[16.088722,41.267824],[16.089384,41.268261],[16.089839,41.268452],[16.090612,41.268628],[16.091213,41.268665],[16.092244,41.269135],[16.09336,41.269455],[16.093704,41.269445],[16.095507,41.26891],[16.095851,41.268918],[16.096452,41.269084],[16.097225,41.269155],[16.097354,41.269229],[16.097571,41.26968],[16.097826,41.27002],[16.09817,41.270263],[16.098514,41.270314],[16.098943,41.270196],[16.099391,41.270003],[16.099841,41.26968],[16.100145,41.269347],[16.100711,41.269035],[16.100852,41.268777],[16.100932,41.268132],[16.10109,41.267957],[16.101262,41.267909],[16.101359,41.268067],[16.101261,41.268519],[16.101451,41.269809],[16.101321,41.270713],[16.10131,41.271358],[16.101431,41.272003],[16.101365,41.272261],[16.101168,41.272649],[16.101171,41.2731],[16.101259,41.273229],[16.101562,41.273423],[16.102102,41.273939],[16.102551,41.274714],[16.102576,41.275101],[16.102728,41.275552],[16.103088,41.276198],[16.103217,41.27652],[16.103563,41.277101],[16.10401,41.277425],[16.104955,41.277619],[16.105642,41.277562],[16.106329,41.277713],[16.106632,41.277811],[16.107303,41.278198],[16.107789,41.278412],[16.108734,41.278711],[16.108992,41.278749],[16.110108,41.278592],[16.110881,41.278706],[16.111139,41.278696],[16.111912,41.278466],[16.112685,41.278341],[16.113715,41.278539],[16.114918,41.278434],[16.115492,41.278263],[16.115833,41.278069],[16.116206,41.277928],[16.117494,41.277549],[16.119126,41.276975],[16.119899,41.276862],[16.121445,41.27698],[16.121703,41.27693],[16.122648,41.276581],[16.123249,41.276515],[16.12428,41.276556],[16.125504,41.276779],[16.125992,41.277037],[16.126145,41.277166],[16.126218,41.277295],[16.126279,41.277682],[16.126481,41.27794],[16.127028,41.278315],[16.127543,41.278509],[16.128059,41.278588],[16.128333,41.278521],[16.128438,41.278392],[16.128487,41.278198],[16.128361,41.278005],[16.128041,41.277811],[16.128043,41.277746],[16.12823,41.277699],[16.128402,41.277723],[16.128582,41.277811],[16.128653,41.27794],[16.128764,41.278005],[16.129862,41.278297],[16.130098,41.278521],[16.13009,41.278714],[16.12971,41.279553],[16.129746,41.279876],[16.129956,41.280134],[16.130721,41.28068],[16.131255,41.280908],[16.131408,41.281043],[16.131471,41.281231],[16.131495,41.281747],[16.131333,41.282328],[16.131298,41.28278],[16.131408,41.282981],[16.131752,41.283166],[16.132353,41.283209],[16.133126,41.283089],[16.134071,41.282749],[16.134798,41.282199],[16.135273,41.282105],[16.135531,41.282149],[16.13596,41.28235],[16.13639,41.282936],[16.136733,41.283179],[16.137077,41.283276],[16.137678,41.283272],[16.138279,41.283136],[16.138538,41.282973],[16.138705,41.282651],[16.138577,41.282199],[16.13893,41.281747],[16.139138,41.281682],[16.13931,41.281686],[16.139752,41.281941],[16.139825,41.282049],[16.139947,41.282457],[16.140374,41.283102],[16.140399,41.283361],[16.140169,41.283667],[16.139825,41.284006],[16.139567,41.284149],[16.139396,41.284336],[16.138966,41.284477],[16.138611,41.28478],[16.138486,41.285038],[16.138512,41.28549],[16.138623,41.285781],[16.138845,41.285942],[16.139911,41.286289],[16.140512,41.28632],[16.140713,41.286458],[16.140809,41.286716],[16.140805,41.287103],[16.140326,41.288007],[16.140317,41.288265],[16.140699,41.288781],[16.1415,41.289491],[16.141808,41.289878],[16.142316,41.290082],[16.143346,41.290248],[16.144033,41.290196],[16.144549,41.290223],[16.145322,41.290065],[16.146095,41.290005],[16.146436,41.289813],[16.146532,41.289684],[16.146641,41.288975],[16.146516,41.288394],[16.146592,41.288136],[16.1468,41.287878],[16.146954,41.287824],[16.147125,41.287841],[16.147797,41.2882],[16.148273,41.288394],[16.149015,41.289094],[16.149616,41.289466],[16.150084,41.289684],[16.150475,41.290026],[16.150651,41.29033],[16.151029,41.291427],[16.151091,41.292072],[16.151071,41.292459],[16.151132,41.292717],[16.151193,41.292782],[16.15142,41.292835],[16.152107,41.292802],[16.152622,41.292935],[16.152794,41.292875],[16.153329,41.292524],[16.154082,41.292242],[16.15434,41.292192],[16.154597,41.292249],[16.155044,41.292524],[16.155269,41.292846],[16.155307,41.292975],[16.155298,41.293104],[16.155199,41.293245],[16.154769,41.293315],[16.154597,41.293399],[16.154528,41.293492],[16.154631,41.293879],[16.154804,41.294137],[16.155027,41.294224],[16.155542,41.294265],[16.156143,41.294448],[16.156487,41.294394],[16.156659,41.294414],[16.157604,41.295132],[16.158119,41.295169],[16.158541,41.295298]]]},"properties":{"band":2,"elev_min":61.083984375,"elev_max":89.4833984375}},{"type":"Feature","geometry":{"type":"Polygon","coordinates":[[[16.146463,41.29162],[16.146696,41.291618],[16.146872,41.291427],[16.146918,41.291169],[16.146796,41.290846],[16.146696,41.290783],[16.146438,41.291191],[16.146397,41.291427],[16.146463,41.29162]]]},"properties":{"band":2,"elev_min":61.083984375,"elev_max":89.4833984375}},{"type":"Feature","geometry":{"type":"Polygon","coordinates":[[[16.134197,41.277876],[16.1345,41.277929],[16.136218,41.277807],[16.136475,41.277552],[16.137077,41.277272],[16.137501,41.276972],[16.138021,41.276725],[16.138257,41.27652],[16.138537,41.276174],[16.138708,41.276198],[16.139107,41.276779],[16.139224,41.276864],[16.139396,41.276885],[16.139525,41.276843],[16.139678,41.276585],[16.139665,41.276198],[16.139482,41.275875],[16.139255,41.275682],[16.138623,41.275303],[16.138078,41.274907],[16.13784,41.274649],[16.137618,41.274262],[16.137221,41.273875],[16.137175,41.273681],[16.13718,41.272778],[16.137012,41.272003],[16.136885,41.271745],[16.136647,41.271521],[16.13596,41.271292],[16.135563,41.271035],[16.135385,41.270713],[16.135225,41.270197],[16.135101,41.269977],[16.134844,41.269762],[16.134586,41.269736],[16.134503,41.26968],[16.134392,41.269422],[16.134403,41.269229],[16.134595,41.26897],[16.135336,41.268519],[16.136132,41.268222],[16.136475,41.267944],[16.136561,41.267823],[16.136834,41.267035],[16.136833,41.265744],[16.137072,41.26497],[16.13714,41.264582],[16.137136,41.264389],[16.137056,41.264131],[16.108075,41.264131],[16.107349,41.264389],[16.106232,41.265034],[16.105651,41.265615],[16.105532,41.266067],[16.105559,41.266518],[16.105504,41.267486],[16.105596,41.267809],[16.1059,41.268229],[16.105984,41.268712],[16.105667,41.270132],[16.105697,41.270455],[16.105835,41.270906],[16.106275,41.271487],[16.10693,41.272005],[16.107452,41.272584],[16.10756,41.273165],[16.107141,41.273875],[16.107099,41.274326],[16.107158,41.274585],[16.107366,41.274843],[16.107819,41.275036],[16.108478,41.275488],[16.109421,41.276027],[16.109936,41.276184],[16.111225,41.27623],[16.111482,41.276127],[16.112217,41.275617],[16.112857,41.275315],[16.1132,41.275245],[16.113659,41.275036],[16.114488,41.274791],[16.114832,41.274782],[16.115605,41.27488],[16.116378,41.275084],[16.116807,41.275111],[16.117237,41.275242],[16.117409,41.275235],[16.117549,41.275101],[16.117685,41.274843],[16.117858,41.27381],[16.117857,41.273165],[16.117782,41.272326],[16.118007,41.271874],[16.11808,41.27181],[16.118695,41.271552],[16.120071,41.271169],[16.121102,41.27106],[16.121703,41.271044],[16.122016,41.270971],[16.122535,41.270777],[16.123678,41.270193],[16.123764,41.270206],[16.123936,41.270363],[16.124338,41.2711],[16.12441,41.271552],[16.124633,41.272132],[16.12531,41.272842],[16.125565,41.273488],[16.125997,41.273839],[16.126427,41.27399],[16.126856,41.274028],[16.127457,41.274165],[16.127801,41.274172],[16.128574,41.274067],[16.129347,41.27365],[16.129604,41.273461],[16.129776,41.273403],[16.130463,41.273556],[16.1308,41.273681],[16.13194,41.274714],[16.132792,41.275682],[16.133198,41.276004],[16.133248,41.276133],[16.133236,41.276327],[16.133015,41.276779],[16.132807,41.277037],[16.132822,41.277166],[16.133246,41.277553],[16.133641,41.277721],[16.134197,41.277876]]]},"properties":{"band":3,"elev_min":89.4833984375,"elev_max":117.8828125}},{"type":"Feature","geometry":{"type":"Polygon","coordinates":[[[16.090819,41.266196],[16.091643,41.266176],[16.09233,41.266034],[16.093189,41.266004],[16.093704,41.265905],[16.094654,41.265357],[16.096195,41.26479],[16.096882,41.264611],[16.097483,41.264355],[16.09784,41.264131],[16.096796,41.264131],[16.090094,41.264131],[16.089849,41.264582],[16.089753,41.264867],[16.089682,41.265292],[16.089719,41.26555],[16.089837,41.265744],[16.090183,41.266042],[16.090392,41.266131],[16.090819,41.266196]]]},"properties":{"band":3,"elev_min":89.4833984375,"elev_max":117.8828125}},{"type":"Feature","geometry":{"type":"Polygon","coordinates":[[[16.145821,41.26426],[16.146079,41.26426],[16.146266,41.264166],[16.146312,41.264131],[16.146009,41.264131],[16.145425,41.264131],[16.145821,41.26426]]]},"properties":{"band":3,"elev_min":89.4833984375,"elev_max":117.8828125}}]}