{"type":"FeatureCollection","features":[{"type":"Feature","geometry":{"type":"LineString","coordinates":[[16.127586,41.335887],[16.127042,41.335758],[16.126942,41.335694],[16.126906,41.335565],[16.12749,41.334984],[16.127715,41.334846],[16.128402,41.334716],[16.129347,41.334803],[16.130206,41.33469],[16.130721,41.33468],[16.131494,41.334424],[16.131923,41.334362],[16.132611,41.334368],[16.133126,41.334484],[16.133469,41.334685],[16.134156,41.335326],[16.134414,41.33542],[16.134586,41.335393],[16.134672,41.335336],[16.134909,41.335049],[16.135101,41.33494],[16.135273,41.334946],[16.135702,41.335142],[16.13596,41.335153],[16.136218,41.335096],[16.136647,41.334823],[16.136819,41.334774],[16.136991,41.334807],[16.13742,41.335104],[16.137678,41.335174],[16.138279,41.335188],[16.138537,41.335108],[16.138662,41.334984],[16.138715,41.33479],[16.138699,41.334661],[16.138592,41.334468],[16.138365,41.334291],[16.137764,41.334244],[16.137549,41.334145],[16.137208,41.333629],[16.136801,41.333371],[16.136652,41.333177],[16.1366,41.332984],[16.136596,41.332532],[16.136553,41.332274],[16.13639,41.331983],[16.136218,41.331852],[16.136046,41.331787],[16.135788,41.331743],[16.135359,41.331738],[16.13514,41.331629],[16.135117,41.331564],[16.135173,41.331435],[16.135273,41.33137],[16.135445,41.331334],[16.13596,41.331358],[16.136647,41.331454],[16.136991,41.331444],[16.137935,41.331321],[16.138193,41.331327],[16.138365,41.33138],[16.138475,41.331499],[16.138736,41.332016],[16.13888,41.332148],[16.13931,41.332346],[16.139493,41.332532],[16.139548,41.333048],[16.139739,41.333321],[16.139961,41.333435],[16.140169,41.333452],[16.14034,41.333408],[16.14077,41.333189],[16.141027,41.333162],[16.141285,41.333233],[16.1418,41.333491],[16.142429,41.333693],[16.142751,41.333952],[16.142967,41.33421],[16.14326,41.335098],[16.14336,41.335242],[16.143518,41.335326],[16.143604,41.33532],[16.143776,41.335222],[16.144174,41.33479],[16.144438,41.334597],[16.144892,41.334415],[16.145751,41.33436],[16.146181,41.334401],[16.146696,41.334551],[16.146954,41.334508],[16.147162,41.334339],[16.147555,41.333866],[16.147898,41.333593],[16.14807,41.333405],[16.148185,41.333177],[16.148201,41.333048],[16.148166,41.332919],[16.147984,41.332726],[16.147727,41.332683],[16.147469,41.3328],[16.147039,41.333274],[16.146868,41.333379],[16.146352,41.333439],[16.146181,41.3334],[16.146095,41.333325],[16.145966,41.332919],[16.145944,41.332338],[16.146068,41.33208],[16.146469,41.331629],[16.146528,41.331435],[16.146511,41.331306],[16.146379,41.331112],[16.145844,41.33079],[16.145586,41.330338],[16.14515,41.330015],[16.145101,41.329886],[16.14519,41.329693],[16.145546,41.329435],[16.145837,41.3291],[16.146048,41.328983],[16.146868,41.328816],[16.147555,41.328771],[16.147857,41.328596],[16.148414,41.328058],[16.148671,41.327971],[16.149101,41.327961],[16.149358,41.327869],[16.149616,41.327682],[16.150045,41.327248],[16.150303,41.327159],[16.15099,41.327123],[16.151334,41.326977],[16.151448,41.326853],[16.151694,41.326402],[16.152206,41.325885],[16.15231,41.325627],[16.152298,41.325498],[16.152225,41.325369],[16.151742,41.324982],[16.15172,41.324853],[16.15177,41.324724],[16.152211,41.324401],[16.152524,41.323885],[16.153034,41.323562],[16.153395,41.323069],[16.153653,41.322966],[16.154168,41.322928],[16.154375,41.322788],[16.154541,41.32253],[16.154699,41.321949],[16.15481,41.321691],[16.155032,41.321497],[16.155456,41.32134],[16.155628,41.321224],[16.156058,41.320521],[16.156229,41.320446],[16.156401,41.320436],[16.156831,41.320509],[16.157002,41.320647],[16.157214,41.320981],[16.157346,41.321116],[16.157518,41.321191],[16.157775,41.321175],[16.158462,41.320965],[16.1587,41.320788],[16.159027,41.31982],[16.159064,41.319239],[16.159149,41.319027],[16.159235,41.318995],[16.159321,41.319024],[16.15962,41.319497],[16.159778,41.319626],[16.159922,41.319674],[16.160352,41.319628],[16.160984,41.319303],[16.161191,41.31911],[16.161287,41.318916],[16.161508,41.318206],[16.161558,41.317948],[16.161562,41.317561],[16.161667,41.317303],[16.161812,41.317212],[16.161984,41.317226],[16.16207,41.317312],[16.162263,41.31769],[16.162413,41.317806],[16.162671,41.317816],[16.162894,41.31769],[16.163272,41.317233],[16.163616,41.316943],[16.163886,41.3164],[16.164037,41.316206],[16.164217,41.31607],[16.164646,41.315871],[16.164791,41.315754],[16.164874,41.315561],[16.164897,41.315044],[16.164973,41.314786],[16.165297,41.314335],[16.165645,41.313754],[16.165935,41.313546],[16.166278,41.313512],[16.167051,41.313725],[16.167395,41.313731],[16.167738,41.313686],[16.16791,41.313616],[16.168055,41.313496],[16.168339,41.313044],[16.168484,41.312915],[16.168941,41.312706],[16.169112,41.312674],[16.169284,41.312694],[16.169542,41.312849],[16.170048,41.313367],[16.170401,41.31355],[16.170562,41.313689],[16.170819,41.314206],[16.171219,41.314528],[16.171565,41.315109],[16.171689,41.315196],[16.171947,41.315231],[16.172258,41.315109],[16.172469,41.314851],[16.172548,41.314593],[16.172545,41.313883],[16.172316,41.31298],[16.172204,41.312898],[16.171798,41.312786],[16.171707,41.312721],[16.171861,41.312672],[16.172462,41.312679],[16.1728,41.312721],[16.172957,41.312786],[16.172927,41.313302],[16.172969,41.314012],[16.173106,41.314335],[16.173321,41.314476],[16.173493,41.314464],[16.173664,41.314375],[16.173836,41.31421],[16.173899,41.314077],[16.173889,41.313883],[16.173695,41.313367],[16.173738,41.313044],[16.173922,41.312909],[16.174094,41.312893],[16.174351,41.312942],[16.174781,41.313104],[16.175021,41.313302],[16.175144,41.313496],[16.175241,41.313883],[16.175213,41.314206],[16.175,41.314722],[16.174954,41.31498],[16.175036,41.315238],[16.175274,41.315561],[16.175399,41.315819],[16.175436,41.316012],[16.175423,41.316335],[16.175373,41.316529],[16.175296,41.316646],[16.174781,41.317021],[16.174695,41.317152],[16.174663,41.317303],[16.174686,41.317497],[16.174896,41.318206],[16.175038,41.31854],[16.17521,41.318687],[16.175382,41.31875],[16.17564,41.318768],[16.175897,41.318707],[16.176587,41.318142],[16.177186,41.317812],[16.177529,41.317455],[16.177787,41.317344]]},"properties":{"elevation_m":10.0}},{"type":"Feature","geometry":{"type":"LineString","coordinates":[[16.141952,41.335887],[16.141285,41.335529],[16.141027,41.335457],[16.140856,41.33547],[16.140632,41.335565],[16.140501,41.335694],[16.140439,41.335887]]},"properties":{"elevation_m":10.0}},{"type":"Feature","geometry":{"type":"LineString","coordinates":[[16.148323,41.331112],[16.148323,41.331112]]},"properties":{"elevation_m":10.0}},{"type":"Feature","geometry":{"type":"LineString","coordinates":[[16.153452,41.32595],[16.153452,41.32595]]},"properties":{"elevation_m":10.0}},{"type":"Feature","geometry":{"type":"LineString","coordinates":[[16.149358,41.325764],[16.149358,41.325764]]},"properties":{"elevation_m":10.0}},{"type":"Feature","geometry":{"type":"LineString","coordinates":[[16.149358,41.324634],[16.149358,41.324634]]},"properties":{"elevation_m":10.0}},{"type":"Feature","geometry":{"type":"LineString","coordinates":[[16.151076,41.323433],[16.151076,41.323433]]},"properties":{"elevation_m":10.0}},{"type":"Feature","geometry":{"type":"LineString","coordinates":[[16.156467,41.322788],[16.156467,41.322788]]},"properties":{"elevation_m":10.0}},{"type":"Feature","geometry":{"type":"LineString","coordinates":[[16.157088,41.317629],[16.157088,41.317629]]},"properties":{"elevation_m":10.0}},{"type":"Feature","geometry":{"type":"LineString","coordinates":[[16.162585,41.316679],[16.162585,41.316679]]},"properties":{"elevation_m":10.0}},{"type":"Feature","geometry":{"type":"LineString","coordinates":[[16.161211,41.315961],[16.161211,41.315961]]},"properties":{"elevation_m":10.0}},{"type":"Feature","geometry":{"type":"LineString","coordinates":[[16.169599,41.315561],[16.169599,41.315561]]},"properties":{"elevation_m":10.0}},{"type":"Feature","geometry":{"type":"LineString","coordinates":[[16.153653,41.313444],[16.153653,41.313444]]},"properties":{"elevation_m":10.0}},{"type":"Feature","geometry":{"type":"LineString","coordinates":[[16.161984,41.311771],[16.161984,41.311771]]},"properties":{"elevation_m":10.0}},{"type":"Feature","geometry":{"type":"LineString","coordinates":[[16.152794,41.306785],[16.152794,41.306785]]},"properties":{"elevation_m":10.0}},{"type":"Feature","geometry":{"type":"LineString","coordinates":[[16.082195,41.334167],[16.082453,41.334241],[16.083483,41.334295],[16.083741,41.334228],[16.084256,41.333993],[16.085888,41.333884],[16.086232,41.334031],[16.087367,41.334984],[16.087606,41.335081],[16.087864,41.33505],[16.088632,41.334661],[16.088956,41.334403],[16.089238,41.334067],[16.089713,41.333823],[16.089865,41.333693],[16.089947,41.333564],[16.090017,41.333306],[16.090027,41.332596],[16.090068,41.332338],[16.090263,41.332016],[16.090612,41.331673],[16.090807,41.331564],[16.091041,41.331546],[16.091213,41.331626],[16.091643,41.331981],[16.0919,41.331983],[16.092416,41.331569],[16.093103,41.331274],[16.093233,41.331112],[16.093462,41.330661],[16.093618,41.330521],[16.094219,41.33044],[16.094477,41.330279],[16.095115,41.329757],[16.095679,41.329464],[16.09628,41.329262],[16.09671,41.329006],[16.096796,41.329006],[16.096968,41.329107],[16.097213,41.329435],[16.097397,41.329564],[16.097741,41.329645],[16.098256,41.329653],[16.098428,41.329695],[16.098771,41.32987],[16.099201,41.330195],[16.09948,41.330532],[16.099727,41.331048],[16.100165,41.331564],[16.100245,41.331758],[16.100317,41.332209],[16.100431,41.332403],[16.101176,41.332838],[16.101691,41.333389],[16.101863,41.33348],[16.102121,41.333534],[16.103237,41.333544],[16.103495,41.333498],[16.103838,41.333373],[16.104526,41.332803],[16.105213,41.332632],[16.105556,41.332467],[16.105784,41.332209],[16.105846,41.331822],[16.105986,41.33155],[16.106157,41.331447],[16.106587,41.331337],[16.10693,41.331341],[16.107118,41.331435],[16.107446,41.33171],[16.107703,41.331784],[16.107875,41.33175],[16.108305,41.331533],[16.108562,41.331451],[16.11028,41.331378],[16.110967,41.331522],[16.111139,41.331633],[16.111397,41.331967],[16.111654,41.332076],[16.111826,41.332046],[16.111984,41.331951],[16.112427,41.331496],[16.112685,41.331357],[16.112942,41.331319],[16.114059,41.331321],[16.114317,41.331228],[16.114574,41.331044],[16.115248,41.330273],[16.115347,41.330072],[16.115362,41.329822],[16.115176,41.329457],[16.115004,41.329299],[16.114403,41.329229],[16.114226,41.329112],[16.114084,41.328854],[16.114066,41.328402],[16.113907,41.328144],[16.113372,41.327782],[16.112947,41.32737],[16.112685,41.327247],[16.112341,41.327231],[16.111912,41.327347],[16.111568,41.327385],[16.111139,41.327355],[16.110795,41.327268],[16.110624,41.327162],[16.11028,41.326758],[16.109894,41.326531],[16.109851,41.326466],[16.110538,41.325896],[16.110676,41.325692],[16.110751,41.325498],[16.110838,41.324724],[16.110767,41.323433],[16.110844,41.32324],[16.111135,41.322853],[16.111293,41.322465],[16.111359,41.322143],[16.11139,41.321691],[16.111622,41.320852],[16.111708,41.3204],[16.11162,41.319432],[16.111533,41.31911],[16.111017,41.318465],[16.110668,41.317755],[16.110538,41.317622],[16.110194,41.317425],[16.110012,41.317174],[16.10988,41.316529],[16.109851,41.315883],[16.109989,41.315625],[16.110108,41.315516],[16.11028,41.315435],[16.111568,41.315415],[16.111998,41.315324],[16.112187,41.315174],[16.112334,41.314915],[16.11251,41.314206],[16.112599,41.314012],[16.112685,41.313954],[16.112771,41.313962],[16.112857,41.314028],[16.113109,41.314399],[16.1132,41.314464],[16.113372,41.314486],[16.113544,41.314444],[16.113715,41.314331],[16.114059,41.313947],[16.114633,41.31356],[16.114918,41.313141],[16.115004,41.313071],[16.115176,41.31304],[16.115261,41.313064],[16.115638,41.313367],[16.115777,41.313405],[16.115949,41.313389],[16.11612,41.313288],[16.116464,41.312808],[16.116721,41.312673],[16.117065,41.312626],[16.11904,41.312628],[16.119384,41.312556],[16.119658,41.312399],[16.11982,41.312205],[16.119873,41.311689],[16.119957,41.31156],[16.120071,41.311499],[16.120329,41.311512],[16.120758,41.311732],[16.121016,41.311689],[16.121188,41.311553],[16.121507,41.311108],[16.12217,41.310786],[16.122274,41.310656],[16.122357,41.310398],[16.122349,41.309172],[16.122235,41.308785],[16.122046,41.308604],[16.121703,41.308498],[16.121188,41.30848],[16.121016,41.308366],[16.120961,41.308204],[16.120984,41.308011],[16.121373,41.307624],[16.121419,41.307495],[16.121388,41.307301],[16.121262,41.307107],[16.120705,41.306591],[16.120184,41.30601],[16.120042,41.305752],[16.119899,41.30536],[16.119642,41.305121],[16.119212,41.304988],[16.118439,41.304485],[16.117598,41.304074],[16.117031,41.303623],[16.116893,41.303573],[16.116721,41.30357],[16.116464,41.303687],[16.11612,41.30409],[16.115579,41.304591],[16.11537,41.305042],[16.115229,41.305623],[16.11509,41.305861],[16.115004,41.305938],[16.114832,41.305985],[16.114345,41.305946],[16.114145,41.305832],[16.114022,41.305623],[16.113987,41.305365],[16.114007,41.304913],[16.114102,41.304655],[16.114574,41.304402],[16.114692,41.304268],[16.114758,41.30401],[16.114742,41.303881],[16.11466,41.303716],[16.114566,41.303623],[16.114403,41.303562],[16.114231,41.303554],[16.114023,41.303623],[16.113887,41.303773],[16.113715,41.304139],[16.11363,41.304242],[16.113286,41.304406],[16.113124,41.304526],[16.112777,41.304978],[16.112599,41.305004],[16.112427,41.304881],[16.112328,41.304655],[16.112321,41.303429],[16.112376,41.303236],[16.112798,41.302655],[16.113056,41.301687],[16.1132,41.301512],[16.113372,41.301436],[16.11363,41.301459],[16.114145,41.30171],[16.115176,41.302],[16.115949,41.302082],[16.116144,41.302203],[16.116378,41.302561],[16.11655,41.302733],[16.116721,41.302804],[16.116979,41.302771],[16.117196,41.30259],[16.117296,41.302332],[16.117337,41.300848],[16.117494,41.300586],[16.11758,41.300522],[16.117752,41.300477],[16.117838,41.300497],[16.117924,41.30059],[16.118073,41.300913],[16.118267,41.301102],[16.118525,41.301181],[16.119126,41.301208],[16.119384,41.301292],[16.119541,41.301429],[16.119788,41.301816],[16.119985,41.301953],[16.120329,41.302031],[16.121617,41.302042],[16.121875,41.302126],[16.121976,41.302203],[16.122084,41.302397],[16.122129,41.302977],[16.122215,41.303171],[16.122562,41.30352],[16.122819,41.303598],[16.123006,41.303494],[16.123335,41.302992],[16.123818,41.302655],[16.123958,41.302397],[16.124002,41.302074],[16.123995,41.301687],[16.123794,41.300977],[16.123758,41.300654],[16.123816,41.300267],[16.124022,41.299791],[16.12428,41.299617],[16.124494,41.299622],[16.124623,41.299716],[16.124935,41.300138],[16.125052,41.300219],[16.125224,41.300264],[16.125425,41.300203],[16.125568,41.300009],[16.12559,41.299751],[16.125501,41.299557],[16.125341,41.299428],[16.124967,41.299248],[16.124871,41.299106],[16.124826,41.298719],[16.124834,41.298331],[16.124885,41.298138],[16.124985,41.298009],[16.125224,41.297908],[16.125825,41.298006],[16.126228,41.297944],[16.126489,41.297751],[16.12677,41.297289],[16.126856,41.297234],[16.126942,41.297234],[16.127037,41.297299],[16.127135,41.297492],[16.127153,41.298009],[16.127233,41.298331],[16.127366,41.298525],[16.127543,41.29862],[16.127801,41.298678],[16.12823,41.298683],[16.129175,41.298452],[16.129862,41.298424],[16.13012,41.298304],[16.130227,41.298202],[16.130287,41.298009],[16.130206,41.297824],[16.129969,41.297557],[16.129902,41.297428],[16.12987,41.297234],[16.129901,41.296976],[16.130292,41.296281],[16.130429,41.295557],[16.130612,41.29504],[16.130893,41.294502],[16.131262,41.294137],[16.131448,41.293814],[16.13144,41.293363],[16.131277,41.292717],[16.131253,41.292395],[16.131324,41.292072],[16.131552,41.291556],[16.131617,41.29104],[16.131599,41.290588],[16.131491,41.29033],[16.131322,41.290157],[16.130839,41.289878],[16.130764,41.289749],[16.130788,41.28962],[16.130506,41.289426],[16.130549,41.289413],[16.130893,41.289385],[16.131752,41.289545],[16.132745,41.290072],[16.133212,41.290498],[16.133674,41.290781],[16.134156,41.290917],[16.134929,41.290966],[16.135146,41.291104],[16.135445,41.291403],[16.13639,41.291808],[16.136733,41.29183],[16.137678,41.291529],[16.138388,41.291491],[16.139825,41.292045],[16.14077,41.292234],[16.141199,41.292419],[16.14192,41.292653],[16.142487,41.292931],[16.142745,41.293104],[16.143346,41.293707],[16.143948,41.29418],[16.145187,41.294847],[16.145665,41.295047],[16.146009,41.295362],[16.146256,41.29575],[16.146478,41.296008],[16.147727,41.297097],[16.148177,41.297363],[16.148671,41.297752],[16.149444,41.298192],[16.149874,41.298362],[16.150561,41.298735],[16.151509,41.299686],[16.151763,41.300236],[16.151976,41.300848],[16.152312,41.3013],[16.152867,41.302332],[16.153137,41.302655],[16.15391,41.303231],[16.154467,41.303494],[16.155234,41.303687],[16.156509,41.304204],[16.157138,41.304526],[16.157689,41.304725],[16.158378,41.305042],[16.15872,41.305268],[16.159149,41.305389],[16.160094,41.305874],[16.160875,41.306139],[16.161554,41.306428],[16.1631,41.306819],[16.164834,41.306978],[16.165373,41.307107],[16.165849,41.307144],[16.166536,41.307483],[16.16719,41.307753],[16.167652,41.308052],[16.167927,41.308333],[16.168175,41.308721],[16.16838,41.309301],[16.168661,41.309882],[16.168769,41.310022],[16.169198,41.310402],[16.169456,41.310532],[16.170057,41.310669],[16.170492,41.31085],[16.171002,41.31125],[16.171174,41.311327],[16.171603,41.311412],[16.173149,41.311543],[16.174585,41.312012],[16.175683,41.312463],[16.175837,41.312592],[16.175958,41.312915],[16.176731,41.313625],[16.17717,41.314335],[16.177787,41.314859]]},"properties":{"elevation_m":20.0}},{"type":"Feature","geometry":{"type":"LineString","coordinates":[[16.123976,41.311689],[16.123976,41.311689]]},"properties":{"elevation_m":20.0}},{"type":"Feature","geometry":{"type":"LineString","coordinates":[[16.127448,41.301816],[16.127448,41.301816]]},"properties":{"elevation_m":20.0}},{"type":"Feature","geometry":{"type":"LineString","coordinates":[[16.110967,41.300848],[16.110967,41.300848]]},"properties":{"elevation_m":20.0}},{"type":"Feature","geometry":{"type":"LineString","coordinates":[[16.118439,41.300138],[16.118439,41.300138]]},"properties":{"elevation_m":20.0}},{"type":"Feature","geometry":{"type":"LineString","coordinates":[[16.114403,41.299063],[16.114403,41.299063]]},"properties":{"elevation_m":20.0}},{"type":"Feature","geometry":{"type":"LineString","coordinates":[[16.12093,41.298337],[16.12093,41.298337]]},"properties":{"elevation_m":20.0}},{"type":"Feature","geometry":{"type":"LineString","coordinates":[[16.122562,41.29822],[16.122562,41.29822]]},"properties":{"elevation_m":20.0}},{"type":"Feature","geometry":{"type":"LineString","coordinates":[[16.127973,41.290207],[16.127973,41.290207]]},"properties":{"elevation_m":20.0}},{"type":"Feature","geometry":{"type":"LineString","coordinates":[[16.082195,41.324219],[16.082484,41.324788],[16.082882,41.326071],[16.0832,41.32666],[16.083397,41.326862],[16.084085,41.327179],[16.084342,41.327347],[16.084686,41.327752],[16.084858,41.327884],[16.085029,41.327965],[16.085201,41.327988],[16.085888,41.327905],[16.086747,41.327979],[16.087091,41.327841],[16.087345,41.327563],[16.087401,41.32737],[16.087341,41.327176],[16.087176,41.326954],[16.086787,41.326595],[16.086674,41.326402],[16.086611,41.326144],[16.086601,41.325692],[16.086928,41.325111],[16.086964,41.324853],[16.086844,41.324659],[16.086404,41.324354],[16.086324,41.324208],[16.086314,41.324079],[16.08638,41.323885],[16.086489,41.323743],[16.0873,41.32324],[16.087805,41.322659],[16.088457,41.322014],[16.0887,41.320788],[16.088695,41.320529],[16.088637,41.320355],[16.088465,41.320177],[16.088293,41.320122],[16.087005,41.320102],[16.086833,41.320051],[16.086697,41.319949],[16.086649,41.31982],[16.086692,41.319691],[16.087115,41.319432],[16.087226,41.319303],[16.087291,41.31911],[16.087267,41.318852],[16.087176,41.31868],[16.087005,41.318546],[16.086833,41.318506],[16.086575,41.318533],[16.086404,41.318637],[16.086074,41.319174],[16.085617,41.319432],[16.085487,41.319562],[16.085235,41.319949],[16.084943,41.32009],[16.083827,41.32011],[16.083569,41.320078],[16.083397,41.320004],[16.083312,41.319923],[16.083209,41.319626],[16.083215,41.319239],[16.083312,41.318994],[16.083861,41.318529],[16.08417,41.318096],[16.084514,41.317948],[16.084858,41.317948],[16.085201,41.317888],[16.085373,41.317815],[16.085519,41.31769],[16.085619,41.317497],[16.085677,41.317238],[16.085687,41.316722],[16.085853,41.316529],[16.086043,41.316464],[16.086404,41.316471],[16.086661,41.316534],[16.086919,41.316656],[16.087163,41.316851],[16.087348,41.31692],[16.088808,41.317102],[16.089066,41.317091],[16.089324,41.317001],[16.089839,41.316575],[16.090097,41.316445],[16.090526,41.316408],[16.090827,41.316464],[16.090952,41.316593],[16.090996,41.316722],[16.090979,41.317238],[16.090912,41.317497],[16.090784,41.317687],[16.090688,41.317755],[16.089901,41.317948],[16.089652,41.318077],[16.089528,41.3184],[16.089566,41.31911],[16.089696,41.319368],[16.090183,41.319799],[16.090427,41.320207],[16.090612,41.320423],[16.091302,41.320852],[16.09164,41.321175],[16.092058,41.321949],[16.092162,41.322401],[16.092305,41.322594],[16.09336,41.323143],[16.093618,41.323217],[16.093876,41.323227],[16.094739,41.323046],[16.095336,41.322782],[16.095875,41.322659],[16.096143,41.32253],[16.096452,41.32222],[16.09671,41.322102],[16.096968,41.322083],[16.097225,41.322134],[16.097521,41.322272],[16.097612,41.322465],[16.097553,41.322659],[16.097225,41.323046],[16.097222,41.32324],[16.097311,41.323346],[16.097569,41.32351],[16.098084,41.324112],[16.098256,41.324208],[16.098514,41.324266],[16.099201,41.324227],[16.099544,41.324294],[16.099802,41.324396],[16.100231,41.324677],[16.100403,41.324745],[16.100918,41.324776],[16.102121,41.324616],[16.103409,41.32458],[16.10401,41.324464],[16.104955,41.324072],[16.105814,41.323828],[16.106184,41.323562],[16.106759,41.322878],[16.107494,41.322401],[16.107961,41.321951],[16.108483,41.321626],[16.108594,41.321433],[16.108667,41.320852],[16.108622,41.320659],[16.108524,41.320529],[16.107727,41.31982],[16.107532,41.319744],[16.106894,41.319626],[16.106365,41.319368],[16.106219,41.31911],[16.106187,41.318594],[16.106106,41.318335],[16.105862,41.317884],[16.105598,41.317561],[16.105127,41.317215],[16.104354,41.317009],[16.104046,41.316851],[16.103689,41.316593],[16.103018,41.315883],[16.102352,41.315303],[16.101534,41.31427],[16.101456,41.314077],[16.10141,41.313754],[16.101524,41.313302],[16.101597,41.312786],[16.101615,41.312592],[16.101584,41.312463],[16.101308,41.312141],[16.101004,41.311695],[16.100489,41.311232],[16.100176,41.310786],[16.099912,41.310205],[16.099642,41.309172],[16.099372,41.308776],[16.098917,41.308269],[16.098599,41.307688],[16.098153,41.30672],[16.097912,41.306359],[16.097597,41.30601],[16.09744,41.305752],[16.097394,41.305494],[16.097416,41.30472],[16.097296,41.30401],[16.097001,41.303171],[16.096572,41.302332],[16.096552,41.302139],[16.096595,41.301687],[16.096523,41.301429],[16.09628,41.301155],[16.095422,41.300511],[16.095164,41.300187],[16.09499,41.29988],[16.094728,41.298977],[16.094816,41.298525],[16.094968,41.298073],[16.09497,41.29788],[16.094911,41.297751],[16.094763,41.297622],[16.094188,41.297299],[16.09379,41.297003],[16.093532,41.296888],[16.093189,41.296798],[16.092845,41.296625],[16.092554,41.296395],[16.091124,41.295492],[16.090704,41.295298],[16.089429,41.294847],[16.089062,41.294589],[16.088842,41.294331],[16.088722,41.294263],[16.088379,41.294175],[16.087692,41.294149],[16.087434,41.294068],[16.087135,41.293879],[16.086919,41.293666],[16.086661,41.293492],[16.085974,41.293264],[16.085802,41.293092],[16.085619,41.292782],[16.085393,41.292588],[16.085029,41.29253],[16.084772,41.292423],[16.084342,41.292013],[16.08417,41.291905],[16.083999,41.291846],[16.083741,41.291869],[16.083569,41.291786],[16.083409,41.291556],[16.08343,41.291298],[16.083493,41.291233],[16.083655,41.291179],[16.084085,41.291153],[16.084256,41.291043],[16.084399,41.290846],[16.084449,41.290652],[16.084438,41.290459],[16.084366,41.29033],[16.084256,41.290246],[16.083913,41.290173],[16.083483,41.290238],[16.083312,41.290337],[16.082943,41.290717],[16.082796,41.290769],[16.082625,41.290717],[16.082195,41.290288]]},"properties":{"elevation_m":30.0}},{"type":"Feature","geometry":{"type":"LineString","coordinates":[[16.082195,41.288344],[16.082278,41.288007],[16.082298,41.287297],[16.082367,41.287122],[16.082453,41.287058],[16.08271,41.287046],[16.083312,41.287152],[16.083741,41.287136],[16.084342,41.286961],[16.084581,41.286781],[16.084643,41.286587],[16.084594,41.286393],[16.084132,41.285877],[16.084043,41.285684],[16.084047,41.285555],[16.084166,41.285361],[16.084428,41.285147],[16.085029,41.284518],[16.085287,41.284393],[16.086146,41.284145],[16.086575,41.283846],[16.086833,41.283771],[16.087005,41.28383],[16.087348,41.284112],[16.087572,41.284199],[16.088035,41.284239],[16.088551,41.284191],[16.088776,41.28407],[16.08898,41.283788],[16.089135,41.283683],[16.089839,41.283646],[16.090183,41.283532],[16.091202,41.282522],[16.091233,41.282393],[16.091189,41.282264],[16.090956,41.282137],[16.090011,41.282078],[16.08941,41.281952],[16.089238,41.28197],[16.089066,41.282074],[16.088894,41.282285],[16.088808,41.282522],[16.088771,41.283296],[16.088686,41.283425],[16.088551,41.283465],[16.088379,41.283438],[16.088244,41.283361],[16.087864,41.282844],[16.087606,41.282722],[16.086833,41.282674],[16.08606,41.282524],[16.085287,41.282695],[16.085029,41.282696],[16.084823,41.282651],[16.084647,41.282522],[16.08461,41.282393],[16.084665,41.282199],[16.084858,41.282034],[16.085201,41.281924],[16.085888,41.281933],[16.086081,41.281876],[16.086254,41.281747],[16.086333,41.281618],[16.086394,41.28136],[16.086417,41.280844],[16.086489,41.280715],[16.086661,41.280595],[16.086919,41.280598],[16.087348,41.280821],[16.087949,41.281041],[16.088293,41.281098],[16.089066,41.281106],[16.090011,41.280917],[16.090956,41.280861],[16.091213,41.280752],[16.091643,41.28042],[16.091814,41.280348],[16.091986,41.280344],[16.092072,41.280403],[16.092138,41.280521],[16.092416,41.281604],[16.092587,41.281876],[16.092845,41.281967],[16.09482,41.281973],[16.095078,41.281916],[16.09525,41.281754],[16.09532,41.281425],[16.095298,41.281231],[16.09525,41.281138],[16.095164,41.281077],[16.094906,41.281034],[16.093618,41.281022],[16.093293,41.280908],[16.092845,41.280345],[16.092416,41.28016],[16.092306,41.28007],[16.092309,41.27994],[16.092383,41.279747],[16.092501,41.279609],[16.092673,41.279496],[16.093103,41.27944],[16.09336,41.279512],[16.093532,41.279695],[16.093787,41.280199],[16.094047,41.280406],[16.094391,41.28047],[16.094906,41.28037],[16.095164,41.280373],[16.095336,41.280474],[16.095593,41.280807],[16.096023,41.280884],[16.096624,41.280882],[16.096968,41.2808],[16.097826,41.280173],[16.09831,41.279747],[16.098685,41.27967],[16.099115,41.279703],[16.099372,41.279783],[16.099974,41.280195],[16.10042,41.280392],[16.101348,41.280635],[16.102035,41.280763],[16.10255,41.280928],[16.103323,41.281061],[16.105384,41.282108],[16.106329,41.282332],[16.106845,41.282317],[16.10736,41.282211],[16.107618,41.282224],[16.109022,41.282522],[16.110967,41.283244],[16.111654,41.283591],[16.112599,41.283603],[16.113028,41.283512],[16.113544,41.283462],[16.114059,41.283322],[16.114317,41.283294],[16.115433,41.283536],[16.116464,41.283519],[16.117151,41.28345],[16.118439,41.283614],[16.119184,41.283619],[16.119995,41.283812],[16.120844,41.283914],[16.121445,41.28412],[16.122783,41.284006],[16.123163,41.283924],[16.123335,41.283932],[16.123507,41.283991],[16.12428,41.284416],[16.125052,41.284616],[16.125911,41.285028],[16.126169,41.285026],[16.126684,41.284832],[16.126882,41.284845],[16.127052,41.284974],[16.127109,41.285167],[16.127171,41.285232],[16.127629,41.285281],[16.127887,41.285357],[16.128334,41.285619],[16.12866,41.28598],[16.129383,41.286264],[16.130034,41.286366],[16.131065,41.286296],[16.131408,41.286321],[16.131666,41.286389],[16.131911,41.286587],[16.132272,41.287103],[16.133386,41.288007],[16.134929,41.288848],[16.13559,41.289362],[16.137162,41.290056],[16.137762,41.290459],[16.138365,41.29065],[16.138794,41.290729],[16.139396,41.290902],[16.139911,41.291078],[16.140856,41.291477],[16.141886,41.29167],[16.142917,41.292015],[16.143013,41.292072],[16.143153,41.292266],[16.143524,41.292911],[16.143862,41.293224],[16.144205,41.293421],[16.144721,41.293544],[16.145322,41.293782],[16.145755,41.294072],[16.146293,41.294266],[16.147125,41.294708],[16.147469,41.294752],[16.148328,41.294715],[16.148585,41.294771],[16.148757,41.294864],[16.148889,41.294976],[16.148999,41.295234],[16.149015,41.295363],[16.148952,41.295815],[16.149066,41.296266],[16.14928,41.296847],[16.149788,41.297388],[16.150217,41.297659],[16.150561,41.29781],[16.150892,41.298073],[16.151168,41.298396],[16.151336,41.298719],[16.151677,41.299112],[16.152193,41.299552],[16.152708,41.299877],[16.152852,41.300009],[16.153034,41.300267],[16.153081,41.300396],[16.152966,41.300909],[16.152944,41.301235],[16.153169,41.30188],[16.153333,41.302139],[16.153578,41.302397],[16.15391,41.302682],[16.154376,41.302977],[16.155285,41.303284],[16.156916,41.30367],[16.157346,41.303838],[16.157947,41.304177],[16.158548,41.304407],[16.159064,41.30451],[16.159751,41.304563],[16.160509,41.305042],[16.160695,41.305205],[16.161898,41.305519],[16.162499,41.305467],[16.162928,41.305345],[16.163155,41.305171],[16.163442,41.30472],[16.163654,41.30401],[16.163696,41.303687],[16.163708,41.303236],[16.163595,41.302784],[16.163563,41.302461],[16.163638,41.302332],[16.163873,41.302208],[16.164131,41.302163],[16.164434,41.302203],[16.16456,41.302272],[16.164886,41.30259],[16.165044,41.302848],[16.165329,41.303623],[16.165464,41.303816],[16.165677,41.303996],[16.166106,41.304209],[16.166879,41.304354],[16.167137,41.304335],[16.167309,41.304248],[16.16791,41.303618],[16.168425,41.303203],[16.168855,41.30306],[16.169284,41.303069],[16.169327,41.303171],[16.169289,41.303236],[16.168977,41.303623],[16.168752,41.304074],[16.168417,41.304462],[16.168334,41.304655],[16.168353,41.305236],[16.168123,41.306462],[16.168242,41.306978],[16.168339,41.307143],[16.168673,41.307495],[16.169026,41.307948],[16.169355,41.308269],[16.169628,41.308456],[16.169971,41.308581],[16.170572,41.308888],[16.171061,41.30943],[16.171431,41.309929],[16.172259,41.310334],[16.172295,41.310463],[16.172364,41.310527],[16.172975,41.310786],[16.173493,41.310922],[16.174266,41.311039],[16.174695,41.311031],[16.175219,41.310786],[16.17564,41.310331],[16.176284,41.309947],[16.176322,41.309818],[16.176235,41.309689],[16.175373,41.30943],[16.175124,41.309253],[16.174781,41.30883],[16.174523,41.308608],[16.174266,41.308477],[16.17375,41.308333],[16.173625,41.308269],[16.173587,41.308204],[16.173664,41.30809],[16.173836,41.308031],[16.174437,41.3079],[16.174953,41.307875],[16.17521,41.307738],[16.175373,41.30743],[16.175412,41.307107],[16.175382,41.306914],[16.175198,41.306656],[16.17521,41.306527],[16.175296,41.306499],[16.175529,41.30672],[16.17564,41.306772],[16.175897,41.306749],[16.176155,41.306623],[16.176499,41.306267],[16.1771,41.306035],[16.17732,41.305881],[16.177437,41.305688],[16.177456,41.305494],[16.177415,41.305365],[16.177272,41.305185],[16.1771,41.305073],[16.176756,41.304954],[16.176241,41.304924],[16.176141,41.304849],[16.176284,41.304784],[16.176756,41.304757],[16.1771,41.304634],[16.177371,41.304397],[16.177615,41.303981],[16.177787,41.303881]]},"properties":{"elevation_m":30.0}},{"type":"Feature","geometry":{"type":"LineString","coordinates":[[16.087692,41.279104],[16.087692,41.279104]]},"properties":{"elevation_m":30.0}},{"type":"Feature","geometry":{"type":"LineString","coordinates":[[16.103052,41.319432],[16.103052,41.319432]]},"properties":{"elevation_m":40.0}},{"type":"Feature","geometry":{"type":"LineString","coordinates":[[16.097569,41.315754],[16.097569,41.315754]]},"properties":{"elevation_m":40.0}},{"type":"Feature","geometry":{"type":"LineString","coordinates":[[16.082195,41.313916],[16.08271,41.313894],[16.083226,41.313805],[16.083569,41.313628],[16.083999,41.313183],[16.084256,41.313002],[16.084514,41.312921],[16.084961,41.312915],[16.086146,41.312552],[16.086747,41.312293],[16.087262,41.312255],[16.088121,41.312441],[16.088379,41.312458],[16.088637,41.312377],[16.089152,41.311986],[16.08941,41.311931],[16.090097,41.312197],[16.091127,41.312485],[16.091728,41.312572],[16.09233,41.312557],[16.092587,41.312612],[16.092946,41.312786],[16.09336,41.313247],[16.093532,41.313349],[16.09379,41.313431],[16.094329,41.313431],[16.094563,41.31334],[16.094906,41.313101],[16.094992,41.31308],[16.095164,41.313131],[16.09532,41.313367],[16.095589,41.314141],[16.095869,41.314464],[16.095989,41.314722],[16.096,41.315044],[16.095738,41.31569],[16.095741,41.315819],[16.095826,41.316012],[16.096023,41.316141],[16.09671,41.316],[16.097247,41.316012],[16.097311,41.316098],[16.097367,41.316529],[16.097452,41.316787],[16.097569,41.31695],[16.097741,41.317058],[16.098084,41.317106],[16.098256,41.31708],[16.098428,41.316988],[16.098529,41.316851],[16.098658,41.316529],[16.098722,41.316012],[16.098685,41.315625],[16.098514,41.315272],[16.097965,41.314786],[16.097397,41.314394],[16.097209,41.314141],[16.097225,41.313947],[16.097655,41.313558],[16.097797,41.313302],[16.097953,41.312657],[16.09794,41.312528],[16.097826,41.312242],[16.097472,41.311818],[16.096366,41.310966],[16.095779,41.309947],[16.095737,41.309689],[16.095759,41.308979],[16.095679,41.30861],[16.095164,41.308215],[16.094337,41.30743],[16.094169,41.307172],[16.094065,41.30672],[16.093952,41.306462],[16.093704,41.306178],[16.093363,41.305688],[16.093189,41.305406],[16.093009,41.304978],[16.092872,41.304849],[16.092441,41.304591],[16.092254,41.304397],[16.092109,41.303558],[16.092029,41.303429],[16.09155,41.302977],[16.091423,41.302784],[16.091361,41.302461],[16.09136,41.302203],[16.091414,41.30201],[16.09165,41.301558],[16.091711,41.301042],[16.09168,41.300783],[16.091522,41.300267],[16.091461,41.299235],[16.091299,41.29882],[16.091211,41.298719],[16.091041,41.298619],[16.090784,41.298567],[16.090268,41.298545],[16.089753,41.298333],[16.088722,41.298352],[16.088551,41.298277],[16.088465,41.298202],[16.088358,41.298009],[16.088316,41.297492],[16.088154,41.297041],[16.08793,41.296589],[16.087578,41.296202],[16.087091,41.295902],[16.085883,41.295492],[16.085424,41.295105],[16.084858,41.294302],[16.084342,41.293925],[16.083741,41.293728],[16.08314,41.293735],[16.082367,41.293583],[16.082195,41.2935]]},"properties":{"elevation_m":40.0}},{"type":"Feature","geometry":{"type":"LineString","coordinates":[[16.082195,41.272909],[16.082539,41.27296],[16.083569,41.272927],[16.085115,41.272657],[16.085459,41.272711],[16.086404,41.272975],[16.086661,41.273004],[16.087024,41.272907],[16.087422,41.27252],[16.087778,41.272331],[16.088121,41.272292],[16.088808,41.272324],[16.089839,41.272475],[16.091299,41.272952],[16.092424,41.2731],[16.092673,41.273206],[16.093189,41.273577],[16.094133,41.273936],[16.095164,41.27402],[16.095937,41.274164],[16.096423,41.274455],[16.096624,41.274643],[16.097051,41.275488],[16.097366,41.275811],[16.097655,41.275907],[16.098771,41.276096],[16.099372,41.276256],[16.100489,41.276841],[16.101058,41.276972],[16.101262,41.277082],[16.101421,41.27723],[16.10166,41.277553],[16.101694,41.277682],[16.101691,41.278005],[16.101757,41.278327],[16.101949,41.278748],[16.102068,41.278908],[16.102293,41.279057],[16.102722,41.279169],[16.103023,41.279295],[16.103667,41.279833],[16.104238,41.280134],[16.10444,41.280206],[16.104697,41.280217],[16.105127,41.280101],[16.105728,41.279853],[16.106329,41.279734],[16.10693,41.279671],[16.107274,41.279699],[16.107586,41.279811],[16.108172,41.280328],[16.108251,41.280457],[16.108257,41.280586],[16.108085,41.280844],[16.107618,41.281013],[16.10752,41.281102],[16.107532,41.281181],[16.107618,41.281261],[16.107961,41.28137],[16.108219,41.281409],[16.109078,41.281419],[16.109507,41.281494],[16.110022,41.281509],[16.110452,41.281454],[16.111139,41.281231],[16.111397,41.281191],[16.112341,41.281343],[16.112599,41.281349],[16.112831,41.281296],[16.113114,41.281157],[16.114145,41.280989],[16.11509,41.280569],[16.115433,41.280371],[16.116206,41.280254],[16.11758,41.280455],[16.118267,41.280512],[16.118697,41.280597],[16.119298,41.280813],[16.121102,41.280964],[16.121789,41.280978],[16.122648,41.280938],[16.123421,41.280643],[16.124022,41.280642],[16.124321,41.280779],[16.124623,41.281102],[16.124967,41.281262],[16.12531,41.28148],[16.125974,41.28207],[16.126657,41.282457],[16.1272,41.28271],[16.127722,41.283038],[16.127973,41.283123],[16.128574,41.28312],[16.128917,41.283213],[16.12921,41.283361],[16.129347,41.283484],[16.129555,41.283812],[16.12984,41.28407],[16.130034,41.284316],[16.130255,41.284458],[16.130721,41.284543],[16.130979,41.284699],[16.131236,41.284742],[16.131607,41.284522],[16.132267,41.284388],[16.132611,41.28437],[16.133469,41.284491],[16.1345,41.284765],[16.135187,41.284756],[16.135583,41.284845],[16.135771,41.284974],[16.135858,41.285103],[16.135759,41.285942],[16.135853,41.286264],[16.136819,41.287618],[16.137015,41.287749],[16.137506,41.287948],[16.138365,41.288509],[16.139052,41.289411],[16.140287,41.290459],[16.14077,41.290755],[16.141543,41.291035],[16.142487,41.291069],[16.143003,41.291129],[16.144132,41.291491],[16.144238,41.291556],[16.144324,41.291685],[16.144447,41.292395],[16.144679,41.292653],[16.14518,41.292911],[16.145837,41.293063],[16.146438,41.293338],[16.146782,41.293424],[16.147306,41.293427],[16.147383,41.293358],[16.147475,41.29304],[16.14777,41.292588],[16.148242,41.29227],[16.148585,41.291946],[16.148757,41.291896],[16.149101,41.292046],[16.149444,41.292029],[16.149616,41.292107],[16.14978,41.29233],[16.149813,41.292524],[16.149707,41.293492],[16.149633,41.29375],[16.149659,41.293879],[16.14996,41.294074],[16.150733,41.294319],[16.151061,41.294589],[16.151121,41.294718],[16.151121,41.294847],[16.151065,41.294976],[16.150303,41.295443],[16.149975,41.295815],[16.149887,41.296137],[16.149995,41.296525],[16.150303,41.296904],[16.151076,41.297287],[16.151524,41.297622],[16.151897,41.298396],[16.151997,41.298719],[16.152154,41.298912],[16.152622,41.29927],[16.153147,41.299493],[16.153675,41.299816],[16.154082,41.30026],[16.154116,41.300396],[16.154092,41.300525],[16.153824,41.300736],[16.153553,41.301235],[16.15365,41.301751],[16.15391,41.302132],[16.154254,41.302428],[16.154683,41.302679],[16.155542,41.302954],[16.156315,41.303027],[16.157373,41.302977],[16.157382,41.302913],[16.157256,41.302655],[16.157273,41.302526],[16.157432,41.302411],[16.157689,41.302375],[16.157947,41.302414],[16.158548,41.30264],[16.15872,41.302734],[16.158834,41.302848],[16.158819,41.302913],[16.15872,41.302921],[16.158376,41.302824],[16.158119,41.302822],[16.157748,41.302977],[16.158049,41.303236],[16.158205,41.303312],[16.158806,41.303331],[16.159064,41.303139],[16.159407,41.303186],[16.159579,41.303168],[16.16013,41.302913],[16.16073,41.302397],[16.160815,41.302268],[16.160867,41.302074],[16.16081,41.301687],[16.160716,41.301429],[16.160396,41.300913],[16.159903,41.300461],[16.159736,41.300138],[16.159751,41.299903],[16.159837,41.299717],[16.16018,41.299325],[16.160352,41.299233],[16.161211,41.299081],[16.161383,41.299085],[16.162843,41.299623],[16.163616,41.299615],[16.164389,41.29991],[16.165162,41.300125],[16.165591,41.300137],[16.166364,41.299977],[16.166879,41.299591],[16.16748,41.299576],[16.167824,41.299486],[16.16808,41.299299],[16.168339,41.298839],[16.16862,41.298654],[16.168855,41.298558],[16.169198,41.298491],[16.169456,41.298524],[16.169763,41.298654],[16.170143,41.298893],[16.170401,41.298974],[16.17083,41.298985],[16.171174,41.298947],[16.171431,41.298861],[16.171603,41.29874],[16.17229,41.297827],[16.172634,41.297558],[16.172805,41.297482],[16.173321,41.297377],[16.17418,41.297498],[16.174523,41.297479],[16.175059,41.297234],[16.17598,41.296912],[16.176241,41.296872],[16.176842,41.296877],[16.177787,41.296542]]},"properties":{"elevation_m":40.0}},{"type":"Feature","geometry":{"type":"LineString","coordinates":[[16.082195,41.308941],[16.082453,41.308851],[16.08271,41.308863],[16.082968,41.308953],[16.083312,41.309181],[16.083569,41.309239],[16.084256,41.309049],[16.085029,41.308906],[16.085229,41.308785],[16.085386,41.308592],[16.085617,41.307946],[16.085716,41.307785],[16.085974,41.307604],[16.086353,41.30743],[16.086647,41.307172],[16.086796,41.306978],[16.087082,41.306785],[16.087692,41.306566],[16.088035,41.30651],[16.088379,41.306531],[16.089152,41.306716],[16.08941,41.306724],[16.089667,41.306672],[16.090268,41.30638],[16.090504,41.306204],[16.090756,41.305881],[16.090802,41.305623],[16.090698,41.304993],[16.090613,41.304784],[16.090415,41.304526],[16.090097,41.304358],[16.089238,41.3042],[16.089033,41.304074],[16.088744,41.303752],[16.088557,41.303236],[16.088581,41.302655],[16.088532,41.302268],[16.088379,41.302035],[16.087778,41.301627],[16.087642,41.301429],[16.087572,41.301106],[16.087641,41.30059],[16.087606,41.300375],[16.087304,41.299751],[16.086917,41.299106],[16.086681,41.29846],[16.086503,41.297557],[16.086381,41.297234],[16.086147,41.297041],[16.085459,41.296743],[16.085115,41.296542],[16.084943,41.296331],[16.084555,41.295686],[16.084342,41.295485],[16.083913,41.295305],[16.08314,41.29515],[16.082539,41.294927],[16.082195,41.29473]]},"properties":{"elevation_m":50.0}},{"type":"Feature","geometry":{"type":"LineString","coordinates":[[16.155328,41.301493],[16.155328,41.301493]]},"properties":{"elevation_m":50.0}},{"type":"Feature","geometry":{"type":"LineString","coordinates":[[16.177787,41.279408],[16.177443,41.279304],[16.177195,41.279102],[16.176721,41.278456],[16.176614,41.278263],[16.176564,41.278069],[16.176629,41.277876],[16.177014,41.277607],[16.177272,41.277558],[16.177787,41.277577]]},"properties":{"elevation_m":50.0}},{"type":"Feature","geometry":{"type":"LineString","coordinates":[[16.175124,41.278208],[16.175124,41.278208]]},"properties":{"elevation_m":50.0}},{"type":"Feature","geometry":{"type":"LineString","coordinates":[[16.177787,41.272361],[16.17751,41.272326],[16.177412,41.272261],[16.177339,41.272132],[16.177405,41.27181],[16.17752,41.271616],[16.177615,41.271555],[16.177787,41.271579]]},"properties":{"elevation_m":50.0}},{"type":"Feature","geometry":{"type":"LineString","coordinates":[[16.082195,41.270793],[16.082539,41.270664],[16.08314,41.270513],[16.084533,41.270455],[16.086232,41.269965],[16.086844,41.270003],[16.087778,41.270176],[16.088465,41.270186],[16.089066,41.270043],[16.089925,41.270053],[16.090698,41.270127],[16.091385,41.270311],[16.091728,41.270345],[16.092244,41.270582],[16.092501,41.270649],[16.094305,41.270492],[16.094649,41.27051],[16.095765,41.270863],[16.096452,41.271172],[16.096968,41.271341],[16.097311,41.271545],[16.098084,41.271713],[16.099287,41.271891],[16.09963,41.272077],[16.099753,41.272261],[16.099755,41.272455],[16.099643,41.272907],[16.099641,41.273165],[16.09971,41.273423],[16.099936,41.273875],[16.100043,41.274004],[16.100489,41.27434],[16.100953,41.275036],[16.101863,41.275789],[16.102279,41.276198],[16.102588,41.276972],[16.102691,41.277617],[16.102848,41.27794],[16.103078,41.278198],[16.103347,41.278392],[16.103753,41.278554],[16.104553,41.279037],[16.104783,41.279139],[16.104955,41.279145],[16.105384,41.279042],[16.106072,41.278735],[16.106415,41.278679],[16.107016,41.278777],[16.107789,41.279035],[16.108275,41.27936],[16.108562,41.279445],[16.109249,41.279487],[16.109765,41.27944],[16.111826,41.279443],[16.112427,41.279506],[16.112942,41.279495],[16.113458,41.279622],[16.113715,41.279639],[16.113973,41.279588],[16.114403,41.279428],[16.115176,41.279279],[16.116034,41.279048],[16.116826,41.278714],[16.117151,41.278497],[16.117588,41.278392],[16.117838,41.278372],[16.118566,41.278779],[16.118857,41.279166],[16.119141,41.279424],[16.119813,41.27968],[16.120071,41.279695],[16.120844,41.2796],[16.121099,41.279489],[16.121227,41.27936],[16.12145,41.278973],[16.121824,41.278456],[16.12239,41.278132],[16.122819,41.277794],[16.123335,41.277591],[16.123592,41.277583],[16.12385,41.277652],[16.124108,41.277829],[16.12445,41.278714],[16.124594,41.278908],[16.124709,41.278994],[16.125052,41.279042],[16.12628,41.278843],[16.126598,41.278825],[16.127114,41.27895],[16.127421,41.279166],[16.127543,41.27936],[16.127568,41.279489],[16.127511,41.279553],[16.1272,41.279677],[16.127028,41.279847],[16.126935,41.28007],[16.126901,41.280392],[16.126942,41.280521],[16.127028,41.280628],[16.127307,41.280779],[16.127438,41.280908],[16.127468,41.281102],[16.127331,41.28136],[16.127298,41.281554],[16.12745,41.281812],[16.127642,41.281941],[16.127973,41.282051],[16.129175,41.28218],[16.129519,41.282298],[16.129862,41.282508],[16.130585,41.283296],[16.130893,41.283489],[16.13115,41.28358],[16.132868,41.283835],[16.133899,41.283884],[16.134929,41.283718],[16.135531,41.283728],[16.136884,41.284135],[16.137077,41.284226],[16.1372,41.284393],[16.137336,41.284909],[16.137325,41.285103],[16.137154,41.285555],[16.137081,41.285942],[16.137161,41.286264],[16.137253,41.286458],[16.137415,41.286652],[16.137592,41.286783],[16.13839,41.287039],[16.138829,41.287297],[16.139169,41.287813],[16.139386,41.288587],[16.139566,41.28891],[16.139958,41.289297],[16.140614,41.289813],[16.140942,41.290205],[16.141358,41.290459],[16.142144,41.290643],[16.143862,41.290849],[16.144635,41.290828],[16.144978,41.290908],[16.145236,41.291045],[16.145377,41.291169],[16.145452,41.291362],[16.145441,41.29162],[16.145486,41.291814],[16.145746,41.292137],[16.145923,41.292232],[16.146352,41.292362],[16.146782,41.292301],[16.146954,41.292234],[16.147806,41.291491],[16.148242,41.29087],[16.148312,41.290072],[16.14838,41.289943],[16.1485,41.289947],[16.149273,41.290301],[16.149874,41.290829],[16.150131,41.291266],[16.150411,41.292007],[16.150479,41.292975],[16.150561,41.293179],[16.151162,41.293464],[16.151849,41.293583],[16.152107,41.293683],[16.152622,41.294194],[16.152931,41.294395],[16.153037,41.294653],[16.153223,41.294792],[16.153567,41.294822],[16.154168,41.294652],[16.154254,41.294685],[16.15434,41.294782],[16.154475,41.295234],[16.154546,41.296137],[16.154386,41.296395],[16.154168,41.296587],[16.153996,41.296682],[16.153739,41.296764],[16.153481,41.296739],[16.152794,41.2963],[16.15245,41.296131],[16.152216,41.295944],[16.151677,41.295718],[16.15142,41.295731],[16.151158,41.295815],[16.150969,41.295944],[16.150875,41.296137],[16.150924,41.296266],[16.151206,41.296589],[16.151763,41.296751],[16.152629,41.297105],[16.152794,41.297217],[16.152922,41.297492],[16.152905,41.29788],[16.152952,41.298138],[16.152777,41.298396],[16.152794,41.298514],[16.153395,41.29896],[16.153567,41.29902],[16.154254,41.299126],[16.154411,41.299041],[16.154472,41.298912],[16.154486,41.298654],[16.154404,41.297944],[16.154042,41.29717],[16.154067,41.297105],[16.154202,41.297041],[16.154512,41.297045],[16.154855,41.296935],[16.155113,41.29694],[16.15537,41.297017],[16.156234,41.297492],[16.156831,41.297699],[16.15726,41.297753],[16.158291,41.297665],[16.159321,41.29806],[16.159665,41.298053],[16.16018,41.297953],[16.160867,41.29765],[16.161125,41.297604],[16.161383,41.297639],[16.162327,41.297908],[16.162499,41.297917],[16.162724,41.297751],[16.162966,41.297428],[16.163125,41.29717],[16.16336,41.296589],[16.163464,41.29646],[16.163616,41.296373],[16.164131,41.296225],[16.16456,41.296],[16.164904,41.295899],[16.165247,41.295871],[16.165849,41.295946],[16.166106,41.295906],[16.16631,41.295815],[16.166793,41.295403],[16.166965,41.295328],[16.167738,41.295277],[16.168339,41.295408],[16.168597,41.295394],[16.168894,41.295234],[16.169316,41.294718],[16.169651,41.294524],[16.170143,41.294322],[16.17083,41.294217],[16.171115,41.294137],[16.171345,41.294035],[16.171775,41.293737],[16.172118,41.293698],[16.172548,41.293521],[16.172891,41.293502],[16.173836,41.293608],[16.174609,41.293622],[16.175124,41.293756],[16.175714,41.294137],[16.176069,41.294226],[16.176778,41.294137],[16.177529,41.293964],[16.177787,41.293863]]},"properties":{"elevation_m":50.0}},{"type":"Feature","geometry":{"type":"LineString","coordinates":[[16.082195,41.300734],[16.082377,41.300461],[16.082489,41.300009],[16.082704,41.299816],[16.082854,41.299816],[16.08316,41.299945],[16.083483,41.29999],[16.083741,41.299908],[16.083913,41.29976],[16.083965,41.299622],[16.08398,41.299106],[16.084115,41.298589],[16.084194,41.297944],[16.084058,41.297041],[16.084051,41.29646],[16.083929,41.296073],[16.083848,41.295944],[16.083483,41.295748],[16.082195,41.295383]]},"properties":{"elevation_m":60.0}},{"type":"Feature","geometry":{"type":"LineString","coordinates":[[16.177787,41.281294],[16.177357,41.281137],[16.176928,41.281158],[16.17593,41.281683],[16.175726,41.281879],[16.175468,41.281952],[16.175296,41.281921],[16.17513,41.281812],[16.174867,41.281382],[16.17468,41.281167],[16.174468,41.281037],[16.174266,41.280986],[16.174008,41.280976],[16.173836,41.281018],[16.173149,41.281367],[16.172805,41.281447],[16.171947,41.281482],[16.171259,41.281396],[16.170143,41.281396],[16.169542,41.281242],[16.168683,41.281136],[16.168339,41.280947],[16.167824,41.280544],[16.167051,41.280345],[16.166793,41.280237],[16.166649,41.280134],[16.166284,41.279747],[16.166106,41.279667],[16.165849,41.279675],[16.165419,41.279891],[16.165162,41.279955],[16.16456,41.279943],[16.164245,41.279876],[16.164045,41.279737],[16.163953,41.279618],[16.163929,41.279166],[16.163818,41.278908],[16.163701,41.278775],[16.16353,41.27868],[16.163358,41.278671],[16.163272,41.278709],[16.162928,41.279177],[16.162843,41.279211],[16.162757,41.279171],[16.162654,41.279037],[16.162585,41.278763],[16.162513,41.277553],[16.162537,41.27723],[16.162632,41.277037],[16.162952,41.276714],[16.163031,41.276585],[16.163097,41.276327],[16.163107,41.275875],[16.16317,41.275682],[16.163287,41.275488],[16.163708,41.275036],[16.163765,41.274907],[16.163768,41.274778],[16.163616,41.27452],[16.162843,41.273749],[16.162463,41.2731],[16.162309,41.272907],[16.16159,41.272455],[16.161448,41.272261],[16.16149,41.272132],[16.161726,41.272048],[16.162499,41.272061],[16.162843,41.272113],[16.163186,41.272248],[16.163444,41.272477],[16.163873,41.272721],[16.163991,41.272842],[16.16417,41.273165],[16.164303,41.273289],[16.164646,41.273349],[16.16499,41.273341],[16.165212,41.273294],[16.165508,41.273036],[16.165597,41.272842],[16.165585,41.271745],[16.165423,41.270971],[16.165396,41.270648],[16.165427,41.270326],[16.165522,41.270003],[16.165718,41.269745],[16.166106,41.269432],[16.166622,41.269399],[16.166831,41.269293],[16.167051,41.269005],[16.16748,41.268096],[16.167721,41.267809],[16.16791,41.267727],[16.168339,41.267721],[16.168511,41.267634],[16.168976,41.267035],[16.169023,41.266906],[16.168967,41.266712],[16.16897,41.266518],[16.169009,41.266389],[16.16913,41.26626],[16.169284,41.266194],[16.169456,41.266188],[16.169617,41.26626],[16.169772,41.266389],[16.169846,41.266518],[16.169825,41.266583],[16.169619,41.266841],[16.169742,41.266906],[16.169971,41.266916],[16.170315,41.26681],[16.170572,41.266781],[16.171517,41.266847],[16.171861,41.266749],[16.172805,41.266304],[16.173493,41.266223],[16.174867,41.265852],[16.175226,41.265679],[16.175562,41.265292],[16.175811,41.265101],[16.175983,41.265024],[16.176499,41.264974],[16.177357,41.26515],[16.177787,41.265141]]},"properties":{"elevation_m":60.0}},{"type":"Feature","geometry":{"type":"LineString","coordinates":[[16.169971,41.273423],[16.169971,41.273423]]},"properties":{"elevation_m":60.0}},{"type":"Feature","geometry":{"type":"LineString","coordinates":[[16.082195,41.269216],[16.082882,41.26899],[16.083312,41.268802],[16.083913,41.268708],[16.084342,41.268557],[16.084484,41.268454],[16.084732,41.268132],[16.084858,41.268054],[16.085115,41.268062],[16.085802,41.268489],[16.086575,41.268665],[16.086833,41.268605],[16.087434,41.268288],[16.087864,41.267888],[16.088121,41.267835],[16.088637,41.267954],[16.088992,41.268196],[16.089753,41.268545],[16.090526,41.268759],[16.091327,41.268906],[16.092158,41.269274],[16.09336,41.26955],[16.09379,41.26954],[16.094391,41.269373],[16.094992,41.26915],[16.095593,41.269023],[16.095851,41.269052],[16.096366,41.269233],[16.096882,41.269316],[16.097139,41.269477],[16.097741,41.270224],[16.098033,41.27039],[16.098256,41.270458],[16.098599,41.270442],[16.099201,41.270231],[16.100171,41.269745],[16.100747,41.269355],[16.101004,41.269232],[16.10109,41.269249],[16.101196,41.269422],[16.101299,41.269809],[16.10123,41.270648],[16.101228,41.271358],[16.101307,41.272003],[16.10125,41.272261],[16.101047,41.272649],[16.101016,41.2731],[16.101097,41.273229],[16.101468,41.273488],[16.101832,41.273875],[16.102046,41.274262],[16.102378,41.27469],[16.102453,41.275101],[16.102644,41.275617],[16.103003,41.276198],[16.103151,41.27656],[16.103307,41.276779],[16.103492,41.277166],[16.103924,41.277514],[16.104526,41.277746],[16.105213,41.277788],[16.105814,41.277751],[16.106396,41.277811],[16.107703,41.278443],[16.10882,41.278788],[16.109163,41.2788],[16.110108,41.278654],[16.110795,41.278756],[16.111139,41.278756],[16.111826,41.278575],[16.112685,41.278429],[16.113715,41.278635],[16.114918,41.278519],[16.115176,41.278458],[16.116029,41.278069],[16.116777,41.277811],[16.11904,41.277112],[16.119642,41.276992],[16.120071,41.276977],[16.121617,41.277091],[16.121789,41.277051],[16.122046,41.276899],[16.122648,41.27667],[16.123335,41.276585],[16.124108,41.276615],[16.124805,41.276779],[16.125224,41.276982],[16.125825,41.277188],[16.125924,41.277295],[16.126026,41.277617],[16.126109,41.277746],[16.126781,41.278263],[16.127163,41.278456],[16.12823,41.278724],[16.128402,41.278711],[16.128831,41.278542],[16.129003,41.278522],[16.129604,41.27869],[16.129664,41.278779],[16.129676,41.278908],[16.129502,41.279618],[16.129561,41.27994],[16.129735,41.280199],[16.130034,41.280445],[16.130635,41.280862],[16.131236,41.28117],[16.131311,41.28136],[16.131331,41.281618],[16.13122,41.282199],[16.131189,41.28278],[16.131232,41.282909],[16.131322,41.283012],[16.131666,41.283203],[16.131923,41.283253],[16.132353,41.283269],[16.133126,41.283155],[16.134105,41.282844],[16.134758,41.282366],[16.135015,41.282256],[16.135273,41.282235],[16.135874,41.282459],[16.136304,41.282998],[16.136733,41.283271],[16.137077,41.283354],[16.137678,41.283359],[16.138309,41.283231],[16.138537,41.283131],[16.138945,41.282715],[16.138986,41.282393],[16.13906,41.282264],[16.13931,41.282054],[16.139396,41.282038],[16.139567,41.282138],[16.139929,41.28278],[16.140164,41.283102],[16.14019,41.283296],[16.140092,41.28349],[16.139765,41.283812],[16.139481,41.283974],[16.139224,41.284242],[16.138794,41.284399],[16.138458,41.28478],[16.138366,41.285038],[16.13835,41.285425],[16.138383,41.285619],[16.13851,41.285877],[16.13866,41.286006],[16.139997,41.286411],[16.14034,41.286459],[16.14054,41.286587],[16.140616,41.286781],[16.140628,41.287103],[16.140208,41.288007],[16.14021,41.288265],[16.140348,41.288523],[16.140552,41.288781],[16.141431,41.289555],[16.141593,41.289813],[16.141753,41.289943],[16.14223,41.290144],[16.143175,41.290301],[16.144033,41.290267],[16.144549,41.290295],[16.145322,41.290174],[16.146095,41.290299],[16.146224,41.290394],[16.146308,41.290588],[16.146321,41.290846],[16.146267,41.291298],[16.146328,41.29162],[16.146438,41.29174],[16.146696,41.291716],[16.146837,41.29162],[16.146954,41.291458],[16.147032,41.291233],[16.147045,41.29104],[16.146954,41.290459],[16.146868,41.290201],[16.146879,41.289813],[16.146768,41.289426],[16.146808,41.28891],[16.146741,41.288329],[16.146782,41.2882],[16.146906,41.288071],[16.147039,41.288045],[16.147211,41.288086],[16.147961,41.288394],[16.148242,41.28855],[16.148905,41.289104],[16.149616,41.289549],[16.150045,41.289767],[16.150416,41.290072],[16.150569,41.29033],[16.150692,41.290781],[16.150945,41.291427],[16.151012,41.292072],[16.151006,41.292653],[16.151107,41.292846],[16.151334,41.292926],[16.152107,41.292953],[16.152708,41.293145],[16.15391,41.29267],[16.154254,41.292612],[16.154426,41.29264],[16.154565,41.292782],[16.15463,41.29304],[16.15457,41.293169],[16.154382,41.293363],[16.154358,41.293556],[16.154628,41.294072],[16.154769,41.294247],[16.154941,41.294337],[16.155456,41.294439],[16.155886,41.294607],[16.156523,41.294976],[16.157027,41.295363],[16.157432,41.295492],[16.158119,41.295526],[16.158806,41.295646],[16.159184,41.295557],[16.159321,41.295468],[16.15961,41.295169],[16.160008,41.294891],[16.160467,41.29446],[16.160938,41.294137],[16.16116,41.293879],[16.161554,41.2933],[16.161984,41.292875],[16.162155,41.292846],[16.162671,41.292864],[16.163014,41.292765],[16.163186,41.29266],[16.163612,41.292266],[16.16414,41.291943],[16.164959,41.291556],[16.166192,41.291237],[16.16645,41.291066],[16.166707,41.290777],[16.166965,41.290566],[16.167844,41.29033],[16.168082,41.290205],[16.16937,41.289318],[16.169628,41.2892],[16.170057,41.289101],[16.170186,41.288975],[16.17017,41.288846],[16.169743,41.288523],[16.16964,41.288329],[16.169644,41.288007],[16.16972,41.287813],[16.169825,41.287749],[16.170143,41.287701],[16.170572,41.287734],[16.17107,41.287878],[16.171689,41.28796],[16.172977,41.288229],[16.173241,41.288394],[16.173984,41.289104],[16.174266,41.289304],[16.174437,41.289365],[16.174609,41.289303],[16.174913,41.28891],[16.175368,41.288523],[16.175897,41.287939],[16.176155,41.287817],[16.176584,41.287786],[16.176756,41.287731],[16.177443,41.287263],[16.177787,41.287128]]},"properties":{"elevation_m":60.0}},{"type":"Feature","geometry":{"type":"LineString","coordinates":[[16.082875,41.264131],[16.082914,41.264712],[16.083041,41.265615],[16.08314,41.265797],[16.083312,41.265924],[16.083483,41.265955],[16.083655,41.265929],[16.084085,41.265757],[16.0846,41.265623],[16.085453,41.265615],[16.086661,41.266044],[16.086919,41.266235],[16.087129,41.266325],[16.088465,41.266765],[16.089344,41.267228],[16.089925,41.267659],[16.090098,41.267744],[16.09044,41.267815],[16.090698,41.267816],[16.091213,41.267704],[16.091643,41.267549],[16.092072,41.267531],[16.092587,41.267666],[16.093103,41.267997],[16.093532,41.268189],[16.094047,41.268268],[16.094391,41.268253],[16.094906,41.268151],[16.095851,41.26813],[16.09628,41.268029],[16.096538,41.267901],[16.096726,41.267744],[16.096843,41.267615],[16.097071,41.267228],[16.097311,41.26697],[16.097483,41.266865],[16.097741,41.266783],[16.098514,41.266758],[16.098771,41.266655],[16.099287,41.266362],[16.100489,41.265958],[16.100902,41.265679],[16.101064,41.265486],[16.101328,41.265034],[16.101691,41.264802],[16.102121,41.264739],[16.102636,41.264785],[16.102763,41.264841],[16.102871,41.26497],[16.102852,41.265421],[16.102913,41.265873],[16.102831,41.266067],[16.102499,41.266518],[16.102293,41.267011],[16.102137,41.267873],[16.10212,41.268648],[16.102247,41.269035],[16.102516,41.269293],[16.102695,41.269551],[16.102947,41.269745],[16.103004,41.269938],[16.102827,41.270261],[16.102245,41.270777],[16.102074,41.2711],[16.102049,41.271229],[16.102177,41.271616],[16.102697,41.272584],[16.10279,41.272971],[16.103317,41.273423],[16.10343,41.27381],[16.103731,41.274197],[16.103765,41.274326],[16.103714,41.274714],[16.103853,41.275552],[16.104097,41.276069],[16.104364,41.276327],[16.105556,41.276638],[16.105814,41.276668],[16.106157,41.27664],[16.106415,41.276692],[16.106974,41.276972],[16.107089,41.277101],[16.107204,41.277359],[16.107613,41.277746],[16.107866,41.277876],[16.108906,41.278211],[16.109507,41.278218],[16.110022,41.27816],[16.110709,41.277953],[16.111053,41.277912],[16.111482,41.277789],[16.112341,41.27771],[16.112942,41.27772],[16.11313,41.277682],[16.113491,41.277488],[16.113639,41.277101],[16.113715,41.277011],[16.113887,41.276945],[16.115519,41.277104],[16.116034,41.277055],[16.11655,41.277101],[16.117065,41.277075],[16.118182,41.276709],[16.119298,41.276214],[16.119813,41.276115],[16.12093,41.276011],[16.121359,41.275784],[16.121511,41.275617],[16.121611,41.275359],[16.121716,41.274714],[16.121875,41.274502],[16.122046,41.274417],[16.12239,41.274465],[16.123163,41.275101],[16.123217,41.27523],[16.123176,41.275488],[16.123204,41.275552],[16.123335,41.275628],[16.12385,41.275674],[16.124881,41.275381],[16.12531,41.275306],[16.126169,41.275409],[16.126684,41.275521],[16.127286,41.275498],[16.127887,41.275548],[16.128402,41.275818],[16.128882,41.276004],[16.129433,41.276375],[16.129862,41.276531],[16.130324,41.276908],[16.130721,41.277448],[16.130839,41.277811],[16.130915,41.278327],[16.130817,41.279295],[16.130893,41.279538],[16.131065,41.279715],[16.13137,41.279876],[16.132439,41.280107],[16.132782,41.280318],[16.132998,41.28065],[16.133109,41.281167],[16.133093,41.281554],[16.133212,41.281712],[16.133383,41.281749],[16.133555,41.281723],[16.1345,41.281365],[16.135445,41.281286],[16.136304,41.281351],[16.136991,41.281535],[16.137334,41.28175],[16.137506,41.281792],[16.137678,41.281692],[16.138193,41.281155],[16.138537,41.280958],[16.139052,41.280852],[16.139567,41.280876],[16.139997,41.280828],[16.140254,41.280847],[16.14077,41.281099],[16.141151,41.281489],[16.141465,41.281941],[16.141623,41.282264],[16.141932,41.282586],[16.142007,41.28278],[16.142044,41.283038],[16.142016,41.283167],[16.141281,41.284199],[16.141155,41.284587],[16.140942,41.284854],[16.140921,41.284909],[16.140954,41.284974],[16.141199,41.285047],[16.142402,41.285172],[16.142831,41.285182],[16.14369,41.285118],[16.144463,41.285285],[16.144978,41.285296],[16.145408,41.285368],[16.146352,41.285334],[16.146696,41.285376],[16.147469,41.285683],[16.14766,41.285813],[16.14807,41.286206],[16.148843,41.286576],[16.149035,41.286716],[16.149665,41.28749],[16.150013,41.288136],[16.150091,41.2882],[16.150217,41.288227],[16.15099,41.288174],[16.151248,41.288241],[16.151763,41.288468],[16.152193,41.288551],[16.153223,41.288562],[16.154082,41.288629],[16.154512,41.288592],[16.154855,41.288493],[16.155248,41.288329],[16.155714,41.288069],[16.156311,41.287878],[16.156512,41.287684],[16.156731,41.287297],[16.156831,41.287229],[16.157002,41.287252],[16.157177,41.28749],[16.157171,41.288007],[16.15726,41.288114],[16.157518,41.288208],[16.158376,41.288338],[16.158548,41.288301],[16.158634,41.28823],[16.158892,41.287813],[16.159235,41.287496],[16.159729,41.287232],[16.160094,41.287185],[16.160524,41.287218],[16.160755,41.287297],[16.161039,41.287555],[16.161125,41.287529],[16.161432,41.287232],[16.161976,41.28691],[16.162319,41.286652],[16.162671,41.286234],[16.162894,41.286135],[16.163358,41.286122],[16.163616,41.286059],[16.163966,41.285748],[16.164422,41.285232],[16.1645,41.284974],[16.1644,41.284716],[16.163898,41.284199],[16.163857,41.28407],[16.163875,41.283877],[16.163983,41.283748],[16.164217,41.283609],[16.164904,41.283431],[16.16502,41.283296],[16.165044,41.283167],[16.164923,41.282973],[16.164498,41.282715],[16.163616,41.282524],[16.163272,41.282536],[16.161812,41.282855],[16.161297,41.282822],[16.16061,41.282848],[16.160266,41.282766],[16.160127,41.282651],[16.16007,41.282522],[16.159999,41.281683],[16.160216,41.28065],[16.160281,41.280005],[16.160173,41.279682],[16.159846,41.279295],[16.159617,41.278908],[16.159581,41.278779],[16.159609,41.278392],[16.159579,41.278293],[16.159479,41.278134],[16.1591,41.277811],[16.158033,41.277305],[16.157689,41.277196],[16.157174,41.27711],[16.156745,41.277113],[16.156236,41.277424],[16.155972,41.277413],[16.155456,41.277138],[16.154254,41.276636],[16.153653,41.276426],[16.152403,41.276069],[16.151683,41.275682],[16.150236,41.275036],[16.150005,41.274843],[16.14953,41.274303],[16.148979,41.273939],[16.148858,41.27381],[16.148759,41.273488],[16.148742,41.273165],[16.148835,41.272842],[16.149015,41.272667],[16.149616,41.272613],[16.150303,41.272747],[16.15142,41.27276],[16.151677,41.272731],[16.151849,41.272666],[16.152114,41.272455],[16.152602,41.271939],[16.152731,41.271745],[16.15279,41.271552],[16.152778,41.271294],[16.152501,41.270777],[16.15231,41.270067],[16.15206,41.269487],[16.152019,41.269164],[16.15209,41.26897],[16.152236,41.268777],[16.152622,41.268501],[16.152794,41.268423],[16.152966,41.268403],[16.153395,41.268497],[16.153528,41.268454],[16.153605,41.268325],[16.153567,41.268075],[16.153381,41.267615],[16.15337,41.267357],[16.153477,41.267099],[16.153653,41.266988],[16.153787,41.266841],[16.153834,41.266712],[16.153827,41.266583],[16.153739,41.26646],[16.153567,41.266419],[16.153223,41.266613],[16.153137,41.266609],[16.153046,41.266518],[16.15294,41.266196],[16.153043,41.265292],[16.153137,41.265034],[16.153309,41.264733],[16.153395,41.264655],[16.153481,41.264643],[16.15391,41.264941],[16.154597,41.265165],[16.154848,41.265292],[16.155113,41.265496],[16.155512,41.265615],[16.155972,41.265865],[16.156143,41.265788],[16.156458,41.265292],[16.156659,41.26515],[16.156831,41.265089],[16.157346,41.264992],[16.157604,41.264989],[16.158634,41.265196],[16.15896,41.265357],[16.159922,41.266516],[16.160094,41.266644],[16.16018,41.266647],[16.161039,41.266121],[16.161211,41.266078],[16.161984,41.266027],[16.162499,41.265805],[16.163014,41.265654],[16.163701,41.265587],[16.164474,41.265604],[16.165505,41.265787],[16.165935,41.265767],[16.166378,41.26555],[16.167395,41.265238],[16.16791,41.265112],[16.168425,41.265047],[16.169026,41.264892],[16.16937,41.264761],[16.169885,41.26464],[16.170374,41.264453],[16.17083,41.264358],[16.171315,41.264131]]},"properties":{"elevation_m":70.0}},{"type":"Feature","geometry":{"type":"LineString","coordinates":[[16.089341,41.264131],[16.089285,41.264647],[16.08909,41.265292],[16.089054,41.265809],[16.089091,41.266002],[16.089188,41.266196],[16.089581,41.266581],[16.090097,41.266794],[16.090612,41.266924],[16.091299,41.266854],[16.091814,41.266718],[16.092673,41.266684],[16.093189,41.266824],[16.09379,41.267091],[16.094047,41.267119],[16.094735,41.267091],[16.095183,41.266906],[16.095323,41.266776],[16.09573,41.266131],[16.096003,41.265809],[16.096279,41.26555],[16.09671,41.265298],[16.098256,41.264773],[16.098685,41.264671],[16.099287,41.264608],[16.099716,41.264349],[16.099903,41.264131]]},"properties":{"elevation_m":80.0}},{"type":"Feature","geometry":{"type":"LineString","coordinates":[[16.106081,41.264131],[16.105728,41.264457],[16.105299,41.264725],[16.104414,41.265873],[16.104157,41.266389],[16.103912,41.266776],[16.103657,41.267035],[16.103409,41.267415],[16.103237,41.267555],[16.10316,41.26768],[16.103179,41.268132],[16.10323,41.268261],[16.103667,41.268721],[16.10431,41.26897],[16.10459,41.269293],[16.104676,41.269487],[16.104655,41.26968],[16.104486,41.270261],[16.104124,41.270713],[16.103955,41.2711],[16.103948,41.271294],[16.104029,41.271745],[16.104181,41.272132],[16.104544,41.272713],[16.104869,41.272904],[16.105728,41.273091],[16.1059,41.273216],[16.106088,41.273939],[16.105928,41.274843],[16.105936,41.275036],[16.106002,41.27523],[16.10623,41.275617],[16.106501,41.275701],[16.107188,41.27572],[16.108047,41.27609],[16.108209,41.276198],[16.108521,41.276585],[16.108765,41.276779],[16.108962,41.277101],[16.109163,41.277213],[16.109335,41.277261],[16.109936,41.277295],[16.110108,41.277256],[16.110452,41.277084],[16.111053,41.276905],[16.111826,41.276925],[16.112084,41.276897],[16.112194,41.276843],[16.112427,41.276562],[16.112577,41.276456],[16.113458,41.276148],[16.113715,41.276096],[16.114231,41.276046],[16.11509,41.27604],[16.115548,41.27594],[16.116378,41.275873],[16.116721,41.275908],[16.117409,41.276074],[16.117838,41.276052],[16.118096,41.275997],[16.119212,41.275342],[16.119642,41.275218],[16.11991,41.274972],[16.119931,41.274778],[16.119813,41.274535],[16.119642,41.274371],[16.119292,41.274133],[16.119104,41.273875],[16.119084,41.273617],[16.119212,41.273229],[16.119299,41.2731],[16.119728,41.272744],[16.120071,41.272513],[16.120329,41.272391],[16.121273,41.272159],[16.122046,41.271895],[16.122476,41.271859],[16.122734,41.271919],[16.122944,41.272068],[16.123467,41.272971],[16.123678,41.273251],[16.124639,41.274068],[16.125112,41.274326],[16.126255,41.274679],[16.126942,41.274703],[16.128144,41.274818],[16.129604,41.275098],[16.130911,41.275811],[16.131322,41.276093],[16.131476,41.276262],[16.131568,41.276456],[16.131521,41.277166],[16.131739,41.278069],[16.131832,41.278263],[16.132037,41.278521],[16.132021,41.278585],[16.131888,41.278714],[16.131841,41.278843],[16.131845,41.279102],[16.131923,41.279184],[16.132095,41.279201],[16.132353,41.279164],[16.132868,41.278911],[16.133555,41.278958],[16.134328,41.279231],[16.134923,41.279876],[16.135273,41.279968],[16.135617,41.279961],[16.136475,41.279734],[16.136991,41.279696],[16.137506,41.279709],[16.138537,41.279878],[16.13931,41.279666],[16.139739,41.279494],[16.140498,41.278908],[16.140684,41.278811],[16.140942,41.278736],[16.141766,41.27865],[16.141893,41.278714],[16.141933,41.279231],[16.14223,41.279745],[16.142516,41.280005],[16.142845,41.280457],[16.143175,41.280699],[16.143518,41.280827],[16.143776,41.280812],[16.144892,41.280243],[16.145322,41.280138],[16.145493,41.280191],[16.145579,41.280263],[16.145837,41.280752],[16.146009,41.280889],[16.146181,41.280841],[16.14661,41.280441],[16.146782,41.280401],[16.146954,41.280483],[16.147228,41.280779],[16.147469,41.280946],[16.147641,41.281008],[16.147812,41.281006],[16.148089,41.280844],[16.148328,41.280495],[16.1485,41.280337],[16.148929,41.280266],[16.149367,41.280328],[16.150045,41.280822],[16.150818,41.281029],[16.15099,41.281043],[16.151849,41.280844],[16.152279,41.280582],[16.152622,41.280493],[16.152966,41.280526],[16.153416,41.280715],[16.154082,41.280908],[16.154426,41.2809],[16.154892,41.280715],[16.155172,41.280521],[16.155197,41.280457],[16.155164,41.280328],[16.154855,41.279976],[16.154564,41.279747],[16.15434,41.279648],[16.154168,41.279607],[16.153653,41.279612],[16.153343,41.279489],[16.153204,41.27936],[16.153112,41.279166],[16.153144,41.278908],[16.153117,41.278779],[16.153023,41.27865],[16.15288,41.278587],[16.152708,41.278601],[16.15245,41.278797],[16.151849,41.279012],[16.151334,41.279373],[16.15099,41.279438],[16.150733,41.279391],[16.150491,41.279231],[16.150332,41.279037],[16.150207,41.278779],[16.150061,41.278327],[16.149874,41.278005],[16.149702,41.277899],[16.14927,41.277746],[16.148929,41.277556],[16.14874,41.277424],[16.148505,41.277166],[16.148328,41.277053],[16.147751,41.276908],[16.146696,41.276823],[16.146181,41.276699],[16.145683,41.276456],[16.145236,41.276305],[16.144549,41.27628],[16.144377,41.276224],[16.143518,41.275611],[16.143098,41.275036],[16.142395,41.274262],[16.141986,41.273939],[16.141387,41.273552],[16.140856,41.273039],[16.139997,41.272406],[16.13928,41.271552],[16.139202,41.271358],[16.139144,41.270971],[16.139187,41.270713],[16.13931,41.270559],[16.139481,41.27045],[16.139911,41.270331],[16.140099,41.270197],[16.140176,41.270003],[16.140273,41.269422],[16.140518,41.268841],[16.140596,41.268067],[16.140795,41.267357],[16.140931,41.267164],[16.141418,41.266776],[16.141728,41.266389],[16.142058,41.266272],[16.142402,41.266267],[16.142573,41.266305],[16.142795,41.266454],[16.143089,41.266925],[16.14326,41.26702],[16.143432,41.267044],[16.14369,41.267001],[16.144291,41.266776],[16.144892,41.266616],[16.14661,41.266412],[16.1474,41.266002],[16.147727,41.265927],[16.148328,41.2659],[16.148757,41.265688],[16.149187,41.265296],[16.149469,41.264841],[16.149597,41.264518],[16.149615,41.264131]]},"properties":{"elevation_m":80.0}},{"type":"Feature","geometry":{"type":"LineString","coordinates":[[16.165903,41.264131],[16.166536,41.264332],[16.166879,41.264362],[16.167181,41.264324],[16.167689,41.264131]]},"properties":{"elevation_m":80.0}},{"type":"Feature","geometry":{"type":"LineString","coordinates":[[16.090132,41.264131],[16.089878,41.264582],[16.089757,41.26497],[16.089718,41.265357],[16.08979,41.265615],[16.090011,41.265858],[16.090319,41.266067],[16.090612,41.266137],[16.091127,41.266189],[16.091728,41.266137],[16.09233,41.266001],[16.093189,41.265947],[16.093618,41.265846],[16.093876,41.265744],[16.094563,41.265296],[16.095765,41.264922],[16.096119,41.264776],[16.096871,41.264582],[16.097397,41.264362],[16.097772,41.264131]]},"properties":{"elevation_m":90.0}},{"type":"Feature","geometry":{"type":"LineString","coordinates":[[16.108275,41.264131],[16.107446,41.264391],[16.106318,41.265034],[16.105774,41.26555],[16.105696,41.265679],[16.105621,41.266067],[16.10567,41.266518],[16.105588,41.267422],[16.105676,41.267744],[16.105964,41.268196],[16.106057,41.268712],[16.105819,41.269616],[16.105734,41.270326],[16.105857,41.270777],[16.105986,41.271014],[16.106396,41.271487],[16.107027,41.272003],[16.10736,41.272347],[16.10751,41.272584],[16.107604,41.272971],[16.107603,41.273165],[16.107521,41.273358],[16.107214,41.27381],[16.107161,41.274004],[16.107163,41.274391],[16.107254,41.274649],[16.107457,41.274843],[16.107875,41.27502],[16.108562,41.275482],[16.109335,41.275926],[16.109679,41.276076],[16.109936,41.27614],[16.110967,41.276213],[16.111225,41.276192],[16.111482,41.276083],[16.112169,41.275594],[16.112855,41.27523],[16.1132,41.27517],[16.114403,41.274746],[16.114832,41.274739],[16.115605,41.274834],[16.116378,41.275027],[16.116807,41.275051],[16.117323,41.275148],[16.11741,41.275101],[16.117547,41.274907],[16.117567,41.274649],[16.11752,41.274391],[16.117673,41.274133],[16.117767,41.273875],[16.117796,41.273165],[16.1177,41.272326],[16.117874,41.271874],[16.117963,41.271745],[16.118525,41.271521],[16.119212,41.271321],[16.119642,41.271252],[16.120071,41.27113],[16.121102,41.271016],[16.121703,41.271008],[16.122132,41.270893],[16.122436,41.270777],[16.123147,41.27039],[16.123678,41.269907],[16.12385,41.269817],[16.123936,41.269819],[16.124032,41.270197],[16.124457,41.2711],[16.124485,41.271552],[16.124687,41.272068],[16.124933,41.272391],[16.125396,41.272841],[16.125588,41.273423],[16.125773,41.273617],[16.126036,41.27381],[16.126255,41.273902],[16.126942,41.274003],[16.127371,41.274118],[16.127715,41.274141],[16.128574,41.274009],[16.12929,41.273617],[16.129604,41.273391],[16.129776,41.273334],[16.129948,41.273339],[16.130807,41.273618],[16.130991,41.273746],[16.131361,41.274133],[16.132114,41.274778],[16.132868,41.275641],[16.133298,41.275945],[16.133379,41.276133],[16.133368,41.276391],[16.132978,41.277101],[16.133162,41.277424],[16.133641,41.277676],[16.134414,41.277852],[16.13596,41.277736],[16.136132,41.277685],[16.13639,41.277446],[16.136938,41.277166],[16.137275,41.276908],[16.137935,41.276628],[16.138102,41.27652],[16.138275,41.276327],[16.138451,41.27601],[16.138666,41.275746],[16.138612,41.275552],[16.138454,41.275359],[16.1378,41.274843],[16.136975,41.274068],[16.136951,41.273875],[16.137099,41.273358],[16.137116,41.272842],[16.137022,41.272326],[16.136819,41.27187],[16.136561,41.271614],[16.135742,41.271294],[16.135411,41.2711],[16.135306,41.270971],[16.135015,41.270329],[16.134844,41.27024],[16.134586,41.270258],[16.134414,41.270173],[16.134242,41.269945],[16.134153,41.269616],[16.134166,41.269229],[16.134356,41.26897],[16.135015,41.26848],[16.135788,41.268168],[16.136132,41.267949],[16.136319,41.267744],[16.13655,41.267357],[16.136649,41.267035],[16.136702,41.265938],[16.13691,41.264712],[16.136894,41.264389],[16.136793,41.264131]]},"properties":{"elevation_m":90.0}},{"type":"Feature","geometry":{"type":"LineString","coordinates":[[16.145718,41.264131],[16.145923,41.264169],[16.1461,41.264131]]},"properties":{"elevation_m":90.0}},{"type":"Feature","geometry":{"type":"LineString","coordinates":[[16.091235,41.264131],[16.09074,41.264647],[16.090526,41.264805],[16.09044,41.264944],[16.09041,41.265099],[16.090434,41.265292],[16.090542,41.265421],[16.090784,41.265532],[16.091041,41.26558],[16.091471,41.265517],[16.092072,41.265238],[16.092897,41.264518],[16.093446,41.264239],[16.093796,41.264131]]},"properties":{"elevation_m":100.0}},{"type":"Feature","geometry":{"type":"LineString","coordinates":[[16.111312,41.264131],[16.110967,41.264427],[16.110194,41.264797],[16.109679,41.264902],[16.109078,41.264875],[16.10882,41.264952],[16.108525,41.265099],[16.107987,41.26555],[16.107852,41.265809],[16.107755,41.266131],[16.107611,41.267099],[16.107637,41.267228],[16.107717,41.267357],[16.108132,41.267744],[16.108136,41.267873],[16.107278,41.268841],[16.107102,41.269225],[16.106924,41.269487],[16.106892,41.269616],[16.107016,41.270045],[16.107334,41.270777],[16.107784,41.271229],[16.108734,41.27182],[16.10889,41.272003],[16.109023,41.272261],[16.10904,41.272455],[16.108935,41.272842],[16.108523,41.273358],[16.10844,41.273552],[16.108456,41.273746],[16.108601,41.274133],[16.108648,41.274199],[16.109049,41.274455],[16.109507,41.274671],[16.109726,41.274843],[16.110624,41.275226],[16.110795,41.275248],[16.111482,41.275139],[16.111826,41.274864],[16.112169,41.274493],[16.112771,41.274163],[16.113372,41.274063],[16.114059,41.274077],[16.114746,41.273957],[16.115261,41.273938],[16.115519,41.273852],[16.115949,41.273585],[16.11636,41.273229],[16.116484,41.272971],[16.11648,41.272391],[16.116311,41.271874],[16.116419,41.271294],[16.117159,41.270197],[16.117274,41.269745],[16.117482,41.269487],[16.117666,41.269366],[16.117838,41.269316],[16.118182,41.269295],[16.118439,41.269325],[16.1187,41.269422],[16.119532,41.269874],[16.119813,41.270106],[16.120071,41.270243],[16.120329,41.270298],[16.120599,41.270261],[16.12086,41.270132],[16.121304,41.269551],[16.121296,41.269422],[16.120993,41.268841],[16.120957,41.268648],[16.120996,41.268454],[16.121102,41.268333],[16.121359,41.26818],[16.121875,41.268091],[16.122218,41.26811],[16.12239,41.268179],[16.122688,41.26839],[16.122905,41.268612],[16.123096,41.268712],[16.124623,41.268789],[16.12531,41.268883],[16.125825,41.269003],[16.126083,41.269005],[16.126255,41.268964],[16.126427,41.268841],[16.126694,41.268519],[16.126856,41.268438],[16.126976,41.268454],[16.127114,41.268611],[16.127154,41.268906],[16.126951,41.269293],[16.127047,41.269809],[16.126922,41.270003],[16.126491,41.27039],[16.126134,41.270906],[16.126045,41.271164],[16.12609,41.271423],[16.126598,41.272207],[16.126942,41.272387],[16.127371,41.27268],[16.127715,41.272723],[16.128488,41.272664],[16.129089,41.272551],[16.129347,41.272466],[16.12969,41.272281],[16.130206,41.272142],[16.130893,41.272079],[16.131065,41.272097],[16.131322,41.272198],[16.131508,41.272326],[16.131983,41.272842],[16.132734,41.27381],[16.133126,41.27414],[16.133383,41.274273],[16.133555,41.274302],[16.133727,41.274276],[16.134071,41.274137],[16.134672,41.273812],[16.134844,41.273674],[16.135228,41.2731],[16.135266,41.272971],[16.135231,41.272842],[16.135009,41.27252],[16.134586,41.272231],[16.134242,41.27214],[16.133383,41.272084],[16.132868,41.271933],[16.132657,41.27181],[16.131748,41.270519],[16.131502,41.270067],[16.131446,41.269809],[16.131566,41.269229],[16.131756,41.268777],[16.131703,41.268325],[16.131756,41.268132],[16.132046,41.267551],[16.13272,41.266906],[16.132979,41.266583],[16.133365,41.265938],[16.133561,41.265421],[16.133641,41.264915],[16.133872,41.264389],[16.133876,41.264131]]},"properties":{"elevation_m":100.0}},{"type":"Feature","geometry":{"type":"LineString","coordinates":[[16.113895,41.264131],[16.113853,41.264324],[16.113735,41.264453],[16.1132,41.2647],[16.111654,41.265056],[16.111225,41.265347],[16.110967,41.265466],[16.109765,41.265574],[16.109388,41.265809],[16.109234,41.266067],[16.109264,41.266583],[16.109345,41.266841],[16.109611,41.267228],[16.109754,41.267938],[16.109791,41.268325],[16.109696,41.268583],[16.109408,41.268906],[16.10911,41.269358],[16.108798,41.26968],[16.108524,41.270067],[16.108463,41.270261],[16.108473,41.270584],[16.108582,41.270777],[16.108906,41.271046],[16.109249,41.271225],[16.110022,41.271519],[16.110194,41.2715],[16.110452,41.271311],[16.110709,41.271254],[16.112341,41.271309],[16.112599,41.271347],[16.112771,41.271423],[16.112878,41.271616],[16.112857,41.271713],[16.112771,41.271805],[16.112513,41.271895],[16.111912,41.271923],[16.111642,41.272003],[16.111482,41.272137],[16.111229,41.27252],[16.110792,41.272971],[16.110793,41.273036],[16.110849,41.2731],[16.110982,41.273165],[16.11174,41.273268],[16.112084,41.27322],[16.112771,41.272966],[16.1132,41.272653],[16.113472,41.272391],[16.113645,41.272197],[16.113801,41.271927],[16.114059,41.271807],[16.11456,41.271487],[16.114754,41.270713],[16.114676,41.270261],[16.114685,41.26968],[16.11464,41.269487],[16.114417,41.269164],[16.114369,41.26897],[16.114517,41.268712],[16.114832,41.268487],[16.115176,41.268368],[16.115605,41.26832],[16.116378,41.268473],[16.116807,41.268411],[16.117924,41.268389],[16.118773,41.268196],[16.119126,41.268042],[16.119556,41.267759],[16.1202,41.26697],[16.120672,41.266569],[16.121016,41.266349],[16.121875,41.265985],[16.122046,41.265976],[16.122819,41.266081],[16.123592,41.265941],[16.124022,41.265958],[16.124365,41.266131],[16.124881,41.266566],[16.125052,41.266596],[16.125138,41.266577],[16.12531,41.26645],[16.12574,41.265948],[16.125997,41.265812],[16.126255,41.265822],[16.12677,41.266094],[16.127371,41.266214],[16.127629,41.266171],[16.128027,41.266002],[16.12866,41.265825],[16.129347,41.26573],[16.129485,41.265679],[16.129672,41.265486],[16.129701,41.265034],[16.129827,41.264776],[16.129988,41.264582],[16.130292,41.264354],[16.130549,41.264228],[16.130871,41.264131]]},"properties":{"elevation_m":110.0}}]}