{"type":"FeatureCollection","features":[{"type":"Feature","geometry":{"type":"Point","coordinates":[35.33,32.77]},"properties":{"name":"Battle of Djahy","year":-1177,"yearFrom":-1202,"yearTo":-1152,"war":"Bronze Age collapse"}},{"type":"Feature","geometry":{"type":"Point","coordinates":[36.33,35.74]},"properties":{"name":"Battle of Qarqar","year":-852,"yearFrom":-877,"yearTo":-827,"war":"Assyrian conquest of Aram"}},{"type":"Feature","geometry":{"type":"Point","coordinates":[38.02,36.83]},"properties":{"name":"Battle of Carchemish","year":-604,"yearFrom":-629,"yearTo":-579,"war":"Ancient Egypt"}},{"type":"Feature","geometry":{"type":"Point","coordinates":[43.15,36.36]},"properties":{"name":"Fall of Nineveh","year":-611,"yearFrom":-636,"yearTo":-586,"war":"Medo-Babylonian conquest of the Assyrian Empire"}},{"type":"Feature","geometry":{"type":"Point","coordinates":[35.21,31.77]},"properties":{"name":"Assyrian siege of Jerusalem","year":-700,"yearFrom":-725,"yearTo":-675,"war":"Sennacherib's campaign in the Levant"}},{"type":"Feature","geometry":{"type":"Point","coordinates":[114.53,34.67]},"properties":{"name":"Battle of Chengpu","year":-631,"yearFrom":-656,"yearTo":-606,"war":"Spring and Autumn period"}},{"type":"Feature","geometry":{"type":"Point","coordinates":[48.26,32.19]},"properties":{"name":"Battle of Susa","year":-646,"yearFrom":-671,"yearTo":-621,"war":"Assyrian conquest of Persia"}},{"type":"Feature","geometry":{"type":"Point","coordinates":[32.55,31.04]},"properties":{"name":"Battle of Pelusium","year":-524,"yearFrom":-549,"yearTo":-499,"war":"First Achaemenid conquest of Egypt"}},{"type":"Feature","geometry":{"type":"Point","coordinates":[35.33,39.92]},"properties":{"name":"Battle of Pteria","year":-546,"yearFrom":-571,"yearTo":-521,"war":"Cyrus the Great"}},{"type":"Feature","geometry":{"type":"Point","coordinates":[27.83,38.67]},"properties":{"name":"Battle of Thymbra","year":-546,"yearFrom":-571,"yearTo":-521,"war":"Cyrus the Great"}},{"type":"Feature","geometry":{"type":"Point","coordinates":[44.7,33.18]},"properties":{"name":"Battle of Opis","year":-538,"yearFrom":-563,"yearTo":-513,"war":"Cyrus the Great"}},{"type":"Feature","geometry":{"type":"Point","coordinates":[22.54,38.8]},"properties":{"name":"Battle of Thermopylae","year":-479,"yearFrom":-504,"yearTo":-454,"war":"Second Persian invasion of Greece"}},{"type":"Feature","geometry":{"type":"Point","coordinates":[23.98,38.12]},"properties":{"name":"Battle of Marathon","year":-489,"yearFrom":-514,"yearTo":-464,"war":"First Persian invasion of Greece"}},{"type":"Feature","geometry":{"type":"Point","coordinates":[23.32,38.24]},"properties":{"name":"Battle of Plataea","year":-478,"yearFrom":-503,"yearTo":-453,"war":"Greco-Persian Wars"}},{"type":"Feature","geometry":{"type":"Point","coordinates":[27.16,37.69]},"properties":{"name":"Battle of Mycale","year":-478,"yearFrom":-503,"yearTo":-453,"war":"Greco-Persian Wars"}},{"type":"Feature","geometry":{"type":"Point","coordinates":[27.1,37.55]},"properties":{"name":"Battle of Lade","year":-493,"yearFrom":-518,"yearTo":-468,"war":"Ionian Revolt"}},{"type":"Feature","geometry":{"type":"Point","coordinates":[13.81,37.97]},"properties":{"name":"Battle of Himera","year":-479,"yearFrom":-504,"yearTo":-454,"war":"First Sicilian War"}},{"type":"Feature","geometry":{"type":"Point","coordinates":[12.7,41.88]},"properties":{"name":"Battle of Lake Regillus","year":-496,"yearFrom":-521,"yearTo":-471,"war":"First Latin War"}},{"type":"Feature","geometry":{"type":"Point","coordinates":[23.33,40.19]},"properties":{"name":"Battle of Potidaea","year":-431,"yearFrom":-456,"yearTo":-406,"war":"Peloponnesian War"}},{"type":"Feature","geometry":{"type":"Point","coordinates":[21.67,36.93]},"properties":{"name":"Battle of Sphacteria","year":-424,"yearFrom":-449,"yearTo":-399,"war":"Peloponnesian War"}},{"type":"Feature","geometry":{"type":"Point","coordinates":[23.85,40.82]},"properties":{"name":"Battle of Amphipolis","year":-421,"yearFrom":-446,"yearTo":-396,"war":"Archidamian War"}},{"type":"Feature","geometry":{"type":"Point","coordinates":[23.65,38.35]},"properties":{"name":"Battle of Delium","year":-423,"yearFrom":-448,"yearTo":-398,"war":"Peloponnesian War"}},{"type":"Feature","geometry":{"type":"Point","coordinates":[43.25,36.36]},"properties":{"name":"Battle of Gaugamela","year":-330,"yearFrom":-355,"yearTo":-305,"war":"Wars of Alexander the Great"}},{"type":"Feature","geometry":{"type":"Point","coordinates":[36.21,36.84]},"properties":{"name":"Battle of Issus","year":-332,"yearFrom":-357,"yearTo":-307,"war":"Wars of Alexander the Great"}},{"type":"Feature","geometry":{"type":"Point","coordinates":[22.85,38.49]},"properties":{"name":"Battle of Chaeronea","year":-337,"yearFrom":-362,"yearTo":-312,"war":"Fourth Sacred War"}},{"type":"Feature","geometry":{"type":"Point","coordinates":[73.64,32.83]},"properties":{"name":"Battle of the Hydaspes","year":-325,"yearFrom":-350,"yearTo":-300,"war":"Indian campaign of Alexander the Great"}},{"type":"Feature","geometry":{"type":"Point","coordinates":[27.24,40.23]},"properties":{"name":"Battle of the Granicus","year":-333,"yearFrom":-358,"yearTo":-308,"war":"Wars of Alexander the Great"}},{"type":"Feature","geometry":{"type":"Point","coordinates":[23.17,38.27]},"properties":{"name":"Battle of Leuctra","year":-370,"yearFrom":-395,"yearTo":-345,"war":"Boeotian War"}},{"type":"Feature","geometry":{"type":"Point","coordinates":[44.08,33.33]},"properties":{"name":"Battle of Cunaxa","year":-400,"yearFrom":-425,"yearTo":-375,"war":"the Ten Thousand"}},{"type":"Feature","geometry":{"type":"Point","coordinates":[12.52,42.02]},"properties":{"name":"Battle of the Allia","year":-386,"yearFrom":-411,"yearTo":-361,"war":"Roman\u2013Gallic Wars"}},{"type":"Feature","geometry":{"type":"Point","coordinates":[51.6,30.71]},"properties":{"name":"Battle of the Persian Gate on the Mountain","year":-329,"yearFrom":-354,"yearTo":-304,"war":"Wars of Alexander the Great"}},{"type":"Feature","geometry":{"type":"Point","coordinates":[22.4,37.6]},"properties":{"name":"Battle of Mantinea","year":-361,"yearFrom":-386,"yearTo":-336,"war":"Theban hegemony"}},{"type":"Feature","geometry":{"type":"Point","coordinates":[14.53,41.15]},"properties":{"name":"Battle of the Caudine Forks","year":-320,"yearFrom":-345,"yearTo":-295,"war":"Second Samnite War"}},{"type":"Feature","geometry":{"type":"Point","coordinates":[27.38,36.69]},"properties":{"name":"Battle of Cnidus","year":-393,"yearFrom":-418,"yearTo":-368,"war":"Spartan\u2013Persian War"}},{"type":"Feature","geometry":{"type":"Point","coordinates":[34.45,31.52]},"properties":{"name":"Battle of Gaza","year":-311,"yearFrom":-336,"yearTo":-286,"war":"Third War of the Diadochi"}},{"type":"Feature","geometry":{"type":"Point","coordinates":[51.8,31.78]},"properties":{"name":"Battle of Gabiene","year":-315,"yearFrom":-340,"yearTo":-290,"war":"Second War of the Diadochi"}},{"type":"Feature","geometry":{"type":"Point","coordinates":[22.88,37.93]},"properties":{"name":"Battle of Lechaeum","year":-390,"yearFrom":-415,"yearTo":-365,"war":"Corinthian War"}},{"type":"Feature","geometry":{"type":"Point","coordinates":[16.13,41.31]},"properties":{"name":"Battle of Cannae","year":-215,"yearFrom":-240,"yearTo":-190,"war":"Second Punic War"}},{"type":"Feature","geometry":{"type":"Point","coordinates":[9.45,36.3]},"properties":{"name":"Battle of Zama","year":-201,"yearFrom":-226,"yearTo":-176,"war":"Second Punic War"}},{"type":"Feature","geometry":{"type":"Point","coordinates":[12.09,43.2]},"properties":{"name":"Battle of Lake Trasimene","year":-216,"yearFrom":-241,"yearTo":-191,"war":"Second Punic War"}},{"type":"Feature","geometry":{"type":"Point","coordinates":[9.57,44.99]},"properties":{"name":"Battle of the Trebia","year":-217,"yearFrom":-242,"yearTo":-192,"war":"Second Punic War"}},{"type":"Feature","geometry":{"type":"Point","coordinates":[30.99,38.95]},"properties":{"name":"Battle of Ipsus","year":-300,"yearFrom":-325,"yearTo":-275,"war":"Fourth War of the Diadochi"}},{"type":"Feature","geometry":{"type":"Point","coordinates":[8.87,45.25]},"properties":{"name":"Battle of Ticinus","year":-217,"yearFrom":-242,"yearTo":-192,"war":"Second Punic War"}},{"type":"Feature","geometry":{"type":"Point","coordinates":[14.78,41.13]},"properties":{"name":"Battle of Beneventum","year":-274,"yearFrom":-299,"yearTo":-249,"war":"Pyrrhic War"}},{"type":"Feature","geometry":{"type":"Point","coordinates":[16.67,40.22]},"properties":{"name":"Battle of Heraclea","year":-279,"yearFrom":-304,"yearTo":-254,"war":"Pyrrhic War"}},{"type":"Feature","geometry":{"type":"Point","coordinates":[15.56,41.22]},"properties":{"name":"Battle of Asculum","year":-278,"yearFrom":-303,"yearTo":-253,"war":"Pyrrhic War"}},{"type":"Feature","geometry":{"type":"Point","coordinates":[27.62,38.55]},"properties":{"name":"Battle of Corupedium","year":-280,"yearFrom":-305,"yearTo":-255,"war":"Wars of the Diadochi"}},{"type":"Feature","geometry":{"type":"Point","coordinates":[13.01,43.78]},"properties":{"name":"Battle of the Metaurus","year":-206,"yearFrom":-231,"yearTo":-181,"war":"Second Punic War"}},{"type":"Feature","geometry":{"type":"Point","coordinates":[34.25,31.29]},"properties":{"name":"Battle of Raphia","year":-216,"yearFrom":-241,"yearTo":-191,"war":"Fourth Syrian War"}},{"type":"Feature","geometry":{"type":"Point","coordinates":[13.58,37.32]},"properties":{"name":"Battle of Agrigentum","year":-260,"yearFrom":-285,"yearTo":-235,"war":"First Punic War"}},{"type":"Feature","geometry":{"type":"Point","coordinates":[-5.98,37.52]},"properties":{"name":"Battle of Ilipa","year":-205,"yearFrom":-230,"yearTo":-180,"war":"Second Punic War"}},{"type":"Feature","geometry":{"type":"Point","coordinates":[22.57,39.42]},"properties":{"name":"Battle of Cynoscephalae","year":-196,"yearFrom":-221,"yearTo":-171,"war":"Second Macedonian War"}},{"type":"Feature","geometry":{"type":"Point","coordinates":[27.43,38.62]},"properties":{"name":"Battle of Magnesia","year":-189,"yearFrom":-214,"yearTo":-164,"war":"Roman\u2013Seleucid War"}},{"type":"Feature","geometry":{"type":"Point","coordinates":[22.47,40.25]},"properties":{"name":"Battle of Pydna","year":-167,"yearFrom":-192,"yearTo":-142,"war":"Third Macedonian War"}},{"type":"Feature","geometry":{"type":"Point","coordinates":[4.8,44.13]},"properties":{"name":"Battle of Arausio","year":-104,"yearFrom":-129,"yearTo":-79,"war":"Cimbrian War"}},{"type":"Feature","geometry":{"type":"Point","coordinates":[5.45,43.53]},"properties":{"name":"Battle of Aquae Sextiae","year":-101,"yearFrom":-126,"yearTo":-76,"war":"Cimbrian War"}},{"type":"Feature","geometry":{"type":"Point","coordinates":[22.88,37.91]},"properties":{"name":"Battle of Corinth","year":-145,"yearFrom":-170,"yearTo":-120,"war":"Achaean War"}},{"type":"Feature","geometry":{"type":"Point","coordinates":[22.53,38.8]},"properties":{"name":"Battle of Thermopylae","year":-190,"yearFrom":-215,"yearTo":-165,"war":"Roman\u2013Seleucid War"}},{"type":"Feature","geometry":{"type":"Point","coordinates":[35.7,33.25]},"properties":{"name":"Battle of Panium","year":-199,"yearFrom":-224,"yearTo":-174,"war":"Fifth Syrian War"}},{"type":"Feature","geometry":{"type":"Point","coordinates":[31.17,36.83]},"properties":{"name":"Battle of the Eurymedon","year":-189,"yearFrom":-214,"yearTo":-164,"war":"Roman\u2013Seleucid War"}},{"type":"Feature","geometry":{"type":"Point","coordinates":[14.43,46.7]},"properties":{"name":"Battle of Noreia","year":-111,"yearFrom":-136,"yearTo":-86,"war":"Cimbrian War"}},{"type":"Feature","geometry":{"type":"Point","coordinates":[22.42,39.63]},"properties":{"name":"Battle of Callinicus","year":-170,"yearFrom":-195,"yearTo":-145,"war":"Third Macedonian War"}},{"type":"Feature","geometry":{"type":"Point","coordinates":[26.79,38.18]},"properties":{"name":"Battle of Myonessus","year":-189,"yearFrom":-214,"yearTo":-164,"war":"Roman\u2013Seleucid War"}},{"type":"Feature","geometry":{"type":"Point","coordinates":[22.58,40.37]},"properties":{"name":"Battle of Pydna","year":-147,"yearFrom":-172,"yearTo":-122,"war":"Fourth Macedonian War"}},{"type":"Feature","geometry":{"type":"Point","coordinates":[19.32,40.64]},"properties":{"name":"Battle of the Aous","year":-197,"yearFrom":-222,"yearTo":-172,"war":"Second Macedonian War"}},{"type":"Feature","geometry":{"type":"Point","coordinates":[39.03,36.87]},"properties":{"name":"Battle of Carrhae","year":-52,"yearFrom":-77,"yearTo":-27,"war":"Crassus' Parthian campaign"}},{"type":"Feature","geometry":{"type":"Point","coordinates":[22.38,39.3]},"properties":{"name":"Battle of Pharsalus","year":-47,"yearFrom":-72,"yearTo":-22,"war":"Caesar's Civil War"}},{"type":"Feature","geometry":{"type":"Point","coordinates":[-4.85,37.55]},"properties":{"name":"Battle of Munda","year":-44,"yearFrom":-69,"yearTo":-19,"war":"Caesar's Civil War"}},{"type":"Feature","geometry":{"type":"Point","coordinates":[11.05,35.62]},"properties":{"name":"Battle of Thapsus","year":-45,"yearFrom":-70,"yearTo":-20,"war":"Caesar's Civil War"}},{"type":"Feature","geometry":{"type":"Point","coordinates":[35.88,40.3]},"properties":{"name":"Battle of Zela","year":-46,"yearFrom":-71,"yearTo":-21,"war":"Caesar's Civil War"}},{"type":"Feature","geometry":{"type":"Point","coordinates":[41.0,38.14]},"properties":{"name":"Battle of Tigranocerta","year":-68,"yearFrom":-93,"yearTo":-43,"war":"Third Mithridatic War"}},{"type":"Feature","geometry":{"type":"Point","coordinates":[4.03,46.92]},"properties":{"name":"Battle of Bibracte","year":-57,"yearFrom":-82,"yearTo":-32,"war":"Gallic War"}},{"type":"Feature","geometry":{"type":"Point","coordinates":[8.42,45.32]},"properties":{"name":"Battle of Vercellae","year":-100,"yearFrom":-125,"yearTo":-75,"war":"Cimbrian War"}},{"type":"Feature","geometry":{"type":"Point","coordinates":[19.45,41.32]},"properties":{"name":"Battle of Dyrrhachium","year":-47,"yearFrom":-72,"yearTo":-22,"war":"Caesar's Civil War"}},{"type":"Feature","geometry":{"type":"Point","coordinates":[22.86,38.5]},"properties":{"name":"Battle of Chaeronea","year":-85,"yearFrom":-110,"yearTo":-60,"war":"First Mithridatic War"}},{"type":"Feature","geometry":{"type":"Point","coordinates":[3.44,50.23]},"properties":{"name":"Battle of the Sabis","year":-56,"yearFrom":-81,"yearTo":-31,"war":"Gallic War"}},{"type":"Feature","geometry":{"type":"Point","coordinates":[2.85,49.43]},"properties":{"name":"Battle of the Axona","year":-56,"yearFrom":-81,"yearTo":-31,"war":"Gallic War"}},{"type":"Feature","geometry":{"type":"Point","coordinates":[8.13,52.41]},"properties":{"name":"Battle of the Teutoburg Forest","year":9,"yearFrom":-16,"yearTo":34,"war":"Early Imperial campaigns in Germania"}},{"type":"Feature","geometry":{"type":"Point","coordinates":[-3.0,56.92]},"properties":{"name":"Battle of Mons Graupius","year":83,"yearFrom":58,"yearTo":108,"war":"Roman conquest of Britain"}},{"type":"Feature","geometry":{"type":"Point","coordinates":[9.02,52.19]},"properties":{"name":"Battle of Idistaviso","year":16,"yearFrom":-9,"yearTo":41,"war":"Early Imperial campaigns in Germania"}},{"type":"Feature","geometry":{"type":"Point","coordinates":[0.74,51.44]},"properties":{"name":"Battle of the Medway","year":43,"yearFrom":18,"yearTo":68,"war":"Roman conquest of Britain"}},{"type":"Feature","geometry":{"type":"Point","coordinates":[10.14,45.09]},"properties":{"name":"Battles of Bedriacum","year":69,"yearFrom":44,"yearTo":94,"war":"Year of the Four Emperors"}},{"type":"Feature","geometry":{"type":"Point","coordinates":[113.36,33.63]},"properties":{"name":"Battle of Kunyang","year":23,"yearFrom":-2,"yearTo":48,"war":"L\u00fclin"}},{"type":"Feature","geometry":{"type":"Point","coordinates":[35.11,31.89]},"properties":{"name":"Battle of Beth Horon","year":66,"yearFrom":41,"yearTo":91,"war":"First Jewish-Roman War"}},{"type":"Feature","geometry":{"type":"Point","coordinates":[10.14,45.09]},"properties":{"name":"First Battle of Bedriacum","year":69,"yearFrom":44,"yearTo":94,"war":"Year of the Four Emperors"}},{"type":"Feature","geometry":{"type":"Point","coordinates":[43.75,39.4]},"properties":{"name":"Battle of Rhandeia","year":62,"yearFrom":37,"yearTo":87,"war":"Roman\u2013Parthian Wars"}},{"type":"Feature","geometry":{"type":"Point","coordinates":[-2.77,52.55]},"properties":{"name":"Battle of Caer Caradoc","year":50,"yearFrom":25,"yearTo":75,"war":"Roman conquest of Britain"}},{"type":"Feature","geometry":{"type":"Point","coordinates":[4.7,52.6]},"properties":{"name":"Battle of Baduhenna Wood","year":28,"yearFrom":3,"yearTo":53,"war":"Germanic Wars"}},{"type":"Feature","geometry":{"type":"Point","coordinates":[4.82,45.76]},"properties":{"name":"Battle of Lugdunum","year":197,"yearFrom":172,"yearTo":222,"war":"Year of the Five Emperors"}},{"type":"Feature","geometry":{"type":"Point","coordinates":[36.16,36.84]},"properties":{"name":"Battle of Issus","year":194,"yearFrom":169,"yearTo":219,"war":"Year of the Five Emperors"}},{"type":"Feature","geometry":{"type":"Point","coordinates":[22.72,45.51]},"properties":{"name":"Third Battle of Tapae","year":101,"yearFrom":76,"yearTo":126,"war":"First Dacian War"}},{"type":"Feature","geometry":{"type":"Point","coordinates":[118.01,34.34]},"properties":{"name":"Battle of Xiapi","year":199,"yearFrom":174,"yearTo":224,"war":"end of the Han dynasty"}},{"type":"Feature","geometry":{"type":"Point","coordinates":[23.31,45.62]},"properties":{"name":"Battle of Sarmisegetusa","year":106,"yearFrom":81,"yearTo":131,"war":"Second Dacian War"}},{"type":"Feature","geometry":{"type":"Point","coordinates":[113.03,34.46]},"properties":{"name":"Battle of Yangcheng","year":191,"yearFrom":166,"yearTo":216,"war":"end of the Han dynasty"}},{"type":"Feature","geometry":{"type":"Point","coordinates":[113.35,34.78]},"properties":{"name":"Battle of Xingyang","year":190,"yearFrom":165,"yearTo":215,"war":"Campaign against Dong Zhuo"}},{"type":"Feature","geometry":{"type":"Point","coordinates":[40.73,34.75]},"properties":{"name":"Battle of Dura-Europos","year":165,"yearFrom":140,"yearTo":190,"war":"Roman\u2013Parthian War of 161\u2013166"}},{"type":"Feature","geometry":{"type":"Point","coordinates":[113.62,29.87]},"properties":{"name":"Battle of Red Cliffs","year":208,"yearFrom":183,"yearTo":233,"war":"Three Kingdoms"}},{"type":"Feature","geometry":{"type":"Point","coordinates":[38.8,37.15]},"properties":{"name":"Battle of Edessa","year":260,"yearFrom":235,"yearTo":285,"war":"Shapur I's Syrio-Mesopotamian campaign"}},{"type":"Feature","geometry":{"type":"Point","coordinates":[21.9,43.3]},"properties":{"name":"Battle of Naissus","year":268,"yearFrom":243,"yearTo":293,"war":"Gothic War of 267\u2013269"}},{"type":"Feature","geometry":{"type":"Point","coordinates":[26.54,43.51]},"properties":{"name":"Battle of Abritus","year":251,"yearFrom":226,"yearTo":276,"war":"Gothic War of 248\u2013253"}},{"type":"Feature","geometry":{"type":"Point","coordinates":[114.62,34.91]},"properties":{"name":"Battle of Guandu","year":200,"yearFrom":175,"yearTo":225,"war":"end of the Han dynasty"}},{"type":"Feature","geometry":{"type":"Point","coordinates":[41.22,37.07]},"properties":{"name":"Battle of Nisibis","year":217,"yearFrom":192,"yearTo":242,"war":"Parthian War of Caracalla"}},{"type":"Feature","geometry":{"type":"Point","coordinates":[10.62,45.58]},"properties":{"name":"Battle of Lake Benacus","year":268,"yearFrom":243,"yearTo":293,"war":"Gothic War of 267\u2013269"}},{"type":"Feature","geometry":{"type":"Point","coordinates":[111.29,30.69]},"properties":{"name":"Battle of Xiaoting","year":221,"yearFrom":196,"yearTo":246,"war":"Three Kingdoms"}},{"type":"Feature","geometry":{"type":"Point","coordinates":[40.07,36.85]},"properties":{"name":"Battle of Resaena","year":243,"yearFrom":218,"yearTo":268,"war":"Sasanian campaign of Gordian III"}},{"type":"Feature","geometry":{"type":"Point","coordinates":[43.8,33.36]},"properties":{"name":"Battle of Misiche","year":244,"yearFrom":219,"yearTo":269,"war":"Sasanian campaign of Gordian III"}},{"type":"Feature","geometry":{"type":"Point","coordinates":[13.02,43.83]},"properties":{"name":"Battle of Fano","year":271,"yearFrom":246,"yearTo":296,"war":"Germanic Wars"}},{"type":"Feature","geometry":{"type":"Point","coordinates":[4.37,48.96]},"properties":{"name":"Battle of Ch\u00e2lons","year":274,"yearFrom":249,"yearTo":299,"war":"Campaigns of Aurelian"}},{"type":"Feature","geometry":{"type":"Point","coordinates":[26.6,41.8]},"properties":{"name":"Battle of Adrianople","year":378,"yearFrom":353,"yearTo":403,"war":"Gothic War of 376\u2013382"}},{"type":"Feature","geometry":{"type":"Point","coordinates":[12.47,41.94]},"properties":{"name":"Battle of the Milvian Bridge","year":312,"yearFrom":287,"yearTo":337,"war":"Civil Wars of the Tetrarchy"}},{"type":"Feature","geometry":{"type":"Point","coordinates":[26.52,41.67]},"properties":{"name":"Battle of Adrianople (324)","year":324,"yearFrom":299,"yearTo":349,"war":"Civil Wars of the Tetrarchy"}},{"type":"Feature","geometry":{"type":"Point","coordinates":[18.67,45.56]},"properties":{"name":"Battle of Mursa Major","year":351,"yearFrom":326,"yearTo":376,"war":"Roman civil war of 350\u2013353"}},{"type":"Feature","geometry":{"type":"Point","coordinates":[44.58,33.1]},"properties":{"name":"Battle of Ctesiphon","year":363,"yearFrom":338,"yearTo":388,"war":"Julian's Persian expedition"}},{"type":"Feature","geometry":{"type":"Point","coordinates":[27.84,38.92]},"properties":{"name":"Battle of Thyatira","year":366,"yearFrom":341,"yearTo":391,"war":"Procopius"}},{"type":"Feature","geometry":{"type":"Point","coordinates":[5.74,44.46]},"properties":{"name":"Battle of Mons Seleucus","year":353,"yearFrom":328,"yearTo":378,"war":"Roman civil war of 350\u2013353"}},{"type":"Feature","geometry":{"type":"Point","coordinates":[41.86,36.32]},"properties":{"name":"Battle of Singara","year":344,"yearFrom":319,"yearTo":369,"war":"Sapor II's Syrian-Mesopotamian campaigns"}},{"type":"Feature","geometry":{"type":"Point","coordinates":[27.58,43.22]},"properties":{"name":"Battle of the Willows","year":377,"yearFrom":352,"yearTo":402,"war":"Gothic War of 376\u2013382"}},{"type":"Feature","geometry":{"type":"Point","coordinates":[27.8,41.15]},"properties":{"name":"Battle of Tzirallum","year":313,"yearFrom":288,"yearTo":338,"war":"Civil Wars of the Tetrarchy"}},{"type":"Feature","geometry":{"type":"Point","coordinates":[27.58,43.22]},"properties":{"name":"Battle of Marcianople","year":376,"yearFrom":351,"yearTo":401,"war":"Gothic War of 376\u2013382"}},{"type":"Feature","geometry":{"type":"Point","coordinates":[22.94,40.64]},"properties":{"name":"Battle of Thessalonica","year":380,"yearFrom":355,"yearTo":405,"war":"Gothic War of 376\u2013382"}},{"type":"Feature","geometry":{"type":"Point","coordinates":[43.48,39.61]},"properties":{"name":"Battle of Bagavan","year":371,"yearFrom":346,"yearTo":396,"war":"Roman\u2013Sasanian wars"}},{"type":"Feature","geometry":{"type":"Point","coordinates":[4.5,49.0]},"properties":{"name":"Battle of the Maureaco Fields","year":451,"yearFrom":426,"yearTo":476,"war":"fall of the western Roman Empire"}},{"type":"Feature","geometry":{"type":"Point","coordinates":[45.06,39.34]},"properties":{"name":"Battle of Avarayr","year":451,"yearFrom":426,"yearTo":476,"war":"War of the Vardanants"}},{"type":"Feature","geometry":{"type":"Point","coordinates":[7.85,44.7]},"properties":{"name":"Battle of Pollentia","year":402,"yearFrom":377,"yearTo":427,"war":"Gothic War of 401\u2013403"}},{"type":"Feature","geometry":{"type":"Point","coordinates":[13.37,45.77]},"properties":{"name":"Battle of Isonzo","year":489,"yearFrom":464,"yearTo":514,"war":"Ostrogothic conquest of Italy"}},{"type":"Feature","geometry":{"type":"Point","coordinates":[10.98,45.43]},"properties":{"name":"Battle of Verona","year":402,"yearFrom":377,"yearTo":427,"war":"Gothic War of 401\u2013403"}},{"type":"Feature","geometry":{"type":"Point","coordinates":[-5.71,41.99]},"properties":{"name":"Battle of \u00d3rbigo","year":456,"yearFrom":431,"yearTo":481,"war":"Gothic War in Spain of 456"}},{"type":"Feature","geometry":{"type":"Point","coordinates":[18.05,47.68]},"properties":{"name":"Battle of Bolia","year":469,"yearFrom":444,"yearTo":494,"war":"Germanic Wars"}},{"type":"Feature","geometry":{"type":"Point","coordinates":[12.2,44.42]},"properties":{"name":"Battle of Ravenna","year":432,"yearFrom":407,"yearTo":457,"war":"Roman civil war of 432"}},{"type":"Feature","geometry":{"type":"Point","coordinates":[1.88,47.88]},"properties":{"name":"Battle of Orleans","year":463,"yearFrom":438,"yearTo":488,"war":"Gothic War of 461\u2013476"}},{"type":"Feature","geometry":{"type":"Point","coordinates":[12.2,44.42]},"properties":{"name":"Battle of Ravenna","year":476,"yearFrom":451,"yearTo":501,"war":"Germanic Wars"}},{"type":"Feature","geometry":{"type":"Point","coordinates":[0.5,51.32]},"properties":{"name":"Battle of Aylesford","year":455,"yearFrom":430,"yearTo":480,"war":"Anglo-Saxon settlement of England"}},{"type":"Feature","geometry":{"type":"Point","coordinates":[-5.58,42.6]},"properties":{"name":"Battle of the Nervasos Mountains","year":419,"yearFrom":394,"yearTo":444,"war":"Suebi-Vandal War"}},{"type":"Feature","geometry":{"type":"Point","coordinates":[1.7,46.84]},"properties":{"name":"Battle of D\u00e9ols","year":469,"yearFrom":444,"yearTo":494,"war":"Gothic War of 461\u2013476"}},{"type":"Feature","geometry":{"type":"Point","coordinates":[0.33,46.58]},"properties":{"name":"Battle of Vouille","year":507,"yearFrom":482,"yearTo":532,"war":"Franco-Visigothic Wars"}},{"type":"Feature","geometry":{"type":"Point","coordinates":[40.95,37.18]},"properties":{"name":"Battle of Dara","year":530,"yearFrom":505,"yearTo":555,"war":"Iberian War"}},{"type":"Feature","geometry":{"type":"Point","coordinates":[-2.36,51.38]},"properties":{"name":"Battle of Badon","year":500,"yearFrom":475,"yearTo":525,"war":"Anglo-Saxon settlement of England"}},{"type":"Feature","geometry":{"type":"Point","coordinates":[12.78,43.23]},"properties":{"name":"Battle of Taginae","year":552,"yearFrom":527,"yearTo":577,"war":"Gothic War of 535\u2013554"}},{"type":"Feature","geometry":{"type":"Point","coordinates":[10.33,36.75]},"properties":{"name":"Battle of Ad Decimum","year":533,"yearFrom":508,"yearTo":558,"war":"Vandalic War"}},{"type":"Feature","geometry":{"type":"Point","coordinates":[14.5,40.65]},"properties":{"name":"Battle of Mons Lactarius","year":552,"yearFrom":527,"yearTo":577,"war":"Gothic War of 535\u2013554"}},{"type":"Feature","geometry":{"type":"Point","coordinates":[10.32,36.85]},"properties":{"name":"Battle of Tricamarum","year":533,"yearFrom":508,"yearTo":558,"war":"Vandalic War"}},{"type":"Feature","geometry":{"type":"Point","coordinates":[39.02,35.95]},"properties":{"name":"Battle of Callinicum","year":531,"yearFrom":506,"yearTo":556,"war":"Iberian War"}},{"type":"Feature","geometry":{"type":"Point","coordinates":[12.51,41.89]},"properties":{"name":"Sack of Rome","year":546,"yearFrom":521,"yearTo":571,"war":"Gothic War of 535\u2013554"}},{"type":"Feature","geometry":{"type":"Point","coordinates":[-2.37,51.49]},"properties":{"name":"Battle of Deorham","year":577,"yearFrom":552,"yearTo":602,"war":"Anglo-Saxon settlement of England"}},{"type":"Feature","geometry":{"type":"Point","coordinates":[5.5,45.33]},"properties":{"name":"Battle of V\u00e9zeronce","year":524,"yearFrom":499,"yearTo":549,"war":"Burgundy War"}},{"type":"Feature","geometry":{"type":"Point","coordinates":[39.6,40.05]},"properties":{"name":"Battle of Satala","year":530,"yearFrom":505,"yearTo":555,"war":"Iberian War"}},{"type":"Feature","geometry":{"type":"Point","coordinates":[11.88,44.29]},"properties":{"name":"Battle of Faventia","year":542,"yearFrom":517,"yearTo":567,"war":"Gothic War of 535\u2013554"}},{"type":"Feature","geometry":{"type":"Point","coordinates":[64.43,39.77]},"properties":{"name":"Battle of Gol-Zarriun","year":560,"yearFrom":535,"yearTo":585,"war":"Hephthalite\u2013Sasanian Wars"}},{"type":"Feature","geometry":{"type":"Point","coordinates":[46.19,37.01]},"properties":{"name":"Battle of the Blarathon","year":591,"yearFrom":566,"yearTo":616,"war":"Byzantine\u2013Sassanid War of 572\u2013591"}},{"type":"Feature","geometry":{"type":"Point","coordinates":[38.77,23.73]},"properties":{"name":"Battle of Badr","year":624,"yearFrom":599,"yearTo":649,"war":"Muslim\u2013Quraysh War"}},{"type":"Feature","geometry":{"type":"Point","coordinates":[39.61,24.5]},"properties":{"name":"Battle of Uhud","year":625,"yearFrom":600,"yearTo":650,"war":"Muslim\u2013Quraysh War"}},{"type":"Feature","geometry":{"type":"Point","coordinates":[44.03,32.62]},"properties":{"name":"Battle of Karbala","year":680,"yearFrom":655,"yearTo":705,"war":"Second Fitna"}},{"type":"Feature","geometry":{"type":"Point","coordinates":[39.6,24.47]},"properties":{"name":"Battle of the Trench","year":627,"yearFrom":602,"yearTo":652,"war":"Muslim\u2013Quraysh War"}},{"type":"Feature","geometry":{"type":"Point","coordinates":[35.7,31.03]},"properties":{"name":"Battle of Mu'tah","year":629,"yearFrom":604,"yearTo":654,"war":"Arab\u2013Byzantine wars"}},{"type":"Feature","geometry":{"type":"Point","coordinates":[47.82,30.5]},"properties":{"name":"Battle of the Camel","year":656,"yearFrom":631,"yearTo":681,"war":"First Fitna"}},{"type":"Feature","geometry":{"type":"Point","coordinates":[39.29,25.7]},"properties":{"name":"Battle of Khaybar","year":628,"yearFrom":603,"yearTo":653,"war":"battles of Muhammad"}},{"type":"Feature","geometry":{"type":"Point","coordinates":[40.04,21.52]},"properties":{"name":"Battle of Hunayn","year":630,"yearFrom":605,"yearTo":655,"war":"battles of Muhammad"}},{"type":"Feature","geometry":{"type":"Point","coordinates":[43.15,36.36]},"properties":{"name":"Battle of Nineveh","year":627,"yearFrom":602,"yearTo":652,"war":"Byzantine\u2013Sassanid War of 602\u2013628"}},{"type":"Feature","geometry":{"type":"Point","coordinates":[44.5,31.58]},"properties":{"name":"Battle of Nah\u0101vand","year":642,"yearFrom":617,"yearTo":667,"war":"Muslim conquest of Persia"}},{"type":"Feature","geometry":{"type":"Point","coordinates":[34.95,31.68]},"properties":{"name":"Battle of Ajnadayn","year":634,"yearFrom":609,"yearTo":659,"war":"Muslim conquest of the Levant"}},{"type":"Feature","geometry":{"type":"Point","coordinates":[36.29,33.51]},"properties":{"name":"Siege of Damascus","year":634,"yearFrom":609,"yearTo":659,"war":"Muslim conquest of the Levant"}},{"type":"Feature","geometry":{"type":"Point","coordinates":[0.53,46.99]},"properties":{"name":"Battle of Tours","year":732,"yearFrom":707,"yearTo":757,"war":"Umayyad invasion of Gaul"}},{"type":"Feature","geometry":{"type":"Point","coordinates":[-4.98,43.27]},"properties":{"name":"Battle of Covadonga","year":718,"yearFrom":693,"yearTo":743,"war":"Reconquista"}},{"type":"Feature","geometry":{"type":"Point","coordinates":[-6.22,36.6]},"properties":{"name":"Battle of Guadalete","year":711,"yearFrom":686,"yearTo":736,"war":"Umayyad conquest of Hispania"}},{"type":"Feature","geometry":{"type":"Point","coordinates":[-1.33,42.99]},"properties":{"name":"Battle of Roncevaux Pass","year":778,"yearFrom":753,"yearTo":803,"war":"Expedition of Charlemagne of 778"}},{"type":"Feature","geometry":{"type":"Point","coordinates":[43.34,35.99]},"properties":{"name":"Battle of the Zab","year":750,"yearFrom":725,"yearTo":775,"war":"Abbasid Revolution"}},{"type":"Feature","geometry":{"type":"Point","coordinates":[1.45,43.6]},"properties":{"name":"Battle of Toulouse","year":721,"yearFrom":696,"yearTo":746,"war":"Umayyad invasion of Gaul"}},{"type":"Feature","geometry":{"type":"Point","coordinates":[30.53,38.75]},"properties":{"name":"Battle of Akroinon","year":740,"yearFrom":715,"yearTo":765,"war":"Arab\u2013Byzantine wars"}},{"type":"Feature","geometry":{"type":"Point","coordinates":[27.65,42.55]},"properties":{"name":"Battle of Anchialus","year":708,"yearFrom":683,"yearTo":733,"war":"Byzantine\u2013Bulgarian Wars"}},{"type":"Feature","geometry":{"type":"Point","coordinates":[-6.42,43.33]},"properties":{"name":"Battle of Lutos","year":794,"yearFrom":769,"yearTo":819,"war":"Reconquista"}},{"type":"Feature","geometry":{"type":"Point","coordinates":[27.65,42.55]},"properties":{"name":"Battle of Anchialus","year":763,"yearFrom":738,"yearTo":788,"war":"Byzantine\u2013Bulgarian Wars"}},{"type":"Feature","geometry":{"type":"Point","coordinates":[-6.65,42.72]},"properties":{"name":"Battle of the Burbia River","year":791,"yearFrom":766,"yearTo":816,"war":"Reconquista"}},{"type":"Feature","geometry":{"type":"Point","coordinates":[5.79,53.08]},"properties":{"name":"Battle of the Boarn","year":734,"yearFrom":709,"yearTo":759,"war":"Frisian\u2013Frankish wars"}},{"type":"Feature","geometry":{"type":"Point","coordinates":[26.94,42.94]},"properties":{"name":"Battle of the Rishki Pass","year":759,"yearFrom":734,"yearTo":784,"war":"Byzantine\u2013Bulgarian Wars"}},{"type":"Feature","geometry":{"type":"Point","coordinates":[34.87,37.43]},"properties":{"name":"Battle of Kopidnadon","year":788,"yearFrom":763,"yearTo":813,"war":"Arab\u2013Byzantine wars"}},{"type":"Feature","geometry":{"type":"Point","coordinates":[26.67,42.93]},"properties":{"name":"Battle of Pliska","year":811,"yearFrom":786,"yearTo":836,"war":"Byzantine\u2013Bulgarian Wars"}},{"type":"Feature","geometry":{"type":"Point","coordinates":[-2.24,51.44]},"properties":{"name":"Battle of Edington","year":878,"yearFrom":853,"yearTo":903,"war":"Viking activity in the British Isles"}},{"type":"Feature","geometry":{"type":"Point","coordinates":[27.1,41.43]},"properties":{"name":"Battle of Boulgarophygon","year":896,"yearFrom":871,"yearTo":921,"war":"Byzantine\u2013Bulgarian Wars"}},{"type":"Feature","geometry":{"type":"Point","coordinates":[26.57,41.67]},"properties":{"name":"Battle of Versinikia","year":813,"yearFrom":788,"yearTo":838,"war":"Byzantine\u2013Bulgarian Wars"}},{"type":"Feature","geometry":{"type":"Point","coordinates":[3.3,47.65]},"properties":{"name":"Battle of Fontenoy","year":841,"yearFrom":816,"yearTo":866,"war":"Civil War between the sons of Louis the Pious"}},{"type":"Feature","geometry":{"type":"Point","coordinates":[36.09,40.39]},"properties":{"name":"Battle of Anzen","year":838,"yearFrom":813,"yearTo":863,"war":"Arab\u2013Byzantine wars"}},{"type":"Feature","geometry":{"type":"Point","coordinates":[-0.96,51.46]},"properties":{"name":"Battle of Reading","year":871,"yearFrom":846,"yearTo":896,"war":"Viking activity in the British Isles"}},{"type":"Feature","geometry":{"type":"Point","coordinates":[-3.1,42.63]},"properties":{"name":"Battle of Pancorbo","year":816,"yearFrom":791,"yearTo":841,"war":"Reconquista"}},{"type":"Feature","geometry":{"type":"Point","coordinates":[-1.23,51.53]},"properties":{"name":"Battle of Ashdown","year":871,"yearFrom":846,"yearTo":896,"war":"Viking activity in the British Isles"}},{"type":"Feature","geometry":{"type":"Point","coordinates":[-3.87,39.8]},"properties":{"name":"Battle of Guadalacete","year":852,"yearFrom":827,"yearTo":877,"war":"Reconquista"}},{"type":"Feature","geometry":{"type":"Point","coordinates":[-1.1,51.44]},"properties":{"name":"Battle of Englefield","year":871,"yearFrom":846,"yearTo":896,"war":"Viking activity in the British Isles"}},{"type":"Feature","geometry":{"type":"Point","coordinates":[-2.7,42.58]},"properties":{"name":"Battle of Monte Laturce","year":859,"yearFrom":834,"yearTo":884,"war":"Reconquista"}},{"type":"Feature","geometry":{"type":"Point","coordinates":[26.56,41.68]},"properties":{"name":"Siege of Adrianople (813)","year":813,"yearFrom":788,"yearTo":838,"war":"Byzantine\u2013Bulgarian Wars"}},{"type":"Feature","geometry":{"type":"Point","coordinates":[10.92,48.35]},"properties":{"name":"Battle of Lechfeld","year":955,"yearFrom":930,"yearTo":980,"war":"Hungarian invasions of Europe"}},{"type":"Feature","geometry":{"type":"Point","coordinates":[-2.26,53.8]},"properties":{"name":"Battle of Brunanburh","year":937,"yearFrom":912,"yearTo":962,"war":"Viking activity in the British Isles"}},{"type":"Feature","geometry":{"type":"Point","coordinates":[27.64,42.64]},"properties":{"name":"Battle of Achelous","year":917,"yearFrom":892,"yearTo":942,"war":"Byzantine\u2013Bulgarian War of 913\u2013927"}},{"type":"Feature","geometry":{"type":"Point","coordinates":[0.7,51.72]},"properties":{"name":"Battle of Maldon","year":991,"yearFrom":966,"yearTo":1016,"war":"Viking activity in the British Isles"}},{"type":"Feature","geometry":{"type":"Point","coordinates":[23.92,42.36]},"properties":{"name":"Battle of the Gates of Trajan","year":986,"yearFrom":961,"yearTo":1011,"war":"Byzantine conquest of Bulgaria"}},{"type":"Feature","geometry":{"type":"Point","coordinates":[-4.82,41.6]},"properties":{"name":"Battle of Simancas","year":939,"yearFrom":914,"yearTo":964,"war":"Reconquista"}},{"type":"Feature","geometry":{"type":"Point","coordinates":[27.35,41.4]},"properties":{"name":"Battle of Arcadiopolis","year":970,"yearFrom":945,"yearTo":995,"war":"Hungarian invasions of Europe"}},{"type":"Feature","geometry":{"type":"Point","coordinates":[17.2,39.03]},"properties":{"name":"Battle of Stilo","year":982,"yearFrom":957,"yearTo":1007,"war":"Muslim invasions of Italy"}},{"type":"Feature","geometry":{"type":"Point","coordinates":[27.26,44.12]},"properties":{"name":"Siege of Dorostolon","year":971,"yearFrom":946,"yearTo":996,"war":"Sviatoslav's invasion of Bulgaria"}},{"type":"Feature","geometry":{"type":"Point","coordinates":[28.98,41.01]},"properties":{"name":"Battle of Pegae","year":921,"yearFrom":896,"yearTo":946,"war":"Byzantine\u2013Bulgarian War of 913\u2013927"}},{"type":"Feature","geometry":{"type":"Point","coordinates":[36.58,35.25]},"properties":{"name":"Battle of the Orontes","year":994,"yearFrom":969,"yearTo":1019,"war":"Arab\u2013Byzantine wars"}},{"type":"Feature","geometry":{"type":"Point","coordinates":[36.16,36.58]},"properties":{"name":"Battle of Alexandretta","year":971,"yearFrom":946,"yearTo":996,"war":"Arab\u2013Byzantine wars"}},{"type":"Feature","geometry":{"type":"Point","coordinates":[28.89,41.03]},"properties":{"name":"Battle of Katasyrtai","year":917,"yearFrom":892,"yearTo":942,"war":"Byzantine\u2013Bulgarian War of 913\u2013927"}},{"type":"Feature","geometry":{"type":"Point","coordinates":[-2.13,52.58]},"properties":{"name":"Battle of Tettenhall","year":910,"yearFrom":885,"yearTo":935,"war":"Viking activity in the British Isles"}},{"type":"Feature","geometry":{"type":"Point","coordinates":[0.49,50.91]},"properties":{"name":"Battle of Hastings","year":1066,"yearFrom":1041,"yearTo":1091,"war":"Norman conquest of England"}},{"type":"Feature","geometry":{"type":"Point","coordinates":[42.54,39.14]},"properties":{"name":"Battle of Manzikert","year":1071,"yearFrom":1046,"yearTo":1096,"war":"Byzantine\u2013Seljuq Wars"}},{"type":"Feature","geometry":{"type":"Point","coordinates":[-0.91,53.99]},"properties":{"name":"Battle of Stamford Bridge","year":1066,"yearFrom":1041,"yearTo":1091,"war":"Viking activity in the British Isles"}},{"type":"Feature","geometry":{"type":"Point","coordinates":[-6.9,38.92]},"properties":{"name":"Battle of Sagrajas","year":1086,"yearFrom":1061,"yearTo":1111,"war":"Almoravid conquest of al-Andalus"}},{"type":"Feature","geometry":{"type":"Point","coordinates":[30.52,39.78]},"properties":{"name":"Battle of Dorylaeum","year":1097,"yearFrom":1072,"yearTo":1122,"war":"First Crusade"}},{"type":"Feature","geometry":{"type":"Point","coordinates":[23.02,41.37]},"properties":{"name":"Battle of Kleidion","year":1014,"yearFrom":989,"yearTo":1039,"war":"Byzantine conquest of Bulgaria"}},{"type":"Feature","geometry":{"type":"Point","coordinates":[-1.07,53.93]},"properties":{"name":"Battle of Fulford","year":1066,"yearFrom":1041,"yearTo":1091,"war":"Viking activity in the British Isles"}},{"type":"Feature","geometry":{"type":"Point","coordinates":[19.5,41.3]},"properties":{"name":"Battle of Dyrrhachium","year":1081,"yearFrom":1056,"yearTo":1106,"war":"Byzantine\u2013Norman Wars"}},{"type":"Feature","geometry":{"type":"Point","coordinates":[61.35,37.39]},"properties":{"name":"Battle of Dandanaqan","year":1040,"yearFrom":1015,"yearTo":1065,"war":"Seljuk\u2013Ghaznavid Wars"}},{"type":"Feature","geometry":{"type":"Point","coordinates":[15.27,41.73]},"properties":{"name":"Battle of Civitate","year":1053,"yearFrom":1028,"yearTo":1078,"war":"Norman conquest of southern Italy"}},{"type":"Feature","geometry":{"type":"Point","coordinates":[16.15,41.3]},"properties":{"name":"Battle of Cannae (1018)","year":1018,"yearFrom":993,"yearTo":1043,"war":"Norman conquest of southern Italy"}},{"type":"Feature","geometry":{"type":"Point","coordinates":[29.16,40.43]},"properties":{"name":"Battle of Civetot","year":1096,"yearFrom":1071,"yearTo":1121,"war":"People's Crusade"}},{"type":"Feature","geometry":{"type":"Point","coordinates":[0.69,51.6]},"properties":{"name":"Battle of Assandun","year":1016,"yearFrom":991,"yearTo":1041,"war":"Viking activity in the British Isles"}},{"type":"Feature","geometry":{"type":"Point","coordinates":[41.68,39.98]},"properties":{"name":"Battle of Kapetron","year":1048,"yearFrom":1023,"yearTo":1073,"war":"Byzantine\u2013Seljuq Wars"}},{"type":"Feature","geometry":{"type":"Point","coordinates":[-0.5,42.09]},"properties":{"name":"Battle of Alcoraz","year":1096,"yearFrom":1071,"yearTo":1121,"war":"Reconquista"}},{"type":"Feature","geometry":{"type":"Point","coordinates":[34.92,31.86]},"properties":{"name":"Battle of Montgisard","year":1177,"yearFrom":1152,"yearTo":1202,"war":"Crusader battles between 1149 and 1189"}},{"type":"Feature","geometry":{"type":"Point","coordinates":[34.81,32.19]},"properties":{"name":"Battle of Arsuf","year":1191,"yearFrom":1166,"yearTo":1216,"war":"Third Crusade"}},{"type":"Feature","geometry":{"type":"Point","coordinates":[8.91,45.6]},"properties":{"name":"Battle of Legnano","year":1176,"yearFrom":1151,"yearTo":1201,"war":"Guelphs and Ghibellines"}},{"type":"Feature","geometry":{"type":"Point","coordinates":[31.95,37.91]},"properties":{"name":"Battle of Myriokephalon","year":1176,"yearFrom":1151,"yearTo":1201,"war":"Byzantine\u2013Seljuq Wars"}},{"type":"Feature","geometry":{"type":"Point","coordinates":[39.03,36.87]},"properties":{"name":"Battle of Harran","year":1104,"yearFrom":1079,"yearTo":1129,"war":"Crusader battles between 1101 and 1145"}},{"type":"Feature","geometry":{"type":"Point","coordinates":[44.52,41.68]},"properties":{"name":"Battle of Didgori","year":1121,"yearFrom":1096,"yearTo":1146,"war":"Georgian\u2013Seljuk wars"}},{"type":"Feature","geometry":{"type":"Point","coordinates":[36.72,36.18]},"properties":{"name":"Battle of Ager Sanguinis","year":1119,"yearFrom":1094,"yearTo":1144,"war":"Crusader battles between 1101 and 1145"}},{"type":"Feature","geometry":{"type":"Point","coordinates":[-8.76,39.17]},"properties":{"name":"Battle of Ourique","year":1139,"yearFrom":1114,"yearTo":1164,"war":"Almoravid conquest of al-Andalus"}},{"type":"Feature","geometry":{"type":"Point","coordinates":[36.3,33.51]},"properties":{"name":"Siege of Damascus","year":1148,"yearFrom":1123,"yearTo":1173,"war":"Second Crusade"}},{"type":"Feature","geometry":{"type":"Point","coordinates":[-4.0,38.95]},"properties":{"name":"Battle of Alarcos","year":1195,"yearFrom":1170,"yearTo":1220,"war":"Q129213041"}},{"type":"Feature","geometry":{"type":"Point","coordinates":[34.75,32.05]},"properties":{"name":"Battle of Jaffa","year":1192,"yearFrom":1167,"yearTo":1217,"war":"Third Crusade"}},{"type":"Feature","geometry":{"type":"Point","coordinates":[35.59,33.36]},"properties":{"name":"Battle of Marj Ayyun","year":1179,"yearFrom":1154,"yearTo":1204,"war":"Crusader battles between 1149 and 1189"}},{"type":"Feature","geometry":{"type":"Point","coordinates":[36.72,36.18]},"properties":{"name":"Battle of Azaz","year":1125,"yearFrom":1100,"yearTo":1150,"war":"Crusader battles between 1101 and 1145"}},{"type":"Feature","geometry":{"type":"Point","coordinates":[35.35,32.74]},"properties":{"name":"Battle of Cresson","year":1187,"yearFrom":1162,"yearTo":1212,"war":"Crusader battles between 1149 and 1189"}},{"type":"Feature","geometry":{"type":"Point","coordinates":[35.36,32.55]},"properties":{"name":"Battle of Ain Jalut","year":1260,"yearFrom":1235,"yearTo":1285,"war":"Mongol invasions of the Levant"}},{"type":"Feature","geometry":{"type":"Point","coordinates":[37.5,47.25]},"properties":{"name":"Battle of the Kalka River","year":1223,"yearFrom":1198,"yearTo":1248,"war":"Mongol invasions and conquests"}},{"type":"Feature","geometry":{"type":"Point","coordinates":[27.5,58.23]},"properties":{"name":"Battle of the Ice","year":1242,"yearFrom":1217,"yearTo":1267,"war":"Northern Crusades"}},{"type":"Feature","geometry":{"type":"Point","coordinates":[-3.55,38.34]},"properties":{"name":"Battle of Las Navas de Tolosa","year":1212,"yearFrom":1187,"yearTo":1237,"war":"Q129213041"}},{"type":"Feature","geometry":{"type":"Point","coordinates":[-3.94,56.13]},"properties":{"name":"Battle of Stirling Bridge","year":1297,"yearFrom":1272,"yearTo":1322,"war":"Wars of Scottish Independence"}},{"type":"Feature","geometry":{"type":"Point","coordinates":[-3.76,55.99]},"properties":{"name":"Battle of Falkirk","year":1298,"yearFrom":1273,"yearTo":1323,"war":"Wars of Scottish Independence"}},{"type":"Feature","geometry":{"type":"Point","coordinates":[16.22,51.15]},"properties":{"name":"Battle of Legnica","year":1241,"yearFrom":1216,"yearTo":1266,"war":"Mongol invasions and conquests"}},{"type":"Feature","geometry":{"type":"Point","coordinates":[30.6,59.81]},"properties":{"name":"Battle of the Neva","year":1240,"yearFrom":1215,"yearTo":1265,"war":"Swedish\u2013Novgorodian Wars"}},{"type":"Feature","geometry":{"type":"Point","coordinates":[20.91,47.98]},"properties":{"name":"Battle of Mohi","year":1241,"yearFrom":1216,"yearTo":1266,"war":"Mongol invasions and conquests"}},{"type":"Feature","geometry":{"type":"Point","coordinates":[3.23,50.58]},"properties":{"name":"Battle of Bouvines","year":1214,"yearFrom":1189,"yearTo":1239,"war":"Anglo-French War of 1213\u201314"}},{"type":"Feature","geometry":{"type":"Point","coordinates":[23.51,56.12]},"properties":{"name":"Battle of Saule","year":1236,"yearFrom":1211,"yearTo":1261,"war":"Livonian Crusade"}},{"type":"Feature","geometry":{"type":"Point","coordinates":[113.08,22.27]},"properties":{"name":"Battle of Yamen","year":1279,"yearFrom":1254,"yearTo":1304,"war":"Mongol conquest of the Song dynasty"}},{"type":"Feature","geometry":{"type":"Point","coordinates":[39.59,40.28]},"properties":{"name":"Battle of K\u00f6se Da\u011f","year":1243,"yearFrom":1218,"yearTo":1268,"war":"Mongol conquest of Anatolia"}},{"type":"Feature","geometry":{"type":"Point","coordinates":[14.77,41.13]},"properties":{"name":"Battle of Benevento","year":1266,"yearFrom":1241,"yearTo":1291,"war":"Crusade against the Hohenstaufen"}},{"type":"Feature","geometry":{"type":"Point","coordinates":[21.12,42.63]},"properties":{"name":"Battle of Kosovo","year":1389,"yearFrom":1364,"yearTo":1414,"war":"Ottoman Wars in Europe"}},{"type":"Feature","geometry":{"type":"Point","coordinates":[0.4,46.52]},"properties":{"name":"Battle of Poitiers","year":1356,"yearFrom":1331,"yearTo":1381,"war":"Hundred Years' War"}},{"type":"Feature","geometry":{"type":"Point","coordinates":[38.65,53.65]},"properties":{"name":"Battle of Kulikovo","year":1380,"yearFrom":1355,"yearTo":1405,"war":"Mongol invasion of Kievan Rus'"}},{"type":"Feature","geometry":{"type":"Point","coordinates":[1.89,50.26]},"properties":{"name":"Battle of Cr\u00e9cy","year":1346,"yearFrom":1321,"yearTo":1371,"war":"Hundred Years' War"}},{"type":"Feature","geometry":{"type":"Point","coordinates":[24.9,43.71]},"properties":{"name":"Battle of Nicopolis","year":1396,"yearFrom":1371,"yearTo":1421,"war":"Ottoman Wars in Europe"}},{"type":"Feature","geometry":{"type":"Point","coordinates":[3.28,50.83]},"properties":{"name":"Battle of the Golden Spurs","year":1302,"yearFrom":1277,"yearTo":1327,"war":"Franco-Flemish War"}},{"type":"Feature","geometry":{"type":"Point","coordinates":[26.04,40.73]},"properties":{"name":"Battle of Maritsa","year":1371,"yearFrom":1346,"yearTo":1396,"war":"Serbian\u2013Ottoman Wars"}},{"type":"Feature","geometry":{"type":"Point","coordinates":[-8.84,39.64]},"properties":{"name":"Battle of Aljubarrota","year":1385,"yearFrom":1360,"yearTo":1410,"war":"1383\u20131385 Portuguese Interregnum"}},{"type":"Feature","geometry":{"type":"Point","coordinates":[8.63,47.09]},"properties":{"name":"Battle of Morgarten","year":1315,"yearFrom":1290,"yearTo":1340,"war":"War between Switzerland and the House of Habsburg"}},{"type":"Feature","geometry":{"type":"Point","coordinates":[-2.98,47.67]},"properties":{"name":"Battle of Auray","year":1364,"yearFrom":1339,"yearTo":1389,"war":"War of the Breton Succession"}},{"type":"Feature","geometry":{"type":"Point","coordinates":[34.12,48.9]},"properties":{"name":"Battle of the Vorskla River","year":1399,"yearFrom":1374,"yearTo":1424,"war":"Military conflicts between the Grand Duchy of Lithuania and the Golden Horde"}},{"type":"Feature","geometry":{"type":"Point","coordinates":[29.15,41.01]},"properties":{"name":"Battle of Pelekanon","year":1329,"yearFrom":1304,"yearTo":1354,"war":"Byzantine\u2013Ottoman wars"}},{"type":"Feature","geometry":{"type":"Point","coordinates":[20.12,53.49]},"properties":{"name":"Battle of Grunwald","year":1410,"yearFrom":1385,"yearTo":1435,"war":"Polish-Lithuanian-Teutonic War"}},{"type":"Feature","geometry":{"type":"Point","coordinates":[2.14,50.46]},"properties":{"name":"Battle of Agincourt","year":1415,"yearFrom":1390,"yearTo":1440,"war":"Hundred Years' War"}},{"type":"Feature","geometry":{"type":"Point","coordinates":[32.95,40.15]},"properties":{"name":"Battle of Ankara","year":1402,"yearFrom":1377,"yearTo":1427,"war":"Timurid invasion of the Ottoman Empire"}},{"type":"Feature","geometry":{"type":"Point","coordinates":[27.88,43.22]},"properties":{"name":"Battle of Varna","year":1444,"yearFrom":1419,"yearTo":1469,"war":"Crusade of Varna"}},{"type":"Feature","geometry":{"type":"Point","coordinates":[-1.41,52.59]},"properties":{"name":"Battle of Bosworth Field","year":1485,"yearFrom":1460,"yearTo":1510,"war":"Wars of the Roses"}},{"type":"Feature","geometry":{"type":"Point","coordinates":[-0.02,44.85]},"properties":{"name":"Battle of Castillon","year":1453,"yearFrom":1428,"yearTo":1478,"war":"Hundred Years' War"}},{"type":"Feature","geometry":{"type":"Point","coordinates":[-1.27,53.84]},"properties":{"name":"Battle of Towton","year":1461,"yearFrom":1436,"yearTo":1486,"war":"Wars of the Roses"}},{"type":"Feature","geometry":{"type":"Point","coordinates":[36.05,54.57]},"properties":{"name":"Great stand on the Ugra river","year":1480,"yearFrom":1455,"yearTo":1505,"war":"Mongol-Tatar yoke"}},{"type":"Feature","geometry":{"type":"Point","coordinates":[1.7,48.05]},"properties":{"name":"Battle of Patay","year":1429,"yearFrom":1404,"yearTo":1454,"war":"Hundred Years' War"}},{"type":"Feature","geometry":{"type":"Point","coordinates":[-2.16,51.99]},"properties":{"name":"Battle of Tewkesbury","year":1471,"yearFrom":1446,"yearTo":1496,"war":"Wars of the Roses"}},{"type":"Feature","geometry":{"type":"Point","coordinates":[0.34,51.75]},"properties":{"name":"First Battle of St Albans","year":1455,"yearFrom":1430,"yearTo":1480,"war":"Wars of the Roses"}},{"type":"Feature","geometry":{"type":"Point","coordinates":[15.7,44.6]},"properties":{"name":"Battle of Krbava Field","year":1493,"yearFrom":1468,"yearTo":1518,"war":"Ottoman Wars in Europe"}},{"type":"Feature","geometry":{"type":"Point","coordinates":[-0.2,51.67]},"properties":{"name":"Battle of Barnet","year":1471,"yearFrom":1446,"yearTo":1496,"war":"Wars of the Roses"}},{"type":"Feature","geometry":{"type":"Point","coordinates":[-1.49,53.68]},"properties":{"name":"Battle of Wakefield","year":1460,"yearFrom":1435,"yearTo":1485,"war":"Wars of the Roses"}},{"type":"Feature","geometry":{"type":"Point","coordinates":[-0.9,49.34]},"properties":{"name":"Battle of Formigny","year":1450,"yearFrom":1425,"yearTo":1475,"war":"Hundred Years' War"}},{"type":"Feature","geometry":{"type":"Point","coordinates":[18.65,45.94]},"properties":{"name":"Battle of Moh\u00e1cs","year":1526,"yearFrom":1501,"yearTo":1551,"war":"Hungarian\u2013Ottoman War"}},{"type":"Feature","geometry":{"type":"Point","coordinates":[76.97,29.4]},"properties":{"name":"Battle of Panipat","year":1526,"yearFrom":1501,"yearTo":1551,"war":"Mughal Empire"}},{"type":"Feature","geometry":{"type":"Point","coordinates":[44.33,39.09]},"properties":{"name":"Battle of Chaldiran","year":1514,"yearFrom":1489,"yearTo":1539,"war":"Ottoman\u2013Persian wars"}},{"type":"Feature","geometry":{"type":"Point","coordinates":[9.16,45.2]},"properties":{"name":"Battle of Pavia","year":1525,"yearFrom":1500,"yearTo":1550,"war":"Italian campaign of 1524\u20131525"}},{"type":"Feature","geometry":{"type":"Point","coordinates":[-5.9,35.02]},"properties":{"name":"Battle of Alc\u00e1cer Quibir","year":1578,"yearFrom":1553,"yearTo":1603,"war":"Moroccan\u2013Portuguese conflicts"}},{"type":"Feature","geometry":{"type":"Point","coordinates":[37.27,36.55]},"properties":{"name":"Battle of Marj Dabiq","year":1516,"yearFrom":1491,"yearTo":1541,"war":"Ottoman\u2013Mamluk War of 1516\u201317"}},{"type":"Feature","geometry":{"type":"Point","coordinates":[136.98,35.06]},"properties":{"name":"Battle of Okehazama","year":1560,"yearFrom":1535,"yearTo":1585,"war":"Three Surprise Attacks of Japan"}},{"type":"Feature","geometry":{"type":"Point","coordinates":[13.22,51.43]},"properties":{"name":"Battle of M\u00fchlberg","year":1547,"yearFrom":1522,"yearTo":1572,"war":"Schmalkaldic War"}},{"type":"Feature","geometry":{"type":"Point","coordinates":[30.38,54.5]},"properties":{"name":"Battle of Orsha","year":1514,"yearFrom":1489,"yearTo":1539,"war":"Muscovite-Lithuanian War of 1512-1522"}},{"type":"Feature","geometry":{"type":"Point","coordinates":[124.02,10.31]},"properties":{"name":"Battle of Mactan","year":1521,"yearFrom":1496,"yearTo":1546,"war":"history of the Philippines (1565\u20131898)"}},{"type":"Feature","geometry":{"type":"Point","coordinates":[-2.18,55.63]},"properties":{"name":"Battle of Flodden","year":1513,"yearFrom":1488,"yearTo":1538,"war":"War of the League of Cambrai"}},{"type":"Feature","geometry":{"type":"Point","coordinates":[137.7,34.79]},"properties":{"name":"Battle of Mikatagahara","year":1573,"yearFrom":1548,"yearTo":1598,"war":"Operation Nishikami"}},{"type":"Feature","geometry":{"type":"Point","coordinates":[76.31,16.47]},"properties":{"name":"Battle of Talikota","year":1565,"yearFrom":1540,"yearTo":1590,"war":"Muslim conquest in the Indian subcontinent"}},{"type":"Feature","geometry":{"type":"Point","coordinates":[-78.52,-7.16]},"properties":{"name":"Battle of Cajamarca","year":1532,"yearFrom":1507,"yearTo":1557,"war":"Spanish conquest of the Inca Empire"}},{"type":"Feature","geometry":{"type":"Point","coordinates":[16.34,48.23]},"properties":{"name":"Battle of Vienna","year":1683,"yearFrom":1658,"yearTo":1708,"war":"Muslim conquests"}},{"type":"Feature","geometry":{"type":"Point","coordinates":[14.32,50.08]},"properties":{"name":"Battle of White Mountain","year":1620,"yearFrom":1595,"yearTo":1645,"war":"Bohemian Revolt"}},{"type":"Feature","geometry":{"type":"Point","coordinates":[136.46,35.37]},"properties":{"name":"Battle of Sekigahara","year":1600,"yearFrom":1575,"yearTo":1625,"war":"Sekigahara Campaign"}},{"type":"Feature","geometry":{"type":"Point","coordinates":[-6.42,53.72]},"properties":{"name":"Battle of the Boyne","year":1690,"yearFrom":1665,"yearTo":1715,"war":"Williamite War in Ireland"}},{"type":"Feature","geometry":{"type":"Point","coordinates":[12.16,51.27]},"properties":{"name":"Battle of L\u00fctzen","year":1632,"yearFrom":1607,"yearTo":1657,"war":"Thirty Years' War"}},{"type":"Feature","geometry":{"type":"Point","coordinates":[20.1,45.93]},"properties":{"name":"Battle of Zenta","year":1697,"yearFrom":1672,"yearTo":1722,"war":"Great Turkish War"}},{"type":"Feature","geometry":{"type":"Point","coordinates":[12.33,51.4]},"properties":{"name":"Battle of Breitenfeld","year":1631,"yearFrom":1606,"yearTo":1656,"war":"Thirty Years' War"}},{"type":"Feature","geometry":{"type":"Point","coordinates":[18.41,45.85]},"properties":{"name":"Battle of Moh\u00e1cs","year":1687,"yearFrom":1662,"yearTo":1712,"war":"Great Turkish War"}},{"type":"Feature","geometry":{"type":"Point","coordinates":[4.53,49.92]},"properties":{"name":"Battle of Rocroi","year":1643,"yearFrom":1618,"yearTo":1668,"war":"Franco-Spanish War"}},{"type":"Feature","geometry":{"type":"Point","coordinates":[16.22,46.94]},"properties":{"name":"Battle of Saint Gotthard","year":1664,"yearFrom":1639,"yearTo":1689,"war":"Austro-Turkish War of 1663\u20131664"}},{"type":"Feature","geometry":{"type":"Point","coordinates":[-1.0,52.42]},"properties":{"name":"Battle of Naseby","year":1645,"yearFrom":1620,"yearTo":1670,"war":"English Civil War"}},{"type":"Feature","geometry":{"type":"Point","coordinates":[-2.22,52.19]},"properties":{"name":"Battle of Worcester","year":1651,"yearFrom":1626,"yearTo":1676,"war":"English Civil War"}},{"type":"Feature","geometry":{"type":"Point","coordinates":[-1.25,53.96]},"properties":{"name":"Battle of Marston Moor","year":1644,"yearFrom":1619,"yearTo":1669,"war":"English Civil War"}},{"type":"Feature","geometry":{"type":"Point","coordinates":[24.35,56.85]},"properties":{"name":"Battle of Kircholm","year":1605,"yearFrom":1580,"yearTo":1630,"war":"Polish\u2013Swedish War of 1600\u201311"}},{"type":"Feature","geometry":{"type":"Point","coordinates":[34.55,49.63]},"properties":{"name":"Battle of Poltava","year":1709,"yearFrom":1684,"yearTo":1734,"war":"Great Northern War"}},{"type":"Feature","geometry":{"type":"Point","coordinates":[-76.5,37.23]},"properties":{"name":"Siege of Yorktown","year":1781,"yearFrom":1756,"yearTo":1806,"war":"American Revolutionary War"}},{"type":"Feature","geometry":{"type":"Point","coordinates":[31.2,30.08]},"properties":{"name":"Battle of the Pyramids","year":1798,"yearFrom":1773,"yearTo":1823,"war":"Napoleonic Wars"}},{"type":"Feature","geometry":{"type":"Point","coordinates":[28.18,59.38]},"properties":{"name":"Battle of Narva","year":1700,"yearFrom":1675,"yearTo":1725,"war":"Great Northern War"}},{"type":"Feature","geometry":{"type":"Point","coordinates":[10.6,48.65]},"properties":{"name":"Battle of Blenheim","year":1704,"yearFrom":1679,"yearTo":1729,"war":"War of the Spanish Succession"}},{"type":"Feature","geometry":{"type":"Point","coordinates":[-4.09,57.48]},"properties":{"name":"Battle of Culloden","year":1746,"yearFrom":1721,"yearTo":1771,"war":"Jacobite risings"}},{"type":"Feature","geometry":{"type":"Point","coordinates":[4.77,49.08]},"properties":{"name":"Battle of Valmy","year":1792,"yearFrom":1767,"yearTo":1817,"war":"War of the First Coalition"}},{"type":"Feature","geometry":{"type":"Point","coordinates":[-71.23,42.45]},"properties":{"name":"Battles of Lexington and Concord","year":1775,"yearFrom":1750,"yearTo":1800,"war":"American Revolutionary War"}},{"type":"Feature","geometry":{"type":"Point","coordinates":[-71.06,42.38]},"properties":{"name":"Battle of Bunker Hill","year":1775,"yearFrom":1750,"yearTo":1800,"war":"American Revolutionary War"}},{"type":"Feature","geometry":{"type":"Point","coordinates":[-73.64,43.0]},"properties":{"name":"Battles of Saratoga","year":1777,"yearFrom":1752,"yearTo":1802,"war":"American Revolutionary War"}},{"type":"Feature","geometry":{"type":"Point","coordinates":[-73.98,40.66]},"properties":{"name":"Battle of Long Island","year":1776,"yearFrom":1751,"yearTo":1801,"war":"American Revolutionary War"}},{"type":"Feature","geometry":{"type":"Point","coordinates":[-74.76,40.23]},"properties":{"name":"Battle of Trenton","year":1776,"yearFrom":1751,"yearTo":1801,"war":"American Revolutionary War"}},{"type":"Feature","geometry":{"type":"Point","coordinates":[83.98,25.57]},"properties":{"name":"Battle of Buxar","year":1764,"yearFrom":1739,"yearTo":1789,"war":"Bengal War"}},{"type":"Feature","geometry":{"type":"Point","coordinates":[4.41,50.68]},"properties":{"name":"Battle of Waterloo","year":1815,"yearFrom":1790,"yearTo":1840,"war":"Waterloo Campaign"}},{"type":"Feature","geometry":{"type":"Point","coordinates":[16.76,49.13]},"properties":{"name":"Battle of Austerlitz","year":1805,"yearFrom":1780,"yearTo":1830,"war":"War of the Third Coalition"}},{"type":"Feature","geometry":{"type":"Point","coordinates":[35.82,55.52]},"properties":{"name":"Battle of Borodino","year":1812,"yearFrom":1787,"yearTo":1837,"war":"French invasion of Russia"}},{"type":"Feature","geometry":{"type":"Point","coordinates":[11.57,50.95]},"properties":{"name":"Battle of Jena\u2013Auerstedt","year":1806,"yearFrom":1781,"yearTo":1831,"war":"Napoleonic Wars"}},{"type":"Feature","geometry":{"type":"Point","coordinates":[-107.43,45.56]},"properties":{"name":"Battle of the Little Bighorn","year":1876,"yearFrom":1851,"yearTo":1901,"war":"Great Sioux War of 1876"}},{"type":"Feature","geometry":{"type":"Point","coordinates":[8.68,44.88]},"properties":{"name":"Battle of Marengo","year":1800,"yearFrom":1775,"yearTo":1825,"war":"Napoleonic Wars"}},{"type":"Feature","geometry":{"type":"Point","coordinates":[38.97,14.02]},"properties":{"name":"Battle of Adwa","year":1896,"yearFrom":1871,"yearTo":1921,"war":"First Italo-Ethiopian War"}},{"type":"Feature","geometry":{"type":"Point","coordinates":[21.02,54.45]},"properties":{"name":"Battle of Friedland","year":1807,"yearFrom":1782,"yearTo":1832,"war":"Napoleonic Wars"}},{"type":"Feature","geometry":{"type":"Point","coordinates":[10.57,45.37]},"properties":{"name":"Battle of Solferino","year":1859,"yearFrom":1834,"yearTo":1884,"war":"Second Italian War of Independence"}},{"type":"Feature","geometry":{"type":"Point","coordinates":[-79.87,32.75]},"properties":{"name":"Battle of Fort Sumter","year":1861,"yearFrom":1836,"yearTo":1886,"war":"American Civil War"}},{"type":"Feature","geometry":{"type":"Point","coordinates":[33.57,44.57]},"properties":{"name":"Battle of Balaclava","year":1854,"yearFrom":1829,"yearTo":1879,"war":"Crimean War"}},{"type":"Feature","geometry":{"type":"Point","coordinates":[-77.74,39.47]},"properties":{"name":"Battle of Antietam","year":1862,"yearFrom":1837,"yearTo":1887,"war":"American Civil War"}},{"type":"Feature","geometry":{"type":"Point","coordinates":[-157.95,21.36]},"properties":{"name":"Attack on Pearl Harbor","year":1941,"yearFrom":1916,"yearTo":1966,"war":"South-East Asian theater of World War II"}},{"type":"Feature","geometry":{"type":"Point","coordinates":[36.1,51.7]},"properties":{"name":"Battle of Kursk","year":1943,"yearFrom":1918,"yearTo":1968,"war":"World War II"}},{"type":"Feature","geometry":{"type":"Point","coordinates":[37.63,55.75]},"properties":{"name":"Battle of Moscow","year":1941,"yearFrom":1916,"yearTo":1966,"war":"Eastern Front"}},{"type":"Feature","geometry":{"type":"Point","coordinates":[128.0,26.5]},"properties":{"name":"Battle of Okinawa","year":1945,"yearFrom":1920,"yearTo":1970,"war":"World War II"}},{"type":"Feature","geometry":{"type":"Point","coordinates":[49.85,40.37]},"properties":{"name":"Black January","year":1990,"yearFrom":1965,"yearTo":2015,"war":"dissolution of the Soviet Union"}},{"type":"Feature","geometry":{"type":"Point","coordinates":[20.82,52.3]},"properties":{"name":"Battle of Warsaw","year":1920,"yearFrom":1895,"yearTo":1945,"war":"Polish\u2013Soviet War"}},{"type":"Feature","geometry":{"type":"Point","coordinates":[1.08,49.93]},"properties":{"name":"Dieppe Raid","year":1942,"yearFrom":1917,"yearTo":1967,"war":"North West Europe Campaign"}},{"type":"Feature","geometry":{"type":"Point","coordinates":[30.52,50.45]},"properties":{"name":"Battle of Kiev","year":1941,"yearFrom":1916,"yearTo":1966,"war":"Operation Barbarossa"}},{"type":"Feature","geometry":{"type":"Point","coordinates":[19.04,47.5]},"properties":{"name":"Siege of Budapest","year":1944,"yearFrom":1919,"yearTo":1969,"war":"World War II"}},{"type":"Feature","geometry":{"type":"Point","coordinates":[32.05,54.78]},"properties":{"name":"Battle of Smolensk","year":1941,"yearFrom":1916,"yearTo":1966,"war":"Operation Barbarossa"}},{"type":"Feature","geometry":{"type":"Point","coordinates":[106.7,10.78]},"properties":{"name":"Fall of Saigon","year":1975,"yearFrom":1950,"yearTo":2000,"war":"Vietnam War"}},{"type":"Feature","geometry":{"type":"Point","coordinates":[69.17,34.5]},"properties":{"name":"Fall of Kabul","year":2021,"yearFrom":1996,"yearTo":2046,"war":"War in Afghanistan (2001\u20132021)"}},{"type":"Feature","geometry":{"type":"Point","coordinates":[30.2,45.26]},"properties":{"name":"Snake Island campaign","year":2022,"yearFrom":1997,"yearTo":2047,"war":"full-scale Russo-Ukrainian war"}},{"type":"Feature","geometry":{"type":"Point","coordinates":[30.22,51.27]},"properties":{"name":"Capture of Chernobyl","year":2022,"yearFrom":1997,"yearTo":2047,"war":"full-scale Russo-Ukrainian war"}},{"type":"Feature","geometry":{"type":"Point","coordinates":[38.36,36.89]},"properties":{"name":"Siege of Koban\u00ee","year":2014,"yearFrom":1989,"yearTo":2039,"war":"Syrian Civil War"}},{"type":"Feature","geometry":{"type":"Point","coordinates":[38.48,48.95]},"properties":{"name":"Battle of Sievierodonetsk","year":2022,"yearFrom":1997,"yearTo":2047,"war":"Russo-Ukrainian war"}},{"type":"Feature","geometry":{"type":"Point","coordinates":[37.77,48.13]},"properties":{"name":"Battle of Avdiivka","year":2020,"yearFrom":1995,"yearTo":2045,"war":"eastern front of the Russian invasion of Ukraine"}},{"type":"Feature","geometry":{"type":"Point","coordinates":[124.29,8.0]},"properties":{"name":"Siege of Marawi","year":2017,"yearFrom":1992,"yearTo":2042,"war":"Moro conflict"}},{"type":"Feature","geometry":{"type":"Point","coordinates":[43.78,33.35]},"properties":{"name":"Second Battle of Fallujah","year":2004,"yearFrom":1979,"yearTo":2029,"war":"Iraq War"}},{"type":"Feature","geometry":{"type":"Point","coordinates":[37.17,36.22]},"properties":{"name":"Battle of Aleppo (2024)","year":2024,"yearFrom":1999,"yearTo":2049,"war":"2024 Syrian opposition offensives"}},{"type":"Feature","geometry":{"type":"Point","coordinates":[46.75,39.76]},"properties":{"name":"Battle of Shusha","year":2020,"yearFrom":1995,"yearTo":2045,"war":"Second Nagorno-Karabakh War"}},{"type":"Feature","geometry":{"type":"Point","coordinates":[69.18,33.37]},"properties":{"name":"Operation Anaconda","year":2002,"yearFrom":1977,"yearTo":2027,"war":"War in Afghanistan (2001\u20132021)"}}]}