{"type": "FeatureCollection", "features": [{"type": "Feature", "geometry": {"type": "MultiPolygon", "coordinates": [[[[127.0666, 37.5249], [127.0572, 37.5301], [127.0461, 37.5346], [127.0259, 37.54], [127.0211, 37.5383], [127.0175, 37.535], [127.0084, 37.5259], [127.0132, 37.5226], [127.0151, 37.5247], [127.0177, 37.5218], [127.0205, 37.5127], [127.034, 37.4844], [127.0415, 37.4854], [127.0451, 37.4771], [127.051, 37.4714], [127.0488, 37.4698], [127.0511, 37.4693], [127.0508, 37.4669], [127.0555, 37.4686], [127.067, 37.4697], [127.0769, 37.475], [127.0845, 37.4754], [127.0859, 37.4704], [127.0912, 37.467], [127.0926, 37.4617], [127.0961, 37.4609], [127.0965, 37.4565], [127.1038, 37.4599], [127.104, 37.4627], [127.1138, 37.461], [127.1201, 37.4639], [127.1228, 37.467], [127.1226, 37.4688], [127.1063, 37.4914], [127.0965, 37.4962], [127.0702, 37.5037], [127.0666, 37.5249]]]]}, "properties": {"gu": "Gangnam-gu", "gu_kr": "강남구", "conn_tier": "well-connected", "conn_mean_m": 28.9, "conn_rank": 9, "travel_ease_score": 41.0, "travel_ease_tier": "high", "area_centrality_score": 38.5, "area_centrality_tier": "high", "inbound_access_score": 65.6, "best_spots_score": 52.0, "best_spots_tier": "high", "best_spots_rank": 10}}, {"type": "Feature", "geometry": {"type": "MultiPolygon", "coordinates": [[[[126.9808, 37.5065], [126.9809, 37.5028], [126.9852, 37.4998], [126.9829, 37.4969], [126.9817, 37.4765], [126.9709, 37.4754], [126.9645, 37.4797], [126.9611, 37.4835], [126.9618, 37.4885], [126.9604, 37.4901], [126.9611, 37.4934], [126.9598, 37.4939], [126.9539, 37.491], [126.947, 37.4941], [126.9372, 37.4919], [126.9274, 37.495], [126.9242, 37.49], [126.9166, 37.4895], [126.9118, 37.4867], [126.9031, 37.485], [126.9123, 37.4963], [126.9202, 37.4982], [126.9252, 37.5123], [126.9277, 37.5157], [126.9361, 37.5163], [126.9489, 37.5197], [126.9651, 37.5127], [126.9733, 37.5071], [126.9808, 37.5065]]]]}, "properties": {"gu": "Dongjak-gu", "gu_kr": "동작구", "conn_tier": "well-connected", "conn_mean_m": 28.4, "conn_rank": 6, "travel_ease_score": 42.1, "travel_ease_tier": "high", "area_centrality_score": 48.1, "area_centrality_tier": "high", "inbound_access_score": 67.4, "best_spots_score": 57.8, "best_spots_tier": "high", "best_spots_rank": 6}}, {"type": "Feature", "geometry": {"type": "MultiPolygon", "coordinates": [[[[126.8221, 37.5407], [126.8254, 37.5417], [126.8276, 37.5477], [126.8298, 37.5477], [126.83, 37.5417], [126.8331, 37.5418], [126.8352, 37.5375], [126.8344, 37.5365], [126.8405, 37.5265], [126.864, 37.5298], [126.8638, 37.5407], [126.8621, 37.5444], [126.8642, 37.5512], [126.8726, 37.5471], [126.8808, 37.5481], [126.878, 37.5517], [126.8805, 37.5563], [126.8662, 37.563], [126.8536, 37.5718], [126.8193, 37.5928], [126.8175, 37.5954], [126.8031, 37.6046], [126.7981, 37.5993], [126.7953, 37.5983], [126.8002, 37.5922], [126.7992, 37.5906], [126.8009, 37.5885], [126.7984, 37.5876], [126.7959, 37.5849], [126.7959, 37.583], [126.7955, 37.5852], [126.7945, 37.5825], [126.7934, 37.5845], [126.7944, 37.5824], [126.7929, 37.5804], [126.7932, 37.5771], [126.7917, 37.5813], [126.7902, 37.5772], [126.7839, 37.5751], [126.7814, 37.5712], [126.7826, 37.5705], [126.7804, 37.5703], [126.7816, 37.5692], [126.7802, 37.5676], [126.7792, 37.5684], [126.7767, 37.566], [126.7755, 37.5683], [126.7748, 37.5677], [126.7751, 37.5659], [126.7778, 37.5637], [126.7766, 37.5623], [126.7783, 37.5608], [126.7779, 37.5598], [126.7753, 37.5616], [126.7718, 37.5565], [126.7658, 37.5575], [126.7665, 37.5562], [126.7645, 37.5553], [126.7664, 37.5538], [126.7676, 37.5542], [126.7675, 37.552], [126.7703, 37.5511], [126.7715, 37.5484], [126.7753, 37.549], [126.7776, 37.5467], [126.7873, 37.5461], [126.7917, 37.5437], [126.7918, 37.5418], [126.7951, 37.5413], [126.7932, 37.5396], [126.7945, 37.5357], [126.7994, 37.5377], [126.7988, 37.5402], [126.8008, 37.5408], [126.7997, 37.5414], [126.8041, 37.5432], [126.8072, 37.5435], [126.8127, 37.5407], [126.8221, 37.5407]]]]}, "properties": {"gu": "Gangseo-gu", "gu_kr": "강서구", "conn_tier": "peripheral", "conn_mean_m": 42.4, "conn_rank": 24, "travel_ease_score": 16.5, "travel_ease_tier": "very-low", "area_centrality_score": 21.5, "area_centrality_tier": "low", "inbound_access_score": 17.5, "best_spots_score": 19.5, "best_spots_tier": "very-low", "best_spots_rank": 23}}, {"type": "Feature", "geometry": {"type": "MultiPolygon", "coordinates": [[[[126.9291, 37.4502], [126.9248, 37.4528], [126.9222, 37.4566], [126.9141, 37.4579], [126.9144, 37.4616], [126.9129, 37.4641], [126.9138, 37.4653], [126.9101, 37.4687], [126.9083, 37.4727], [126.9111, 37.4738], [126.9118, 37.4768], [126.9119, 37.4778], [126.9087, 37.4791], [126.9098, 37.4809], [126.8989, 37.4789], [126.8894, 37.4795], [126.8791, 37.4863], [126.8745, 37.4853], [126.8728, 37.4863], [126.8718, 37.4852], [126.878, 37.4738], [126.8846, 37.466], [126.8827, 37.4644], [126.8845, 37.4622], [126.8871, 37.4629], [126.8889, 37.4609], [126.8851, 37.4607], [126.8863, 37.4564], [126.8892, 37.4547], [126.8896, 37.4523], [126.894, 37.4527], [126.8961, 37.448], [126.895, 37.4482], [126.8946, 37.4467], [126.8973, 37.4454], [126.8999, 37.4396], [126.899, 37.4387], [126.9028, 37.4359], [126.903, 37.4341], [126.9088, 37.4337], [126.9127, 37.439], [126.9194, 37.4408], [126.9231, 37.4463], [126.9291, 37.4502]]]]}, "properties": {"gu": "Geumcheon-gu", "gu_kr": "금천구", "conn_tier": "peripheral", "conn_mean_m": 41.8, "conn_rank": 23, "travel_ease_score": 23.5, "travel_ease_tier": "low", "area_centrality_score": 49.4, "area_centrality_tier": "very-high", "inbound_access_score": 0.0, "best_spots_score": 24.7, "best_spots_tier": "low", "best_spots_rank": 20}}, {"type": "Feature", "geometry": {"type": "MultiPolygon", "coordinates": [[[[126.8745, 37.4853], [126.8791, 37.4863], [126.8894, 37.4795], [126.8989, 37.4789], [126.9031, 37.485], [126.8968, 37.4885], [126.8933, 37.4993], [126.8935, 37.5069], [126.8916, 37.5101], [126.8795, 37.5178], [126.8773, 37.516], [126.8779, 37.5133], [126.8766, 37.5137], [126.8739, 37.5112], [126.8768, 37.5108], [126.8755, 37.5111], [126.8755, 37.5095], [126.8738, 37.5091], [126.875, 37.5077], [126.8736, 37.5036], [126.8703, 37.5058], [126.869, 37.5049], [126.8635, 37.505], [126.8626, 37.5068], [126.8641, 37.5083], [126.8603, 37.5066], [126.8583, 37.5099], [126.8556, 37.5092], [126.8529, 37.5107], [126.8462, 37.509], [126.8447, 37.5057], [126.8407, 37.506], [126.8352, 37.5029], [126.8306, 37.5064], [126.831, 37.508], [126.827, 37.5085], [126.8271, 37.5104], [126.8241, 37.5105], [126.8215, 37.51], [126.8226, 37.5056], [126.8216, 37.5021], [126.819, 37.499], [126.8163, 37.4977], [126.8143, 37.4983], [126.813, 37.4964], [126.8146, 37.4932], [126.8227, 37.49], [126.8235, 37.4878], [126.819, 37.4857], [126.8201, 37.4818], [126.8183, 37.4782], [126.815, 37.4759], [126.8155, 37.474], [126.8177, 37.4731], [126.8195, 37.4764], [126.8217, 37.4762], [126.8218, 37.4752], [126.8239, 37.4765], [126.8293, 37.4763], [126.8313, 37.4776], [126.8339, 37.4768], [126.8347, 37.4744], [126.8383, 37.4754], [126.8432, 37.4748], [126.8452, 37.4733], [126.8468, 37.4818], [126.8525, 37.4818], [126.855, 37.4851], [126.8577, 37.4858], [126.8617, 37.4903], [126.8652, 37.4916], [126.8698, 37.4957], [126.8701, 37.4897], [126.8743, 37.4913], [126.8746, 37.4898], [126.8729, 37.49], [126.8728, 37.4884], [126.8768, 37.4885], [126.8745, 37.4853]]]]}, "properties": {"gu": "Guro-gu", "gu_kr": "구로구", "conn_tier": "mid", "conn_mean_m": 32.4, "conn_rank": 12, "travel_ease_score": 33.6, "travel_ease_tier": "mid", "area_centrality_score": 44.6, "area_centrality_tier": "high", "inbound_access_score": 47.4, "best_spots_score": 46.0, "best_spots_tier": "mid", "best_spots_rank": 13}}, {"type": "Feature", "geometry": {"type": "MultiPolygon", "coordinates": [[[[126.9291, 37.4502], [126.9317, 37.4454], [126.9383, 37.4405], [126.9389, 37.4354], [126.9477, 37.4389], [126.9558, 37.439], [126.9594, 37.4408], [126.9637, 37.441], [126.9647, 37.4459], [126.9745, 37.4477], [126.9762, 37.4507], [126.981, 37.4531], [126.9823, 37.4566], [126.9885, 37.4579], [126.9874, 37.4598], [126.9881, 37.4656], [126.9838, 37.4705], [126.9817, 37.4765], [126.9709, 37.4754], [126.9645, 37.4797], [126.9611, 37.4835], [126.9618, 37.4885], [126.9604, 37.4901], [126.9611, 37.4934], [126.9598, 37.4939], [126.9539, 37.491], [126.947, 37.4941], [126.9372, 37.4919], [126.9274, 37.495], [126.9242, 37.49], [126.9166, 37.4895], [126.9118, 37.4867], [126.9031, 37.485], [126.8989, 37.4789], [126.9098, 37.4809], [126.9087, 37.4791], [126.9119, 37.4778], [126.9118, 37.4768], [126.9111, 37.4738], [126.9083, 37.4727], [126.9101, 37.4687], [126.9138, 37.4653], [126.9129, 37.4641], [126.9144, 37.4616], [126.9141, 37.4579], [126.9222, 37.4566], [126.9248, 37.4528], [126.9291, 37.4502]]]]}, "properties": {"gu": "Gwanak-gu", "gu_kr": "관악구", "conn_tier": "mid", "conn_mean_m": 36.5, "conn_rank": 16, "travel_ease_score": 28.8, "travel_ease_tier": "low", "area_centrality_score": 31.1, "area_centrality_tier": "mid", "inbound_access_score": 54.4, "best_spots_score": 42.8, "best_spots_tier": "mid", "best_spots_rank": 15}}, {"type": "Feature", "geometry": {"type": "MultiPolygon", "coordinates": [[[[126.9817, 37.4765], [126.9838, 37.4705], [126.9881, 37.4656], [126.9874, 37.4598], [126.9885, 37.4579], [126.9911, 37.4607], [126.9965, 37.4622], [126.9964, 37.4659], [126.9978, 37.4677], [127.0031, 37.4673], [127.007, 37.4593], [127.011, 37.4554], [127.0146, 37.4548], [127.0259, 37.4577], [127.0266, 37.4597], [127.0285, 37.4601], [127.0296, 37.4653], [127.0338, 37.4647], [127.0347, 37.4641], [127.034, 37.4602], [127.0374, 37.4552], [127.0356, 37.4532], [127.0376, 37.449], [127.0379, 37.4447], [127.0353, 37.4405], [127.036, 37.4391], [127.0408, 37.4384], [127.0462, 37.4335], [127.0475, 37.4306], [127.0525, 37.4285], [127.0608, 37.4302], [127.0659, 37.4291], [127.0671, 37.4303], [127.0707, 37.4302], [127.0714, 37.436], [127.0741, 37.4381], [127.072, 37.4399], [127.0716, 37.4419], [127.0823, 37.4412], [127.0842, 37.444], [127.0885, 37.4452], [127.0882, 37.449], [127.0928, 37.4539], [127.093, 37.4555], [127.0965, 37.4565], [127.0961, 37.4609], [127.0926, 37.4617], [127.0912, 37.467], [127.0859, 37.4704], [127.0845, 37.4754], [127.0769, 37.475], [127.067, 37.4697], [127.0555, 37.4686], [127.0508, 37.4669], [127.0511, 37.4693], [127.0488, 37.4698], [127.051, 37.4714], [127.0451, 37.4771], [127.0415, 37.4854], [127.034, 37.4844], [127.0205, 37.5127], [127.0177, 37.5218], [127.0151, 37.5247], [127.0132, 37.5226], [127.0084, 37.5259], [126.9854, 37.5065], [126.9808, 37.5065], [126.9809, 37.5028], [126.9852, 37.4998], [126.9829, 37.4969], [126.9817, 37.4765]]]]}, "properties": {"gu": "Seocho-gu", "gu_kr": "서초구", "conn_tier": "well-connected", "conn_mean_m": 28.2, "conn_rank": 5, "travel_ease_score": 46.1, "travel_ease_tier": "very-high", "area_centrality_score": 50.3, "area_centrality_tier": "very-high", "inbound_access_score": 75.8, "best_spots_score": 63.0, "best_spots_tier": "very-high", "best_spots_rank": 4}}, {"type": "Feature", "geometry": {"type": "MultiPolygon", "coordinates": [[[[126.8221, 37.5407], [126.8254, 37.5417], [126.8276, 37.5477], [126.8298, 37.5477], [126.83, 37.5417], [126.8331, 37.5418], [126.8352, 37.5375], [126.8344, 37.5365], [126.8405, 37.5265], [126.864, 37.5298], [126.8638, 37.5407], [126.8621, 37.5444], [126.8642, 37.5512], [126.8726, 37.5471], [126.8808, 37.5481], [126.8851, 37.5433], [126.89, 37.5347], [126.8886, 37.5321], [126.8907, 37.5317], [126.8895, 37.53], [126.8872, 37.5302], [126.8834, 37.5273], [126.8809, 37.5277], [126.8809, 37.5259], [126.8788, 37.5254], [126.8794, 37.5205], [126.8782, 37.5188], [126.8795, 37.5178], [126.8773, 37.516], [126.8779, 37.5133], [126.8766, 37.5137], [126.8739, 37.5112], [126.8768, 37.5108], [126.8755, 37.5111], [126.8755, 37.5095], [126.8738, 37.5091], [126.875, 37.5077], [126.8736, 37.5036], [126.8703, 37.5058], [126.869, 37.5049], [126.8635, 37.505], [126.8626, 37.5068], [126.8641, 37.5083], [126.8603, 37.5066], [126.8583, 37.5099], [126.8556, 37.5092], [126.8529, 37.5107], [126.8462, 37.509], [126.8447, 37.5057], [126.8407, 37.506], [126.8352, 37.5029], [126.8306, 37.5064], [126.831, 37.508], [126.827, 37.5085], [126.8271, 37.5104], [126.8241, 37.5105], [126.8243, 37.5145], [126.8231, 37.5162], [126.8256, 37.5201], [126.8252, 37.5231], [126.8288, 37.5265], [126.8282, 37.529], [126.8253, 37.53], [126.8219, 37.5349], [126.8221, 37.5407]]]]}, "properties": {"gu": "Yangcheon-gu", "gu_kr": "양천구", "conn_tier": "peripheral", "conn_mean_m": 37.5, "conn_rank": 19, "travel_ease_score": 30.7, "travel_ease_tier": "mid", "area_centrality_score": 32.0, "area_centrality_tier": "mid", "inbound_access_score": 49.1, "best_spots_score": 40.5, "best_spots_tier": "low", "best_spots_rank": 16}}, {"type": "Feature", "geometry": {"type": "MultiPolygon", "coordinates": [[[[126.9446, 37.5338], [126.9303, 37.5414], [126.9271, 37.539], [126.9224, 37.5414], [126.9048, 37.5414], [126.8989, 37.548], [126.8805, 37.5563], [126.878, 37.5517], [126.8808, 37.5481], [126.8851, 37.5433], [126.89, 37.5347], [126.8886, 37.5321], [126.8907, 37.5317], [126.8895, 37.53], [126.8872, 37.5302], [126.8834, 37.5273], [126.8809, 37.5277], [126.8809, 37.5259], [126.8788, 37.5254], [126.8794, 37.5205], [126.8782, 37.5188], [126.8795, 37.5178], [126.8916, 37.5101], [126.8935, 37.5069], [126.8933, 37.4993], [126.8968, 37.4885], [126.9031, 37.485], [126.9123, 37.4963], [126.9202, 37.4982], [126.9252, 37.5123], [126.9277, 37.5157], [126.9361, 37.5163], [126.9489, 37.5197], [126.9499, 37.528], [126.9446, 37.5338]]]]}, "properties": {"gu": "Yeongdeungpo-gu", "gu_kr": "영등포구", "conn_tier": "mid", "conn_mean_m": 30.3, "conn_rank": 11, "travel_ease_score": 41.2, "travel_ease_tier": "high", "area_centrality_score": 46.1, "area_centrality_tier": "high", "inbound_access_score": 63.2, "best_spots_score": 54.7, "best_spots_tier": "high", "best_spots_rank": 9}}, {"type": "Feature", "geometry": {"type": "MultiPolygon", "coordinates": [[[[127.0083, 37.6848], [127.0081, 37.6802], [127.0119, 37.6794], [127.0139, 37.6749], [127.0186, 37.6696], [127.0155, 37.6661], [127.0166, 37.6617], [127.0145, 37.6619], [127.0126, 37.6523], [127.0132, 37.6504], [127.0248, 37.6473], [127.0325, 37.6419], [127.0346, 37.6378], [127.0375, 37.6365], [127.0417, 37.6312], [127.0443, 37.6338], [127.0465, 37.641], [127.0492, 37.6423], [127.0507, 37.6449], [127.0533, 37.6413], [127.0551, 37.6408], [127.0559, 37.646], [127.0543, 37.65], [127.054, 37.6557], [127.0489, 37.6684], [127.0521, 37.6844], [127.0515, 37.6859], [127.0484, 37.6939], [127.0449, 37.6924], [127.0431, 37.6936], [127.0431, 37.6952], [127.041, 37.6953], [127.0386, 37.6933], [127.0324, 37.6919], [127.0289, 37.6999], [127.0273, 37.7009], [127.0247, 37.6997], [127.0155, 37.7015], [127.0146, 37.6985], [127.0105, 37.6973], [127.0089, 37.6946], [127.0083, 37.6848]]]]}, "properties": {"gu": "Dobong-gu", "gu_kr": "도봉구", "conn_tier": "peripheral", "conn_mean_m": 53.6, "conn_rank": 25, "travel_ease_score": 9.7, "travel_ease_tier": "very-low", "area_centrality_score": 4.4, "area_centrality_tier": "very-low", "inbound_access_score": 17.2, "best_spots_score": 10.8, "best_spots_tier": "very-low", "best_spots_rank": 25}}, {"type": "Feature", "geometry": {"type": "MultiPolygon", "coordinates": [[[[127.0234, 37.5719], [127.0314, 37.5698], [127.0382, 37.573], [127.0419, 37.573], [127.0485, 37.57], [127.0591, 37.5623], [127.0723, 37.56], [127.0784, 37.5718], [127.0777, 37.5801], [127.0712, 37.5886], [127.0694, 37.5959], [127.0724, 37.6007], [127.0718, 37.6068], [127.0623, 37.6051], [127.0592, 37.601], [127.0521, 37.6001], [127.0513, 37.6013], [127.0455, 37.5953], [127.043, 37.597], [127.0418, 37.5965], [127.0387, 37.5913], [127.0362, 37.5912], [127.0363, 37.5899], [127.0295, 37.5827], [127.0232, 37.578], [127.0234, 37.5719]]]]}, "properties": {"gu": "Dongdaemun-gu", "gu_kr": "동대문구", "conn_tier": "well-connected", "conn_mean_m": 28.6, "conn_rank": 8, "travel_ease_score": 39.1, "travel_ease_tier": "high", "area_centrality_score": 33.9, "area_centrality_tier": "mid", "inbound_access_score": 77.2, "best_spots_score": 55.5, "best_spots_tier": "high", "best_spots_rank": 8}}, {"type": "Feature", "geometry": {"type": "MultiPolygon", "coordinates": [[[[126.9504, 37.6108], [126.9507, 37.6154], [126.9489, 37.6253], [126.9585, 37.6294], [126.9634, 37.6332], [126.9592, 37.6423], [126.9572, 37.6529], [126.9511, 37.655], [126.9473, 37.659], [126.9399, 37.6565], [126.9359, 37.6509], [126.9289, 37.6502], [126.9222, 37.6458], [126.914, 37.6451], [126.9108, 37.6477], [126.8984, 37.6514], [126.9028, 37.6477], [126.9123, 37.6443], [126.9102, 37.6382], [126.9112, 37.6359], [126.9061, 37.6332], [126.9088, 37.6293], [126.9089, 37.626], [126.9063, 37.6241], [126.9072, 37.6219], [126.903, 37.6183], [126.9003, 37.6112], [126.902, 37.6038], [126.9002, 37.6032], [126.9001, 37.6021], [126.9019, 37.5952], [126.899, 37.5928], [126.8999, 37.5899], [126.8969, 37.5886], [126.8865, 37.5888], [126.8856, 37.5912], [126.8871, 37.5945], [126.882, 37.5908], [126.8887, 37.5847], [126.9021, 37.576], [126.9132, 37.5871], [126.9164, 37.5859], [126.916, 37.5832], [126.9218, 37.5834], [126.9239, 37.5872], [126.9278, 37.5881], [126.9278, 37.5917], [126.9303, 37.5946], [126.9409, 37.5988], [126.9414, 37.6007], [126.94, 37.6031], [126.9504, 37.6108]]]]}, "properties": {"gu": "Eunpyeong-gu", "gu_kr": "은평구", "conn_tier": "peripheral", "conn_mean_m": 39.5, "conn_rank": 20, "travel_ease_score": 20.5, "travel_ease_tier": "low", "area_centrality_score": 11.1, "area_centrality_tier": "very-low", "inbound_access_score": 39.3, "best_spots_score": 25.2, "best_spots_tier": "low", "best_spots_rank": 19}}, {"type": "Feature", "geometry": {"type": "MultiPolygon", "coordinates": [[[[127.0083, 37.6848], [127.0081, 37.6802], [127.0119, 37.6794], [127.0139, 37.6749], [127.0186, 37.6696], [127.0155, 37.6661], [127.0166, 37.6617], [127.0145, 37.6619], [127.0126, 37.6523], [127.0132, 37.6504], [127.0248, 37.6473], [127.0325, 37.6419], [127.0346, 37.6378], [127.0375, 37.6365], [127.0417, 37.6312], [127.05, 37.6244], [127.0372, 37.6129], [127.0303, 37.6091], [127.03, 37.6123], [127.0222, 37.6113], [127.0174, 37.6147], [127.0108, 37.6163], [127.0078, 37.6197], [127.0081, 37.6241], [127.0, 37.6259], [126.9929, 37.6325], [126.9903, 37.6326], [126.9845, 37.6365], [126.9859, 37.6407], [126.9834, 37.6436], [126.9847, 37.6477], [126.9797, 37.6562], [126.9829, 37.6565], [126.9872, 37.6626], [126.9942, 37.6663], [126.9942, 37.6747], [126.9928, 37.6783], [126.9912, 37.6793], [126.996, 37.6819], [126.9952, 37.6849], [127.0022, 37.6838], [127.0042, 37.6851], [127.0083, 37.6848]]]]}, "properties": {"gu": "Gangbuk-gu", "gu_kr": "강북구", "conn_tier": "peripheral", "conn_mean_m": 37.5, "conn_rank": 18, "travel_ease_score": 20.9, "travel_ease_tier": "low", "area_centrality_score": 15.9, "area_centrality_tier": "very-low", "inbound_access_score": 48.4, "best_spots_score": 32.1, "best_spots_tier": "low", "best_spots_rank": 18}}, {"type": "Feature", "geometry": {"type": "MultiPolygon", "coordinates": [[[[127.1095, 37.544], [127.1152, 37.5565], [127.1173, 37.5595], [127.1286, 37.5662], [127.1377, 37.5684], [127.1489, 37.5684], [127.1667, 37.579], [127.1714, 37.5808], [127.1769, 37.5808], [127.1754, 37.5781], [127.1757, 37.5749], [127.1815, 37.5623], [127.1814, 37.5529], [127.183, 37.5518], [127.1828, 37.5467], [127.1838, 37.5455], [127.1796, 37.5466], [127.1795, 37.5456], [127.1666, 37.5442], [127.1632, 37.545], [127.1539, 37.5345], [127.1532, 37.5291], [127.1497, 37.5259], [127.1478, 37.5222], [127.1458, 37.522], [127.145, 37.5169], [127.1191, 37.528], [127.1234, 37.5386], [127.1095, 37.544]]]]}, "properties": {"gu": "Gangdong-gu", "gu_kr": "강동구", "conn_tier": "peripheral", "conn_mean_m": 41.0, "conn_rank": 21, "travel_ease_score": 18.1, "travel_ease_tier": "very-low", "area_centrality_score": 20.1, "area_centrality_tier": "low", "inbound_access_score": 29.1, "best_spots_score": 24.6, "best_spots_tier": "very-low", "best_spots_rank": 21}}, {"type": "Feature", "geometry": {"type": "MultiPolygon", "coordinates": [[[[127.0572, 37.5301], [127.0738, 37.5594], [127.0723, 37.56], [127.0784, 37.5718], [127.0918, 37.5695], [127.101, 37.5734], [127.104, 37.5712], [127.1012, 37.5609], [127.1032, 37.5572], [127.1054, 37.5557], [127.1098, 37.5598], [127.1131, 37.5602], [127.1141, 37.5587], [127.1133, 37.5569], [127.1152, 37.5565], [127.1095, 37.544], [127.105, 37.5379], [127.0872, 37.5251], [127.0795, 37.5228], [127.0666, 37.5249], [127.0572, 37.5301]]]]}, "properties": {"gu": "Gwangjin-gu", "gu_kr": "광진구", "conn_tier": "mid", "conn_mean_m": 32.6, "conn_rank": 13, "travel_ease_score": 33.1, "travel_ease_tier": "mid", "area_centrality_score": 28.1, "area_centrality_tier": "mid", "inbound_access_score": 65.3, "best_spots_score": 46.7, "best_spots_tier": "mid", "best_spots_rank": 12}}, {"type": "Feature", "geometry": {"type": "MultiPolygon", "coordinates": [[[[126.9667, 37.5658], [126.9536, 37.5788], [126.9582, 37.5811], [126.9575, 37.5931], [126.959, 37.5951], [126.958, 37.5982], [126.9531, 37.5988], [126.9524, 37.6025], [126.9541, 37.6051], [126.9506, 37.6085], [126.9504, 37.6108], [126.9507, 37.6154], [126.9489, 37.6253], [126.9585, 37.6294], [126.9729, 37.6324], [126.9753, 37.6316], [126.9749, 37.6288], [126.9796, 37.6287], [126.9797, 37.6262], [126.9834, 37.6217], [126.9835, 37.6185], [126.9865, 37.614], [126.9855, 37.6115], [126.9868, 37.6089], [126.9867, 37.604], [126.9785, 37.601], [126.9767, 37.5979], [126.9854, 37.5945], [126.989, 37.5914], [127.0009, 37.5923], [127.0023, 37.589], [127.0066, 37.586], [127.0067, 37.5823], [127.0089, 37.5804], [127.0147, 37.5822], [127.0168, 37.5816], [127.0181, 37.5777], [127.0214, 37.5789], [127.0232, 37.578], [127.0234, 37.5719], [127.0153, 37.5697], [126.9899, 37.5681], [126.973, 37.5693], [126.969, 37.5682], [126.9667, 37.5658]]]]}, "properties": {"gu": "Jongno-gu", "gu_kr": "종로구", "conn_tier": "well-connected", "conn_mean_m": 25.6, "conn_rank": 2, "travel_ease_score": 60.9, "travel_ease_tier": "very-high", "area_centrality_score": 51.7, "area_centrality_tier": "very-high", "inbound_access_score": 94.7, "best_spots_score": 73.2, "best_spots_tier": "very-high", "best_spots_rank": 3}}, {"type": "Feature", "geometry": {"type": "MultiPolygon", "coordinates": [[[[126.9624, 37.5515], [126.9692, 37.5556], [126.9764, 37.5531], [126.9765, 37.5552], [126.9792, 37.5528], [126.9809, 37.5539], [126.9855, 37.5537], [126.9875, 37.5515], [126.9907, 37.551], [126.9952, 37.5476], [126.9979, 37.5499], [127.0041, 37.5504], [127.006, 37.5482], [127.0048, 37.5464], [127.0072, 37.5439], [127.009, 37.544], [127.0083, 37.5451], [127.0097, 37.5477], [127.0161, 37.5526], [127.0179, 37.5567], [127.0229, 37.5579], [127.0233, 37.5607], [127.0265, 37.5633], [127.0268, 37.5651], [127.0236, 37.5652], [127.0234, 37.5719], [127.0153, 37.5697], [126.9899, 37.5681], [126.973, 37.5693], [126.969, 37.5682], [126.9667, 37.5658], [126.9695, 37.562], [126.9616, 37.5591], [126.9634, 37.5569], [126.9617, 37.555], [126.9624, 37.5515]]]]}, "properties": {"gu": "Jung-gu", "gu_kr": "중구", "conn_tier": "well-connected", "conn_mean_m": 24.8, "conn_rank": 1, "travel_ease_score": 71.0, "travel_ease_tier": "very-high", "area_centrality_score": 53.3, "area_centrality_tier": "very-high", "inbound_access_score": 100.0, "best_spots_score": 76.7, "best_spots_tier": "very-high", "best_spots_rank": 1}}, {"type": "Feature", "geometry": {"type": "MultiPolygon", "coordinates": [[[[127.0784, 37.5718], [127.0777, 37.5801], [127.0712, 37.5886], [127.0694, 37.5959], [127.0724, 37.6007], [127.0718, 37.6068], [127.0714, 37.6152], [127.086, 37.6203], [127.0979, 37.6175], [127.1057, 37.6209], [127.1108, 37.6211], [127.116, 37.6194], [127.1182, 37.6038], [127.1141, 37.6001], [127.1161, 37.5975], [127.1161, 37.5944], [127.113, 37.5928], [127.1103, 37.5889], [127.1084, 37.5832], [127.1026, 37.5793], [127.101, 37.5734], [127.0918, 37.5695], [127.0784, 37.5718]]]]}, "properties": {"gu": "Jungnang-gu", "gu_kr": "중랑구", "conn_tier": "mid", "conn_mean_m": 36.5, "conn_rank": 17, "travel_ease_score": 17.2, "travel_ease_tier": "very-low", "area_centrality_score": 9.1, "area_centrality_tier": "very-low", "inbound_access_score": 38.9, "best_spots_score": 24.0, "best_spots_tier": "very-low", "best_spots_rank": 22}}, {"type": "Feature", "geometry": {"type": "MultiPolygon", "coordinates": [[[[126.8805, 37.5563], [126.8662, 37.563], [126.8536, 37.5718], [126.8536, 37.5738], [126.8609, 37.575], [126.8635, 37.5775], [126.8759, 37.5791], [126.8773, 37.584], [126.8765, 37.5844], [126.882, 37.5908], [126.8887, 37.5847], [126.9021, 37.576], [126.9098, 37.5708], [126.926, 37.5652], [126.9283, 37.5634], [126.9266, 37.5589], [126.9369, 37.5551], [126.9414, 37.5565], [126.9591, 37.5572], [126.9616, 37.5591], [126.9634, 37.5569], [126.9617, 37.555], [126.9624, 37.5515], [126.9637, 37.5488], [126.9579, 37.5455], [126.9574, 37.5432], [126.9584, 37.5428], [126.9557, 37.5395], [126.9513, 37.5363], [126.9463, 37.5357], [126.9446, 37.5338], [126.9303, 37.5414], [126.9271, 37.539], [126.9224, 37.5414], [126.9048, 37.5414], [126.8989, 37.548], [126.8805, 37.5563]]]]}, "properties": {"gu": "Mapo-gu", "gu_kr": "마포구", "conn_tier": "well-connected", "conn_mean_m": 28.4, "conn_rank": 7, "travel_ease_score": 35.5, "travel_ease_tier": "mid", "area_centrality_score": 27.7, "area_centrality_tier": "low", "inbound_access_score": 70.9, "best_spots_score": 49.3, "best_spots_tier": "mid", "best_spots_rank": 11}}, {"type": "Feature", "geometry": {"type": "MultiPolygon", "coordinates": [[[[127.0515, 37.6859], [127.0521, 37.6844], [127.0489, 37.6684], [127.054, 37.6557], [127.0543, 37.65], [127.0559, 37.646], [127.0551, 37.6408], [127.0533, 37.6413], [127.0507, 37.6449], [127.0492, 37.6423], [127.0465, 37.641], [127.0443, 37.6338], [127.0417, 37.6312], [127.05, 37.6244], [127.062, 37.6144], [127.0713, 37.6161], [127.0714, 37.6152], [127.086, 37.6203], [127.0979, 37.6175], [127.1057, 37.6209], [127.1036, 37.6231], [127.1053, 37.6271], [127.112, 37.6325], [127.1124, 37.6368], [127.1106, 37.6391], [127.1123, 37.6402], [127.1111, 37.6426], [127.1071, 37.6449], [127.092, 37.6465], [127.0943, 37.6537], [127.0915, 37.6578], [127.0919, 37.6605], [127.0945, 37.6635], [127.0956, 37.6681], [127.0948, 37.6751], [127.0917, 37.6786], [127.096, 37.6848], [127.0964, 37.6889], [127.0856, 37.6906], [127.0841, 37.694], [127.0811, 37.6962], [127.0765, 37.6957], [127.0731, 37.6938], [127.0635, 37.6949], [127.0597, 37.6902], [127.0551, 37.6893], [127.0518, 37.6873], [127.0515, 37.6859]]]]}, "properties": {"gu": "Nowon-gu", "gu_kr": "노원구", "conn_tier": "peripheral", "conn_mean_m": 41.0, "conn_rank": 22, "travel_ease_score": 9.2, "travel_ease_tier": "very-low", "area_centrality_score": 3.3, "area_centrality_tier": "very-low", "inbound_access_score": 21.8, "best_spots_score": 12.6, "best_spots_tier": "very-low", "best_spots_rank": 24}}, {"type": "Feature", "geometry": {"type": "MultiPolygon", "coordinates": [[[[126.9667, 37.5658], [126.9536, 37.5788], [126.9582, 37.5811], [126.9575, 37.5931], [126.959, 37.5951], [126.958, 37.5982], [126.9531, 37.5988], [126.9524, 37.6025], [126.9541, 37.6051], [126.9506, 37.6085], [126.9504, 37.6108], [126.94, 37.6031], [126.9414, 37.6007], [126.9409, 37.5988], [126.9303, 37.5946], [126.9278, 37.5917], [126.9278, 37.5881], [126.9239, 37.5872], [126.9218, 37.5834], [126.916, 37.5832], [126.9164, 37.5859], [126.9132, 37.5871], [126.9021, 37.576], [126.9098, 37.5708], [126.926, 37.5652], [126.9283, 37.5634], [126.9266, 37.5589], [126.9369, 37.5551], [126.9414, 37.5565], [126.9591, 37.5572], [126.9616, 37.5591], [126.9695, 37.562], [126.9667, 37.5658]]]]}, "properties": {"gu": "Seodaemun-gu", "gu_kr": "서대문구", "conn_tier": "mid", "conn_mean_m": 34.3, "conn_rank": 14, "travel_ease_score": 41.0, "travel_ease_tier": "high", "area_centrality_score": 33.6, "area_centrality_tier": "mid", "inbound_access_score": 78.2, "best_spots_score": 55.9, "best_spots_tier": "high", "best_spots_rank": 7}}, {"type": "Feature", "geometry": {"type": "MultiPolygon", "coordinates": [[[[126.9845, 37.6365], [126.9903, 37.6326], [126.9929, 37.6325], [127.0, 37.6259], [127.0081, 37.6241], [127.0078, 37.6197], [127.0108, 37.6163], [127.0174, 37.6147], [127.0222, 37.6113], [127.03, 37.6123], [127.0303, 37.6091], [127.0372, 37.6129], [127.05, 37.6244], [127.062, 37.6144], [127.0713, 37.6161], [127.0714, 37.6152], [127.0718, 37.6068], [127.0623, 37.6051], [127.0592, 37.601], [127.0521, 37.6001], [127.0513, 37.6013], [127.0455, 37.5953], [127.043, 37.597], [127.0418, 37.5965], [127.0387, 37.5913], [127.0362, 37.5912], [127.0363, 37.5899], [127.0295, 37.5827], [127.0232, 37.578], [127.0214, 37.5789], [127.0181, 37.5777], [127.0168, 37.5816], [127.0147, 37.5822], [127.0089, 37.5804], [127.0067, 37.5823], [127.0066, 37.586], [127.0023, 37.589], [127.0009, 37.5923], [126.989, 37.5914], [126.9854, 37.5945], [126.9767, 37.5979], [126.9785, 37.601], [126.9867, 37.604], [126.9868, 37.6089], [126.9855, 37.6115], [126.9865, 37.614], [126.9835, 37.6185], [126.9834, 37.6217], [126.9797, 37.6262], [126.9796, 37.6287], [126.9749, 37.6288], [126.9753, 37.6316], [126.9845, 37.6365]]]]}, "properties": {"gu": "Seongbuk-gu", "gu_kr": "성북구", "conn_tier": "mid", "conn_mean_m": 29.8, "conn_rank": 10, "travel_ease_score": 31.6, "travel_ease_tier": "mid", "area_centrality_score": 21.3, "area_centrality_tier": "low", "inbound_access_score": 67.7, "best_spots_score": 44.5, "best_spots_tier": "mid", "best_spots_rank": 14}}, {"type": "Feature", "geometry": {"type": "MultiPolygon", "coordinates": [[[[127.0723, 37.56], [127.0738, 37.5594], [127.0572, 37.5301], [127.0461, 37.5346], [127.0259, 37.54], [127.0211, 37.5383], [127.0175, 37.535], [127.0172, 37.5374], [127.0156, 37.5385], [127.0096, 37.5395], [127.009, 37.544], [127.0083, 37.5451], [127.0097, 37.5477], [127.0161, 37.5526], [127.0179, 37.5567], [127.0229, 37.5579], [127.0233, 37.5607], [127.0265, 37.5633], [127.0268, 37.5651], [127.0236, 37.5652], [127.0234, 37.5719], [127.0314, 37.5698], [127.0382, 37.573], [127.0419, 37.573], [127.0485, 37.57], [127.0591, 37.5623], [127.0723, 37.56]]]]}, "properties": {"gu": "Seongdong-gu", "gu_kr": "성동구", "conn_tier": "well-connected", "conn_mean_m": 27.6, "conn_rank": 4, "travel_ease_score": 47.4, "travel_ease_tier": "very-high", "area_centrality_score": 37.1, "area_centrality_tier": "high", "inbound_access_score": 87.0, "best_spots_score": 62.0, "best_spots_tier": "very-high", "best_spots_rank": 5}}, {"type": "Feature", "geometry": {"type": "MultiPolygon", "coordinates": [[[[127.1228, 37.467], [127.1265, 37.4675], [127.1266, 37.4687], [127.1327, 37.4682], [127.1326, 37.4747], [127.147, 37.4738], [127.1475, 37.4818], [127.1487, 37.484], [127.1585, 37.4897], [127.1574, 37.4899], [127.1601, 37.4944], [127.1605, 37.5011], [127.1577, 37.5032], [127.1565, 37.5019], [127.1503, 37.5047], [127.1464, 37.5032], [127.1408, 37.5059], [127.1418, 37.5071], [127.1399, 37.5086], [127.1404, 37.5103], [127.1413, 37.5124], [127.1436, 37.5127], [127.1407, 37.5155], [127.1456, 37.5154], [127.145, 37.5169], [127.1191, 37.528], [127.1234, 37.5386], [127.1095, 37.544], [127.105, 37.5379], [127.0872, 37.5251], [127.0795, 37.5228], [127.0666, 37.5249], [127.0702, 37.5037], [127.0965, 37.4962], [127.1063, 37.4914], [127.1226, 37.4688], [127.1228, 37.467]]]]}, "properties": {"gu": "Songpa-gu", "gu_kr": "송파구", "conn_tier": "mid", "conn_mean_m": 35.5, "conn_rank": 15, "travel_ease_score": 25.7, "travel_ease_tier": "low", "area_centrality_score": 27.2, "area_centrality_tier": "low", "inbound_access_score": 37.5, "best_spots_score": 32.4, "best_spots_tier": "low", "best_spots_rank": 17}}, {"type": "Feature", "geometry": {"type": "MultiPolygon", "coordinates": [[[[126.9808, 37.5065], [126.9854, 37.5065], [127.0084, 37.5259], [127.0175, 37.535], [127.0172, 37.5374], [127.0156, 37.5385], [127.0096, 37.5395], [127.009, 37.544], [127.0072, 37.5439], [127.0048, 37.5464], [127.006, 37.5482], [127.0041, 37.5504], [126.9979, 37.5499], [126.9952, 37.5476], [126.9907, 37.551], [126.9875, 37.5515], [126.9855, 37.5537], [126.9809, 37.5539], [126.9792, 37.5528], [126.9765, 37.5552], [126.9764, 37.5531], [126.9692, 37.5556], [126.9624, 37.5515], [126.9637, 37.5488], [126.9579, 37.5455], [126.9574, 37.5432], [126.9584, 37.5428], [126.9557, 37.5395], [126.9513, 37.5363], [126.9463, 37.5357], [126.9446, 37.5338], [126.9499, 37.528], [126.9489, 37.5197], [126.9651, 37.5127], [126.9733, 37.5071], [126.9808, 37.5065]]]]}, "properties": {"gu": "Yongsan-gu", "gu_kr": "용산구", "conn_tier": "well-connected", "conn_mean_m": 26.2, "conn_rank": 3, "travel_ease_score": 52.9, "travel_ease_tier": "very-high", "area_centrality_score": 54.0, "area_centrality_tier": "very-high", "inbound_access_score": 94.0, "best_spots_score": 74.0, "best_spots_tier": "very-high", "best_spots_rank": 2}}]}